Name,Street,Zip Code,Address
famila Nordost,Barkhausenstraße 66,14612, Falkensee
famila Nordost,Schillerstr. 2,14641, Nauen
famila Nordost,Schwarzer Weg 11,19348, Perleberg
famila Nordost,Käthe-Kollwitz-Str. 2c,19288, Ludwigslust
famila Nordost,Fr.-W.-Raiffeisen-Str. 1c,17192, Waren
famila Nordost,Friedrich-Engels-Str. 42,18273, Güstrow
famila,Heideweg 46,18273, Güstrow
famila Nordost,Rostocker Str. 162,17166, Teterow
famila Nordost,Nebelring 9,18246, Bützow-Wolken
famila Nordost,Silostr. 2,17389, Anklam
famila Nordost,Wedeler Str. 5,17438, Wolgast
famila,Rostocker Landweg 1,18311, Ribnitz-Damgarten
famila Nordost,Am Langendorfer Berg 1,18442, Langendorf
famila,Grünhufer Bogen 13-17,18437, Stralsund
famila Nordost,Grünhufer Bogen 13-17,18455, Kramerhof Bei Stralsund
famila Nordost,Am Mastweg 6,18356, Barth
famila Nordost,Nonnenseestr. 1,18528, Bergen
famila Nordost,Zur Hasselklink 3,29229, Celle
famila Nordost,Weserstr. 1,27318, Hoya
famila Nordost,Kohlenbissener Grund 8-12,29633, Munster
famila Nordost,Adolfsplatz 3,29451, Dannenberg
famila Nordost,Am Vogelsang 12,29640, Schneverdingen
famila Nordost,Auf Den Blöcken 7,21337, Lüneburg
famila Nordost,Ladestr. 3,28844, Weyhe
famila Nordost,Auf Dem Rusch 1,27356, Rotenburg
famila,Schützenstraße 47,21266, Jesteburg
famila Nordost,Mecklenburger Str. 1-3,21481, Lauenburg
famila Nordost,Löhnfeld 10,21423, Winsen
famila Nordost,Lindenstr. 15,21244, Buchholz
famila Nordost,Nordring 4,21244, Buchholz
famila Nordost,Spandauer Str. 31,21502, Geesthacht
famila Nordost,Hördorfer Weg 50,27711, Osterholz-Scharmbeck
famila Nordost,Matthias-Claudius-Str. 1,21629, Neu Wulmstorf
famila Nordost,Liebigstr. 2,21465, Reinbek
famila Nordost,Grambeker Weg 101,23879, Mölln
famila Nordost,Großenseer Str. 7b,22946, Trittau
famila Nordost,Eichenlohweg 17,22309, Hamburg-Steilshoop
famila Nordost,Rissener Str. 105,22880, Wedel
famila,Stadtweg 160,21680, Stade
famila,Carl-Backhaus-Straße 46,22926, Ahrensburg
famila Nordost,Westring 6,25421, Pinneberg
famila Nordost,Am Redder 2,22941, Bargteheide
famila Nordost,Flensburger Str. 3,25421, Pinneberg
famila Nordost,Stormarnstr. 33-41,22844, Norderstedt
famila Nordost,Großer Sand 96-98,25436, Uetersen
famila Nordost,Pascalstr. 9,25451, Quickborn
famila Nordost,Lily-Braun-Str. 24-28,23843, Bad Oldesloe
famila Nordost,Barnitzer Str. 1-7,23858, Reinfeld
famila Nordost,Hans-Böckler- Str. 1,25337, Elmshorn
famila Nordost,Wesloer Landstr. 50-70,23566, Lübeck
famila Nordost,Schwartauer Landstr. 4,23554, Lübeck
famila,Kisdorfer Weg 11,24568, Kaltenkirchen
famila Nordost,Ravensbusch 8,23617, Stockelsdorf
famila Nordost,Möllerung 11-13,23569, Lübeck
famila Nordost,Sereetzer Feld 1,23611, Sereetz
famila Nordost,Eutiner Str. 45,23795, Bad Segeberg
famila Nordost,Lohstücker Weg 16,24576, Bad Bramstedt
famila,Höppnerweg 8 Famila,23669, Timmendorfer Strand
famila Nordost,Gablonzer Str. 1-2,24610, Trappenkamp
famila Nordost,Rettiner Weg 77,23730, Neustadt I. H.
famila,Haart 224,24539, Neumünster-Ruthenberg
famila Nordost,Plöner Landstr. 8-10,23701, Eutin
famila Nordost,Timmasper Weg 4,24589, Nortorf
famila,Am Vossberg 1,23758, Oldenburg
famila Nordost,Posthofstr. 4,24321, Lütjenburg
famila,Grot Steenbusch 34,24145, Kiel-Meimersdorf
famila,Preetzer Straße 298,24147, Kiel
famila Nordost,Seekoppelweg 2,24113, Kiel
famila Nordost,Fritz-Thiedemann-Ring 40,25746, Heide
famila Nordost,Industriestr. 3,23774, Heiligenhafen
famila Nordost,Schönkirchener Str. 80,24149, Kiel
famila Nordost,Kurt-Schumacher-Platz 4,24109, Kiel-Mettenhof
famila Nordost,Kreishafenstr. 4-6,24768, Rendsburg
famila Nordost,Prinz-Heinrich-Str. 20,24106, Kiel-Wik
famila Nordost,Friedrichstädter Str. 55,24768, Rendsburg
famila Nordost,Altenholzer Str. 9-11,24161, Altenholz
famila Nordost,Rendsburger Str. 119,24340, Eckernförde
famila,Friedrich-Ebert-Straße 3,24837, Schleswig
famila,Andreas-Clausen-Straße 2,25813, Husum
famila Nordost,Schottweg 94,24944, Flensburg
famila Nordost,Industriestr. 13,25917, Leck
famila Nordost,Industrieweg 1,25980, Westerland
famila Nordost,Hansestr. 1,33689, Bielefeld-Sennestadt
famila,Braunschweigerstr. 40,38518, Gifhorn
famila Nordost,Schapers Kamp 5,31311, Uetze
famila,Hans-Böckler- Str. 60-66,30851, Langenhagen
famila Nordost,Wedemarkstr. 96,30900, Wedemark
famila Nordost,Rudolf-Diesel-Ring 30,31535, Neustadt A.Rbge
famila Nordost,Lemker Str. 20,31582, Nienburg
famila Nordost,Groweg 50,49356, Diepholz
