Name,Street,Zip Code,Address
Kaufland,Äußere Reichenbacher Str. 64,8529, Plauen
Kaufland,Morgenbergstr. 41,8525, Plauen
Kaufland,Hans-Sachs-Str. 15,8525, Plauen-Haselbrunn
Kaufland,Alte Jößnitzer Str. 30,8525, Plauen
Kaufland,Zur Sternkoppel 1,8228, Rodewisch
Kaufland,Oettersdorfer Str. 40,7907, Schleiz
Kaufland,Kronacher Str. 9,7333, Unterwellenborn
Kaufland,Aumaische Str. 27/29,7937, Zeulenroda
Kaufland,Karlsbader Str. 2 A,8340, Schwarzenberg
Kaufland,Zwickauer Str. 128,8468, Reichenbach im Vogtland
Kaufland,August-Bebel-Str. 46,7973, Greiz-Irchwitz
Kaufland,Saalfelder Str. 21,7381, Pößneck
Kaufland,Brünlasberg 1A,8280, Aue-Bad Schlema
Kaufland,Am Spielborn 1-3,7407, Rudolstadt-Volkstedt
Kaufland,Albin-Trommler-Str. 1,8297, Zwönitz
Kaufland,Stiftstr. 6-8,8412, Werdau
Kaufland,Gewerbering 2,9456, Annaberg-Buchholz
Kaufland,Bernhardstr. 5,8060, Zwickau
Kaufland,Uferstr. 1,8412, Werdau
Kaufland,Äußere Dresdner Str. 25,8066, Zwickau
Kaufland,Franz-Mehring-Str. 178,8058, Zwickau
Kaufland,Schubertstr. 1,8058, Zwickau
Kaufland,Auer Str. 20,9366, Stollberg
Kaufland,Am Lautengrund 4,9496, Marienberg
Kaufland,Schleizer Straße36-39,7549, Gera-Lusan
Kaufland,Karl-Marx-Allee 20,7747, Jena
Kaufland,Grenayer Str. 10,8371, Glauchau
Kaufland,Seiferitzer Allee 1,8393, Meerane
Kaufland,Heinrichstr. 30,7545, Gera-Debschwitz
Kaufland,Heinrich-Heine-Str. 1 a,9337, Hohenstein-Ernstthal
Kaufland,Waldenburger Str. F175,8371, Glauchau-Jerisau
Kaufland,Chemnitzer Str. 65,9123, Chemnitz-Hutholz
Kaufland,Thüringer Str. 26,7552, Gera-Bieblach-Ost
Kaufland,Chemnitzer Str. 124,9405, Zschopau
Kaufland,Markt 11,4626, Schmölln
Kaufland,Naumburger Str. 57a,7743, Jena
Kaufland,Ostring 4,9212, Limbach-Oberfrohna
Kaufland,Thomas-Mann-Platz 1C,9130, Chemnitz-Hilbersdorf
Kaufland,Obere Donitzschkau 2,7607, Eisenberg
Kaufland,Mittweidaer Str. 1,9217, Burgstädt
Kaufland,Käthe-Kollwitz-Str. 43,4600, Altenburg
Kaufland,Kauerndorfer Allee 20,4600, Altenburg
Kaufland,Schwarzer Weg 40,6712, Zeitz
Kaufland,Hainichener Dorfstr. 1,6712, Zeitz
Kaufland,Jochen-Köhler-Str. 11,9669, Frankenberg
Kaufland,Häuersteig 2,9599, Freiberg
Kaufland,Sonnenstr. 7,9648, Mittweida
Kaufland,Bebelplatz 2,9599, Freiberg
Kaufland,Weißenfelser Str. 70,6618, Naumburg
Kaufland,Am Wilhelmschacht 34,4552, Borna
Kaufland,Max-Planck-Str. 3,6667, Weißenfels
Kaufland,Drei Wege 5,6667, Weißenfels-Borau
Kaufland,Hauptstr. 107,4736, Waldheim
Kaufland,Industriering 2,1744, Dippoldiswalde
Kaufland,An der Spinnerei 8,1705, Freital
Kaufland,Schillerstr. 6,4720, Döbeln
Kaufland,Wilsdruffer Str. 52,1705, Freital
Kaufland,Gerichtswiesen 2,4668, Grimma
Kaufland,Gerichtswiesen 39,4668, Grimma
Kaufland,Sepp-Verscht-Str. 1,4463, Großpösna
Kaufland,Kohlenstr. 18,1189, Dresden
Kaufland,Dohnaer Str. 246,1239, Dresden-Lockwitz
Kaufland,Anton-Zickmantel-Str. 42,4249, Leipzig
Kaufland,Kesselsdorfer Str. 81,1159, Dresden
Kaufland,Harthaer Str. 3,1169, Dresden
Kaufland,Struppener Str. 11 A,1796, Pirna
Kaufland,Reicker Str. 60,1219, Dresden-Strehlen
Kaufland,Kiewer Str. 30,4205, Leipzig
Kaufland,Lohmener Str. 12 C,1796, Pirna
Kaufland,Lindenauer Markt 2,4177, Leipzig-Altlindenau
Kaufland,Borsbergstr. 35,1309, Dresden
Kaufland,Miltitzer Str. 13,4178, Leipzig
Kaufland,Querfurter Str. 16,6217, Merseburg
Kaufland,Dresdner Str. 80,4317, Leipzig-Reudnitz-Thonberg
Kaufland,Schützestr. 1,1662, Meißen
Kaufland,Peschelstr. 33,1139, Dresden
Kaufland,Weintraubenstr. 31,1445, Radebeul
Kaufland,Paunsdorfer Allee 1,4329, Leipzig-Paunsdorf
Kaufland,Georg-Schumann-Str. 105,4155, Leipzig
Kaufland,Salzstr. 16 A,1640, Coswig
Kaufland,Georg-Schumann-Str. 290,4159, Leipzig
Kaufland,Niederauer Str. 43,1662, Meißen
Kaufland,Torgauer Str. 279,4347, Leipzig-Heiterblick
Kaufland,An der Prießnitzaue 3,1328, Dresden
Kaufland,Portitzer Str. 34,4425, Taucha
Kaufland,Südstadtring 90,6128, Halle
Kaufland,Collmener Str. 12,4808, Wurzen
Kaufland,Hohenbusch-Markt 1,1108, Dresden
Kaufland,Leipziger Chaussee 147,6112, Halle
Kaufland,Schützenplatz 2,6526, Sangerhausen
Kaufland,Zollrain 9,6124, Halle (Saale)
Kaufland,Hauptstr. 74-78,1587, Riesa
Kaufland,Wilhelm-Kaulisch-Str. 26,1844, Neustadt in Sachsen-Langburkersdorf
Kaufland,Riesaer Str. 54,1558, Großenhain
Kaufland,Hallesche Str. 77,6295, Lutherstadt Eisleben
Kaufland,Magdeburger Chaussee 23,6118, Halle (Saale)
Kaufland,An der Schondorfer Mark 1,4838, Eilenburg
Kaufland,Pulsnitzer Straße16,1900, Großröhrsdorf
Kaufland,Sachsenstr. 8,4509, Delitzsch-Schenkenberg
Kaufland,Thiemendorfer Mark 3,6796, Sandersdorf-Brehna-Torna
Kaufland,Äußere Weberstr. 87,2763, Zittau
Kaufland,Christian-Keimann-Str. 44,2763, Zittau
Kaufland,Johann-Andreas-Schubert-Str. 11,2730, Ebersbach-Neugersdorf
Kaufland,Bismarckstr. 39,6749, Bitterfeld-Wolfen
Kaufland,Turnierplatzweg 1,4860, Torgau
Kaufland,Willy-Muhle-Str. 25,1917, Kamenz
Kaufland,Außenring 1,4860, Torgau
Kaufland,An der Windmühle 2,1917, Kamenz
Kaufland,Rumburger Str. 9,2708, Löbau
Kaufland,Gesundbrunnenring 62,2625, Bautzen
Kaufland,Wittener Str. 28,6766, Wolfen
Kaufland,Hoymer Chaussee 108,6449, Aschersleben
Kaufland,Merziener Str. 20,6366, Köthen
Kaufland,Blankenburger Str. 37,6502, Thale
Kaufland,Zepziger Weg 6,6406, Bernburg (Saale)
Kaufland,Badeborner Weg 2,6484, Quedlinburg
Kaufland,Zunftstr. 15,6847, Dessau-Roßlau-West
Kaufland,Am Eichengarten 2,6842, Dessau-Roßlau-Mildensee
Kaufland,Briesker Str. 83,1968, Senftenberg
Kaufland,Zittauer Str. 120,2827, Görlitz
Kaufland,Osterodaer Str. 12,4916, Herzberg
Kaufland,Wolfgangstr. 14,6844, Dessau-Roßlau
Kaufland,Str. E 9,2977, Hoyerswerda
Kaufland,Scultetusstr. 24,2828, Görlitz
Kaufland,Sonnewalder Str. 100,3238, Finsterwalde
Kaufland,Lerchenbergstr. 112-113,6886, Lutherstadt Wittenberg
Kaufland,An der Lusatia 1,3130, Spremberg
Kaufland,Sachsendamm 30,2943, Weißwasser
Kaufland,Berliner Str. 114,3099, Kolkwitz
Kaufland,Hardenbergstr. 5,3050, Cottbus
Kaufland,Am Kaufland 2,3222, Lübbenau-Zerkwitz
Kaufland,Sielower Chaussee 38,3044, Cottbus
Kaufland,Promenade 2,3149, Forst
Kaufland,Kaltenborner Str. 68,3172, Guben
Kaufland,Friedrich-Schiller-Str. 5 b,3172, Guben
Kaufland,Burg 22,14943, Luckenwalde
Kaufland,Dorfstr. 29,14822, Linthe
Kaufland,Stubenrauchstr. 60a,15806, Zossen
Kaufland,Potsdamer Str. 51-53,14974, Ludwigsfelde
Kaufland,Auf dem Strengfeld 6,14542, Werder (Havel)
Kaufland,An der Bundesstr. 1,14776, Wust
Kaufland,Am Moosfenn 1,14478, Potsdam-Waldstadt II
Kaufland,Zeppelinstr. 132,14471, Potsdam-Potsdam West
Kaufland,Wiesenstr. 7,15711, Königs Wusterhausen
Kaufland,Babelsberger Str. 16,14473, Potsdam
Kaufland,Chausseestr. 1,15745, Wildau
Kaufland,Am Lückefeld 97,15831, Blankenfelde-Mahlow
Kaufland,Potsdamer Str. 6-8,14513, Teltow
Kaufland,Goerzallee 195,14167, Berlin-Lichterfelde
Kaufland,Buckower Chaussee 100-102,12277, Berlin-Marienfelde
Kaufland,Ostpreußendamm 60,12207, Berlin-Lichterfelde
Kaufland,Johannisthaler Chaussee 295-327,12351, Berlin
Kaufland,Gutschmidtstr. 19,12359, Berlin-Britz
Kaufland,Fährstr. 35,15890, Eisenhüttenstadt
Kaufland,Bessemerstr. 57-75,12103, Berlin
Kaufland,Rudower Chaussee 12,12489, Berlin-Adlershof
Kaufland,Milower Landstr. 6a,14712, Rathenow
Kaufland,Schöneberger Str. 7,12103, Berlin-Tempelhof
Kaufland,Karl-Marx-Str. 231-235,12055, Berlin Neukölln
Kaufland,Schnellerstr. 21,12439, Berlin
Kaufland,Alte Langewahler Chaussee 11,15517, Fürstenwalde
Kaufland,Schwedendamm 3,14712, Rathenow
Kaufland,Döberitzer Weg 3,14624, Dallgow
Kaufland,Friedrichshagener Str. 38-42,12555, Berlin
Kaufland,Wilhelmstr. 21-25,13593, Berlin-Wilhelmstadt
Kaufland,Karl-Marx-Straße66,12043, Berlin
Kaufland,Friedrichstr. 13,15537, Erkner
Kaufland,Pichelswerderstr. 6,13597, Berlin-Spandau
Kaufland,Grünhofer Weg 9,13581, Berlin-Spandau
Kaufland,Am Juliusturm 40-46,13599, Berlin-Haselhorst
Kaufland,Marktstr. 6,10317, Berlin-Rummelsburg
Kaufland,Sewanstr. 4-6,10319, Berlin-Friedrichsfelde
Kaufland,Juri-Gagarin-Str. 32,15517, Fürstenwalde
Kaufland,Perleberger Str. 42 A,10559, Berlin-Moabit
Kaufland,Karl-Liebknecht-Str. 13,10178, Berlin-Mitte
Kaufland,Frankfurter Allee 113-117,10365, Berlin-Lichtenberg
Kaufland,Weißenhöher Str. 88-108,12683, Berlin-Biesdorf
Kaufland,Hermann-Blankenstein-Str. 38,10249, Berlin
Kaufland,Storkower Str. 139,10407, Berlin-Prenzlauer Berg
Kaufland,Müllerstr. 123-125,13349, Berlin-Wedding
Kaufland,Brunnenstr. 105-109,13355, Berlin
Kaufland,Residenzstr. 85,13409, Berlin
Kaufland,Ollenhauerstr. 122,13403, Berlin-Reinickendorf
Kaufland,Märkische Allee 166-172,12681, Berlin-Marzahn
Kaufland,Frankfurter Chaussee 48,15370, Fredersdorf-Vogelsdorf
Kaufland,Hauptstr. 9-10,13055, Berlin
Kaufland,Breite Str. 19-21 A,13187, Berlin-Pankow
Kaufland,Romain-Rolland-Str. 13,13089, Berlin-Heinersdorf
Kaufland,Landsberger Chaussee 17,16356, Eich
Kaufland,Senftenberger Ring 15-17,13439, Berlin
Kaufland,Eichhorster Weg 96,13435, Berlin-Wittenau
Kaufland,Josef-Gesing-Str. 6,15234, Frankfurt
Kaufland,Heilbronner Str. 30,15230, Frankfurt
Kaufland,Postplatz 4-4 C,16761, Hennigsdorf
Kaufland,Spitzkrugring 1 A,15234, Frankfurt (Oder)-Kliestow
Kaufland,Walter-Friedrich-Str. 4,13125, Berlin-Buch
Kaufland,Schönfließer Str. 66,16540, Hohen Neuendorf
Kaufland,Otto-Grotewohl-Ring 72,15344, Strausberg
Kaufland,Friedensstr. 8,16515, Oranienburg
Kaufland,Diedersdorfer Str. 12 a,15306, Seelow
Kaufland,Junckerstr. 26,16816, Neuruppin
Kaufland,Wahrenberger Str. 67,19322, Wittenberge
Kaufland,Eberswalder Str. 87,16227, Eberswalde-Finow
Kaufland,Eduardshof 3,16259, Bad Freienwalde (Oder)
Kaufland,Angermünder Str. 66,16225, Eberswalde
Kaufland,Meyenburger Chaussee 36,16909, Wittstock
Kaufland,Platz der Befreiung 6,16303, Schwedt-Zentrum
Kaufland,Friedrich-Wilhelm-Raiffeisen-Ring 4,19370, Parchim
Kaufland,Ziegendorfer Chaussee,19370, Parchim
Kaufland,Strelitzer Str. 24,17235, Neustrelitz-Kiefernheide
Kaufland,Georg-Dreke-Ring 60,17291, Prenzlau
Kaufland,Hamburger Allee 140D,19063, Schwerin
Kaufland,Grabenstr. 1,19061, Schwerin
Kaufland,Torfsteg 11,17033, Neubrandenburg
Kaufland,Juri-Gagarin-Ring 40,17036, Neubrandenburg-Oststadt
Kaufland,Stettiner Chaussee 1-3,17309, Pasewalk
Kaufland,Drönnewitzer Str. 49,17109, Demmin
Kaufland,Pütterweg 1,18059, Rostock
Kaufland,Hansestr. 37,18182, Bentwisch
Kaufland,Handwerkstr. 1,18069, Rostock
Kaufland,Anklamer Landstr. 1,17491, Greifswald
Kaufland,Ringstr. 140,18528, Bergen auf Rügen
Kaufland,An der Hasenbahn 3,29225, Celle
Kaufland,Karl-Marx-Str. 13,29410, Salzwedel
Kaufland,Celler Str. 55,29303, Bergen
Kaufland,Bahnhofstr. 2-4,29525, Uelzen
Kaufland,Heinrich-Hertz-Str. 9,29664, Walsrode
Kaufland,Schulstr. 22,27283, Verden (Aller)-Dauelsen
Kaufland,Am Alten Eisenwerk 2,21339, Lüneburg
Kaufland,Boecklerstr. 7,21339, Lüneburg-Goseburg-Zeltberg
Kaufland,Sebaldsbrücker Heerstr. 155,28309, Bremen-Hemelingen
Kaufland,Reinersweg 2,27751, Delmenhorst-Stickgras/Annenriede
Kaufland,Stedinger Str. 101,27753, Delmenhorst-Mitte
Kaufland,Rosenhügel 5,27721, Ritterhude
Kaufland,Zum Alten Speicher 1,28759, Bremen-Vegesack
Kaufland,Bergedorfer Str. 106,21029, Hamburg-Bergedorf
Kaufland,Marktpassage 5,21149, Hamburg-Neugraben-Fischbek
Kaufland,Stubbenweg 27,26125, Oldenburg-Etzhorn
Kaufland,Willinghusener Weg 1,22113, Oststeinbek
Kaufland,Beim Strohhause 8,20097, Hamburg-St. Georg
Kaufland,Stresemannstr. 300,22761, Hamburg-Bahrenfeld
Kaufland,Helbingtwiete 7/9,22047, Hamburg-Wandsbek
Kaufland,Berner Heerweg 173-175,22159, Hamburg
Kaufland,Bramfelder Dorfplatz 18,22179, Hamburg-Bramfeld
Kaufland,Nedderfeld 70,22529, Hamburg
Kaufland,Eckhoffplatz 1,22547, Hamburg-Lurup
Kaufland,Eberhofweg 70,22415, Hamburg-Langenhorn
Kaufland,Deverweg 39-45,26871, Papenburg
Kaufland,Freiburger Str. 2,21682, Stade
Kaufland,Bohmsiel 1,27572, Bremerhaven-Wulsdorf
Kaufland,Ratzeburger Str. 15-17-19,23843, Bad Oldesloe
Kaufland,Hamburger Str. 8,24558, Henstedt-Ulzburg
Kaufland,Nüttermoorer Str. 2,26789, Leer (Ostfriesland)-Eisinghausen
Kaufland,Pferdebade 6,27580, Bremerhaven-Lehe
Kaufland,Karpendiek 3,23970, Hornstorf
Kaufland,Marktstr. 1,23968, Gägelow
Kaufland,Friedenstr. 70,26386, Wilhelmshaven
Kaufland,Bahnhofstr. 7,23795, Bad Segeberg
Kaufland,Rudolf-Diesel-Str. 1,25524, Itzehoe
Kaufland,Bahnhofstr. 1a,26506, Norden
Kaufland,Marschstr. 1,25746, Heide
Kaufland,Skandinaviendamm 299,24109, Kiel-Mettenhof
Kaufland,Schleswiger Chaussee 249-257,24768, Rendsburg
Kaufland,Schleswiger Str. 130,24941, Flensburg
Kaufland,Am Rosengarten 7,36037, Fulda-Innenstadt
Kaufland,Bahnhofstr. 10,36433, Bad Salzungen
Kaufland,Tannenweg 97,35440, Linden
Kaufland,Gottlieb-Daimler-Str. 27,35398, Gießen
Kaufland,Rothweg 4,35457, Lollar
Kaufland,Am Forum 1,35576, Wetzlar
Kaufland,Osttangente 6,34613, Schwalmstadt
Kaufland,Thüringer Str. 28,37269, Eschwege
Kaufland,Bahnhofstr. 48,37327, Leinefelde-Worbis
Kaufland,Auf der Breitenwiese 28,35216, Biedenkopf
Kaufland,Franzgraben 40-42,34125, Kassel
Kaufland,Kurze-Geismar-Str. 28,37073, Göttingen
Kaufland,Am Kauf Park 2,37079, Göttingen
Kaufland,Elliehäuser Weg 23,37079, Göttingen
Kaufland,Flechtdorfer Str. 5,34497, Korbach
Kaufland,Herzberger Landstr. 8,37520, Osterode am Harz
Kaufland,Rückingsallee 2,37154, Northeim
Kaufland,Hecklinger Str. 50,39418, Staßfurt
Kaufland,Am Schreiberteich 3,38855, Wernigerode
Kaufland,Braunschweiger Str. 83-88,38820, Halberstadt
Kaufland,Alte Brücke 3,39261, Zerbst
Kaufland,Walter-Poser-Str. 2,37574, Einbeck
Kaufland,Hildesheimer Str. 52A,38640, Goslar-Altstadt
Kaufland,Calbesche Str. 31,39218, Schönebeck (Elbe)
Kaufland,Lüneburger Str. 1,39387, Oschersleben (Bode)
Kaufland,Brenkhäuser Str. 14,37671, Höxter
Kaufland,Bülte 4,37603, Holzminden
Kaufland,Halberstädter Str. 182-186,39112, Magdeburg-Sudenburg
Kaufland,Zum Handelshof 1,39108, Magdeburg-Stadtfeld Ost
Kaufland,Kantstr. 5A,39104, Magdeburg-Altstadt
Kaufland,Husener Str. 121,33100, Paderborn
Kaufland,Sedanstr. 16-18,31061, Alfeld (Leine)
Kaufland,Lübecker Str. 122,39124, Magdeburg-Neue Neustadt
Kaufland,Riemekestr. 37,33102, Paderborn
Kaufland,Bentelerstr. 4,33104, Paderborn
Kaufland,Albert-Schweitzer-Str. 1,38226, Salzgitter-Lebenstedt
Kaufland,Magdeburger Berg 5,38350, Helmstedt
Kaufland,Senefelderstr. 5,38124, Braunschweig
Kaufland,Friedrich-Schmelzer-Straße2,39340, Haldensleben
Kaufland,Römerring 8-10,31137, Hildesheim
Kaufland,Ernst-Hilker-Str. 15,32758, Detmold
Kaufland,Werkstr. 17,31789, Hameln-Klein Berkel
Kaufland,Klingenbergstr. 31,32758, Detmold
Kaufland,Hamburger Str. 250,38114, Braunschweig
Kaufland,Brandgehaege 9,38444, Wolfsburg-Hattorf
Kaufland,Bahnhofstr. 36,33378, Rheda-Wiedenbrück-Rheda
Kaufland,Am Anger 22,33332, Gütersloh
Kaufland,Heinrich-Hertz-Str. 12,31228, Peine
Kaufland,Am Legefeld 4,39307, Genthin
Kaufland,Schweriner Str. 4,33605, Bielefeld-Stieghorst
Kaufland,Gütersloher Str. 122,33649, Bielefeld-Brackwede
Kaufland,Münchener Str. 3,30880, Laatzen-Alt-Laatzen
Kaufland,Alfred-Bentz-Str. 1,30966, Hemmingen
Kaufland,Eyßelheideweg 5,38518, Gifhorn
Kaufland,Buschhorstweg 2,39638, Gardelegen
Kaufland,Ladestr. 1,30890, Barsinghausen-Kirchdorf
Kaufland,Bornumer Str. 141,30453, Hannover
Kaufland,Werrestr. 69,32049, Herford
Kaufland,Rundestr. 5,30161, Hannover-Mitte
Kaufland,Opelstr. 3-5,30916, Isernhagen
Kaufland,Hannoversche Str. 15,31675, Bückeburg
Kaufland,Krepenstr. 5,30165, Hannover-Hainholz
Kaufland,Am Helweg 4,31655, Stadthagen-Probsthagen
Kaufland,Dr.-Kurt-Schumacher-Str. 1,39576, Stendal
Kaufland,Havelser Str. 2-8,30823, Garbsen
Kaufland,Strubbergstr. 4,32312, Lübbecke
Kaufland,Kräher Weg 1,31582, Nienburg
Kaufland,Rheindorfer Str. 48-56,40764, Langenfeld
Kaufland,Friedenstr. 64,42699, Solingen
Kaufland,Elberfelder Str. 8,42285, Wuppertal
Kaufland,Stresemannstr. 37,42719, Solingen-Wald
Kaufland,Friedrichstr. 20,40789, Monheim am Rhein
Kaufland,Aplerbecker Marktplatz 7-10,44287, Dortmund-Aplerbeck
Kaufland,Kaiserstr. 39-41,42329, Wuppertal-Vohwinkel
Kaufland,Luisenglück 43,44225, Dortmund-Hombruch
Kaufland,Körner Hellweg 142,44143, Dortmund
Kaufland,Bornstr. 160 a,44145, Dortmund
Kaufland,Wulfshofstr. 6-8,44149, Dortmund-Kley
Kaufland,Große Weilstr. 18-20,45525, Hattingen
Kaufland,Ümminger Str. 90,44892, Bochum-Langendreer
Kaufland,Friedrichstr. 262,42551, Velbert
Kaufland,Merschstr. 19,44534, Lünen-Wethmar
Kaufland,Am Einkaufszentrum 2,44791, Bochum-Harpen
Kaufland,Friedrichstr. 152,40217, Düsseldorf-Friedrichstadt
Kaufland,Heimbrügge 5-7,44359, Dortmund-Mengede
Kaufland,Ostwall 31,41515, Grevenbroich
Kaufland,Widumer Tor 1,44575, Castrop-Rauxel-Castrop
Kaufland,Speicherstr. 2,44809, Bochum-Hofstede
Kaufland,Hilde-und-Joseph-Neyses-Platz 5,40476, Düsseldorf-Derendorf
Kaufland,Am Rittergut 1,41515, Grevenbroich
Kaufland,Ottostr. 40-43,44867, Bochum-Wattenscheid
Kaufland,Alter Markt 1,44866, Bochum-Wattenscheid-Wattenscheid
Kaufland,Römerstr. 120,41462, Neuss
Kaufland,Bataverstr. 93,41462, Neuss
Kaufland,Hauptstr. 211,44649, Herne
Kaufland,An der Hoffnung 125,40885, Ratingen
Kaufland,Berthold-Beitz-Boulevard 500,45141, Essen-Nordviertel
Kaufland,Altenessener Str. 411EG,45329, Essen
Kaufland,Berliner Platz 14,45739, Oer-Erkenschwick
Kaufland,Löhrhof 1,45657, Recklinghausen
Kaufland,Gerichtsstr. 25,45355, Essen-Borbeck-Mitte
Kaufland,Kurt-Schumacher-Str. 3,45699, Herten
Kaufland,Heifeskamp 6,45475, Mülheim
Kaufland,Reyerhütte 1,41065, Mönchengladbach
Kaufland,Antwerpener Str. 4,41812, Erkelenz
Kaufland,Krefelder Str. 131,41063, Mönchengladbach
Kaufland,Berliner Platz 8,46236, Bottrop-Stadtmitte
Kaufland,Aachener Str. 387,41069, Mönchengladbach-Holt
Kaufland,Concordiastr. 32,46049, Oberhausen
Kaufland,Am Landabsatz 7,41836, Hückelhoven
Kaufland,Auf der Höhe 20,47059, Duisburg
Kaufland,Lipper Weg 4,45770, Marl
Kaufland,Bergstr. 57,45768, Marl
Kaufland,Bahnhofstr. 57,46145, Oberhausen
Kaufland,Friedrich-Ebert-Str. 2,47119, Duisburg-Ruhrort
Kaufland,Duisburger Str. 303,47166, Duisburg
Kaufland,Mevissenstr. 60,47803, Krefeld
Kaufland,Kirchstr. 96,47198, Duisburg-Hochheide
Kaufland,Kanalstr. 51-55,41748, Viersen
Kaufland,Römerstr. 570,47443, Moers
Kaufland,Kometenplatz 10,47179, Duisburg
Kaufland,Bruchweg 27,41751, Viersen-Dülken
Kaufland,Westwall 61,46282, Dorsten-Altstadt
Kaufland,Hülsdonker Str. 86,47441, Moers
Kaufland,Johannes-Cleven-Str. 4,41334, Nettetal
Kaufland,Moerser Str. 290,47475, Kamp-Lintfort
Kaufland,Ringeler Str. 24-26,49525, Lengerich
Kaufland,Kurt-Schumacher-Damm 52-54,49078, Osnabrück-Weststadt
Kaufland,Hansestr. 8,48653, Coesfeld
Kaufland,Beginenpad 5,47638, Straelen
Kaufland,Bahnhofstr. 8,47608, Geldern
Kaufland,Heidener Str. 32,46325, Borken
Kaufland,Katthagen 6-8,48282, Emsdetten
Kaufland,Welfenstr. 21,46395, Bocholt
Kaufland,Andreasstr. 3-5,48683, Ahaus
Kaufland,Grüttweg 42-46,46459, Rees
Kaufland,Robert-Bosch-Str. 4,49593, Bersenbrück
Kaufland,Normannstr. 31,46446, Emmerich am Rhein
Kaufland,Olmerstr. 1,47533, Kleve
Kaufland,Flutstr. 81,47533, Kleve
Kaufland,Bentheimer Str. 118 B,48529, Nordhorn
Kaufland,Stadtring 60,48527, Nordhorn
Kaufland,Soestenstr. 11,49661, Cloppenburg
Kaufland,Am Neuen Markt 1,49716, Meppen
Kaufland,Am Hohen Brückenweg 3,55276, Oppenheim
Kaufland,Karl-Heinz-Kipp-Str. 23,55232, Alzey-Schafhausen
Kaufland,Haifa-Allee 1,55128, Mainz
Kaufland,Rheinallee 120,55120, Mainz-Mombach
Kaufland,Schwabenheimer Weg 5,55543, Bad Kreuznach
Kaufland,Industriestr. 11,56412, Heiligenroth
Kaufland,Poststr. 7,56457, Westerburg
Kaufland,Römerstr. 1,54411, Hermeskeil
Kaufland,Hauptstr. 131,56170, Bendorf-Sayn
Kaufland,Heddesdorfer Str. 11,56564, Neuwied
Kaufland,Koblenzer Str. 51,56626, Andernach
Kaufland,Fludersbach 126,57074, Siegen
Kaufland,Koblenzer Str. 174 A,56727, Mayen
Kaufland,Siegstr. 14,57548, Kirchen (Sieg)
Kaufland,Hagener Str. 133,57072, Siegen
Kaufland,Ostallee 3-7,54290, Trier
Kaufland,Aachener Str. 58,54294, Trier
Kaufland,Saar-Mosel-Platz 2,54329, Konz
Kaufland,Marburger Str. 41,57223, Kreuztal
Kaufland,Industriestr. 10,53489, Sinzig
Kaufland,Martinstr. 36,57462, Olpe
Kaufland,Kölner Str. 11,54634, Bitburg
Kaufland,Dieringhauser Str. 16,51645, Gummersbach
Kaufland,Wilhelm-Ostwald-Str. 1 F,53721, Siegburg
Kaufland,Walterscheid-Müller-Str. 14,53797, Lohmar
Kaufland,Theodor-Heuss-Ring 55,53840, Troisdorf
Kaufland,Oppelner Str. 128,53119, Bonn-Tannenbusch
Kaufland,Westring 10,59759, Arnsberg
Kaufland,Bahnhofstr. 26,58553, Halver
Kaufland,Refrather Weg 1,51465, Bergisch Gladbach-Gronau
Kaufland,Ostmerheimer Str. 198,51109, Köln-Merheim
Kaufland,Gremberger Str. 200,51105, Köln
Kaufland,Kalker Hauptstr. 112,51103, Köln-Kalk
Kaufland,Gustav-Heinemann-Str. 2,50374, Erftstadt
Kaufland,Planckstr. 1,59557, Lippstadt
Kaufland,Bökenförder Str. 181-183,59557, Lippstadt
Kaufland,Frankfurter Str. 87a,51065, Köln-Buchheim
Kaufland,Theodor-Heuss-Ring 11,58636, Iserlohn
Kaufland,Senator-Schwartz-Ring 24,59494, Soest
Kaufland,Raiffeisenstr. 5,58638, Iserlohn
Kaufland,Boltensternstr. 104-112,50735, Köln-Niehl
Kaufland,Thebäerstr. 9,50823, Köln-Ehrenfeld
Kaufland,Holzener Str. 1-13,58708, Menden
Kaufland,Auf dem Lölfert 50,58119, Hagen
Kaufland,Stixchesstr. 123,51377, Leverkusen-Manfort
Kaufland,Soester Str. 26,59457, Werl
Kaufland,Freiligrathstr. 51,58099, Hagen
Kaufland,Sindorfer Str. 65-69,50171, Kerpen
Kaufland,Großer Markt 7,58285, Gevelsberg
Kaufland,Am Dohrbaum 6-8,58239, Schwerte
Kaufland,Farehamstr. 1,50259, Pulheim
Kaufland,Carl-Bönnhoff-Str. 1,58300, Wetter
Kaufland,Auf Beuel 19,52156, Monschau
Kaufland,Am Ellernbusch 22,52355, Düren
Kaufland,Zollpost 15,59174, Kamen
Kaufland,Hauptstr. 23,50126, Bergheim-Kenten
Kaufland,Ökonomierat-Peitzmeier-Platz 2-4,59063, Hamm
Kaufland,Grevenbrede 10,59269, Beckum
Kaufland,Wilhelmstr. 197,59067, Hamm-Hamm-Westen
Kaufland,Breite Str. 23,58452, Witten
Kaufland,Römerstr. 16,59075, Hamm
Kaufland,Münsterstr. 183,59073, Hamm
Kaufland,Kleiwellenfeld 16,59229, Ahlen
Kaufland,An der Bummannsburg 1,59192, Bergkamen
Kaufland,Zweifaller Str. 68,52222, Stolberg-Liester
Kaufland,An der Leimkaul 1,52428, Jülich
Kaufland,Auerbachstr. 10,52249, Eschweiler
Kaufland,Breslauer Str. 35,52068, Aachen
Kaufland,Schumanstr. 4,52146, Würselen
Kaufland,Vaalser Str. 242-246,52074, Aachen
Kaufland,Bahnhofstr. 37,52477, Alsdorf
Kaufland,Bahnhofstr. 25,52134, Herzogenrath
Kaufland,Herzog-Wilhelm-Str. 17-39,52511, Geilenkirchen
Kaufland,Humboldtstr. 26,52525, Heinsberg
Kaufland,Neuer Weg-Nord 47,69412, Eberbach
Kaufland,Hertzstr. 1,69126, Heidelberg
Kaufland,Friedrich-Ebert-Str. 15-17,64720, Michelstadt
Kaufland,Kurfürsten-Anlage 61,69115, Heidelberg-Weststadt
Kaufland,Eppelheimer Str. 78,69123, Heidelberg
Kaufland,Gewerbestr. 19,69221, Dossenheim
Kaufland,Carl-Theodor-Str. 33,68723, Schwetzingen
Kaufland,Rosenstr. 70,68535, Edingen-Neckarhausen
Kaufland,Auestr. 22,67346, Speyer
Kaufland,Würzburger Str. 144-148,63743, Aschaffenburg
Kaufland,Waldspitzweg 1,67105, Schifferstadt
Kaufland,Maybachstr. 28,68169, Mannheim
Kaufland,Im Flürchen 3,64807, Dieburg
Kaufland,Wormser Str. 109,67227, Frankenthal
Kaufland,Eberstädter Str. 200,64319, Pfungstadt
Kaufland,Weißkirchenweg 11,63571, Gelnhausen
Kaufland,Ober-Rodener Str. 13-15-17,63322, Rödermark
Kaufland,Schönauer Str. 8,67547, Worms
Kaufland,Mainzer Str. 150,67547, Worms
Kaufland,Rudolf-Diesel-Str. 26 A,64331, Weiterstadt
Kaufland,Am Steinheimer Tor 3,63450, Hanau
Kaufland,Kirchheimer Str. 39,67269, Grünstadt
Kaufland,Robert-Bosch-Str. 15,63303, Dreieich
Kaufland,Wächtersbacher Str. 75,60386, Frankfurt am Main-Fechenheim
Kaufland,Flörsheimer Str. 3,65479, Raunheim
Kaufland,Alzeyer Str. 11,65428, Rüsselsheim am Main
Kaufland,Wiesenstr. 5,66954, Pirmasens
Kaufland,Pariser Str. 123,67655, Kaiserslautern
Kaufland,Zweibrücker Str. 230,66954, Pirmasens-Fehrbach
Kaufland,Kettelerstr. 10,61231, Bad Nauheim
Kaufland,Äppelallee 69,65203, Wiesbaden
Kaufland,Torfstr. 10,66849, Landstuhl
Kaufland,Robert-Bosch-Str. 2,66424, Homburg-Erbach
Kaufland,Kirkeler Str. 50,66538, Neunkirchen
Kaufland,Grubenweg 7,66386, St. Ingbert
Kaufland,Breslauer Straße 1a,66121, Saarbrücken-Eschberg
Kaufland,Westerwaldstr. 111-113,65549, Limburg an der Lahn
Kaufland,Saarbrücker Str. 262,66292, Riegelsberg
Kaufland,Hallerstr. 21,66333, Völklingen-Wehrden
Kaufland,Poststr. 9,66822, Lebach
Kaufland,Franz-Birringer-Str. 27,66839, Schmelz
Kaufland,Daimlerstr. 4,66763, Dillingen
Kaufland,Julius-Bausch-Str. 27,73431, Aalen
Kaufland,Daimlerstr. 16,73431, Aalen
Kaufland,Dr.-Adolf-Schneider-Straße20,73479, Ellwangen (Jagst)-Neunheim
Kaufland,Neuwiesenstr. 25,73312, Geislingen
Kaufland,Hauptstr. 6,73527, Schwäbisch Gmünd-Herlikofen
Kaufland,Stuttgarter Str. 2,73033, Göppingen
Kaufland,Schönebürgstr. 78,74564, Crailsheim
Kaufland,Hauptstr. 110,72525, Münsingen
Kaufland,Haller Str. 195,74564, Crailsheim
Kaufland,Bleichereistr. 54,73066, Uhingen
Kaufland,Lutherstr. 75,73614, Schorndorf
Kaufland,Raiffeisenstr. 22,74523, Schwäbisch Hall
Kaufland,Wertstr. 12,73240, Wendlingen am Neckar
Kaufland,Europastr. 7,72622, Nürtingen
Kaufland,Steinbeisweg 30,74523, Schwäbisch Hall
Kaufland,Stuttgarter Str. 50,72555, Metzingen
Kaufland,Georg-Zimmerer-Str. 15,72488, Sigmaringen
Kaufland,Alleenstr. 32,73730, Esslingen
Kaufland,Max-Eyth-Str. 34,72793, Pfullingen
Kaufland,Industriestr. 34,71522, Backnang
Kaufland,Bonhoefferstr. 1,73760, Ostfildern
Kaufland,Sulzbacher Str. 201,71522, Backnang
Kaufland,Wannweiler Str. 77,72138, Kirchentellinsfurt
Kaufland,Augsburger Str. 460,70327, Stuttgart
Kaufland,Merowingerstr. 5,70736, Fellbach-Schmiden
Kaufland,Stuttgarter Str. 70,70736, Fellbach
Kaufland,Zähringerplatz 7,78464, Konstanz
Kaufland,Bergstr. 9,74653, Künzelsau
Kaufland,Sigmaringer Str. 154,72458, Albstadt
Kaufland,Wildunger Str. 2-4,70372, Stuttgart
Kaufland,Carl-Benz-Str. 22,78467, Konstanz
Kaufland,Aldinger Str. 70,70378, Stuttgart
Kaufland,Kientenstr. 6,72458, Albstadt
Kaufland,Reutlinger Str. 44,72072, Tübingen
Kaufland,Rembrandtstr. 47,70567, Stuttgart
Kaufland,Rielingshäuser Str. 15,71672, Marbach am Neckar
Kaufland,Haagweg 11,74613, Öhringen
Kaufland,Friedrichstr. 124-126,71638, Ludwigsburg
Kaufland,Steinbeisstr. 15,71711, Steinheim an der Murr
Kaufland,Schwabenplatz 1,70563, Stuttgart
Kaufland,Gammertinger Str. 42-44,72379, Hechingen
Kaufland,Kaullastr. 1,72379, Hechingen
Kaufland,Schwieberdinger Str. 94,71636, Ludwigsburg
Kaufland,Robert-Mayer-Str. 19,74360, Ilsfeld
Kaufland,Weilimdorfer Str. 93-95,70839, Gerlingen
Kaufland,Tübinger Str. 2,72108, Rottenburg am Neckar
Kaufland,Schwertstr. 7,71065, Sindelfingen
Kaufland,Markthallenstr. 1,78315, Radolfzell am Bodensee
Kaufland,Calwer Str. 4,71063, Sindelfingen
Kaufland,Prinz-Eugen-Str. 10,74321, Bietigheim-Bissingen-Bietigheim
Kaufland,Haller Str. 59,74189, Weinsberg
Kaufland,Talstr. 4,74321, Bietigheim-Bissingen-Bietigheim
Kaufland,Römerstr. 34,71229, Leonberg-Eltingen
Kaufland,Stuttgarter Str. 85,74074, Heilbronn
Kaufland,Stockacher Str. 146,78532, Tuttlingen
Kaufland,Olgastr. 57,74072, Heilbronn
Kaufland,Schießtäle 2,71083, Herrenberg
Kaufland,Rötelstr. 35,74172, Neckarsulm
Kaufland,Neckargartacher Str. 111,74080, Heilbronn
Kaufland,Georg-Fischer-Str. 15,78224, Singen (Hohentwiel)
Kaufland,Obere Wiesen 1,78549, Spaichingen
Kaufland,Industriestr. 12,74177, Bad Friedrichshall-Kochendorf
Kaufland,Heilbronner Str. 30,74193, Schwaigern
Kaufland,Haiterbacher Str. 82-86,72202, Nagold-Iselshausen
Kaufland,Bahnhofplatz 15,72160, Horb am Neckar
Kaufland,Saline 5,78628, Rottweil
Kaufland,Raiffeisenstr. 25,74906, Bad Rappenau
Kaufland,In der Insel 1,75365, Calw-Wimberg
Kaufland,Raiffeisenstr. 2-4,78658, Zimmern ob Rottweil
Kaufland,Pfalzgraf-Otto-Str. 50,74821, Mosbach
Kaufland,Eisenbahnstr. 1,75031, Eppingen
Kaufland,Daimlerstr. 1,74722, Buchen
Kaufland,Hohwiesenweg 2-2A,75175, Pforzheim-Oststadt
Kaufland,Dieselstr. 1,78073, Bad Dürrheim
Kaufland,Am Mühlkanal 4,75172, Pforzheim
Kaufland,Wilhelm-Becker-Str. 15,75179, Pforzheim
Kaufland,Neulandstr. 15-17,74889, Sinsheim
Kaufland,Diedelsheimer Höhe 6,75015, Bretten
Kaufland,Max-Eyth-Str. 14,72250, Freudenstadt
Kaufland,Bahnhofstr. 30,78713, Schramberg
Kaufland,Thomas-Howie-Str. 1,76684, Östringen
Kaufland,Durlacher Allee 111,76137, Karlsruhe-Oststadt
Kaufland,Zehntwiesenstr. 47,76275, Ettlingen
Kaufland,Carl-Metz-Str. 7,76185, Karlsruhe
Kaufland,Brückenstr. 7,79761, Waldshut-Tiengen-Waldshut
Kaufland,Rheinstr. 136,76532, Baden-Baden-Weststadt
Kaufland,Rauentaler Str. 65,76437, Rastatt-Rauental
Kaufland,Bühlertalstr. 71,77815, Bühl
Kaufland,Güterstr. 10,77815, Bühl
Kaufland,Posthiusstr. 5-7,76726, Germersheim-Sondernheim
Kaufland,Mainzer Str. 6,76726, Germersheim
Kaufland,Okenstr. 74,77652, Offenburg
Kaufland,Marlener Str. 11,77656, Offenburg
Kaufland,Schaffhauser Str. 90,79713, Bad Säckingen
Kaufland,Karl-Bautz-Str. 20,79312, Emmendingen
Kaufland,Waldkircher Str. 57,79106, Freiburg im Breisgau
Kaufland,Offenburger Str. 11,77933, Lahr
Kaufland,Dammühlstr. 11,76829, Landau in der Pfalz
Kaufland,Am Bahndamm 3-5,77955, Ettenheim
Kaufland,Am Sundheimer Fort 9,77694, Kehl-Sundheim
Kaufland,Sankt Georgener Straße2,79111, Freiburg im Breisgau-Haslach
Kaufland,Großfeldstr. 2,79618, Rheinfelden
Kaufland,Robert-Bosch-Str. 6,79539, Lörrach-Brombach
Kaufland,Berg-am-Laim-Str. 117,81673, München-Berg am Laim
Kaufland,Margot-Kalinke-Str. 4,80939, München
Kaufland,Bunzlauer Platz 5-7,80992, München-Moosach
Kaufland,Ollenhauerstr. 4,81737, München
Kaufland,Danziger Str. 17,82194, Gröbenzell
Kaufland,Danziger Str. 1,85221, Dachau
Kaufland,Andreas-Danzer-Weg 2,85716, Unterschleißheim-Lohhof
Kaufland,Burgerfeld 8,85570, Markt Schwaben
Kaufland,Dachauer Str. 61,85435, Erding-Altenerding
Kaufland,Gutenbergstr. 2,85354, Freising
Kaufland,Raiffeisenstr. 25,85356, Freising
Kaufland,Bayerwaldstr. 2,82538, Geretsried-Gartenberg
Kaufland,Max-Weinberger-Str. 9,85276, Pfaffenhofen an der Ilm-Eberstetten
Kaufland,Grassingerstr. 16,83043, Bad Aibling
Kaufland,Lenggrieser Str. 47,83646, Bad Tölz
Kaufland,Joseph-Fraunhofer-Str. 31,85276, Pfaffenhofen
Kaufland,Degernpoint M1,85368, Moosburg an der Isar
Kaufland,Kaltenmoserstr. 28,82362, Weilheim in Oberbayern
Kaufland,Marquardtstr. 1,86316, Friedberg
Kaufland,Äußere Münchener Straße100,83026, Rosenheim
Kaufland,Augsburger Str. 43,86529, Schrobenhausen
Kaufland,Am Penzinger Feld 21,86899, Landsberg am Lech
Kaufland,Kufsteiner Str. 124,83026, Rosenheim
Kaufland,Germanenstr. 16,86343, Königsbrunn
Kaufland,Reichenberger Str. 59,86161, Augsburg
Kaufland,Meraner Str. 6,86165, Augsburg-Lechhausen
Kaufland,Schongauer Str. 20,82380, Peißenberg
Kaufland,Gögginger Str. 119,86199, Augsburg
Kaufland,Ludwig-Erhard-Str. 9,84034, Landshut
Kaufland,Biberbachstr. 10,86154, Augsburg-Oberhausen
Kaufland,Teplitzer Str. 12-14,84478, Waldkraiburg
Kaufland,Alte Regensburger Str. 21,84030, Ergolding-Piflas
Kaufland,Daimlerstr. 18,86356, Neusäß
Kaufland,Münchener Str. 146,85051, Ingolstadt
Kaufland,Richard-Wagner-Str. 40,85057, Ingolstadt
Kaufland,Augsburger Str. 28,87600, Kaufbeuren
Kaufland,Trostberger Str. 23,83301, Traunreut
Kaufland,Nagelschmiedstr. 6,84524, Neuötting
Kaufland,Theresienstr. 2,83278, Traunstein
Kaufland,Frontenhausener Str. 1,84130, Dingolfing-Oberdingolfing
Kaufland,Neurieder Weg 33,86609, Donauwörth-Riedlingen
Kaufland,Lindach 10,84489, Burghausen
Kaufland,Brühlstr. 4,86381, Krumbach (Schwaben)
Kaufland,Lindhofstr. 10,84307, Eggenfelden
Kaufland,Johannes-Scheiffele-Str. 3-7,89407, Dillingen an der Donau-Hausen
Kaufland,Franz-Stelzenberger-Str. 1,84347, Pfarrkirchen-Altersham
Kaufland,Fraunhoferstr. 8,87700, Memmingen-Amendingen
Kaufland,Verdistr. 15,83395, Freilassing
Kaufland,Marktstr. 86,89537, Giengen an der Brenz
Kaufland,Industriestr. 37,89269, Vöhringen
Kaufland,Raiffeisenstr. 4,86720, Nördlingen
Kaufland,Olgastr. 4,89129, Langenau
Kaufland,Memminger Str. 54,89231, Neu-Ulm
Kaufland,Blaubeurer Str. 29,89077, Ulm-Weststadt
Kaufland,Aalener Str. 20,89520, Heidenheim an der Brenz
Kaufland,Wilhelmstr. 148,89518, Heidenheim
Kaufland,Heinrich-Hammer-Str. 6,89155, Erbach
Kaufland,Ulmer Str. 13,88471, Laupheim
Kaufland,Obere Stegwiesen 10,88400, Biberach an der Riß
Kaufland,Biberacher Str. 69,89584, Ehingen (Donau)
Kaufland,Karlstr. 21,88250, Weingarten
Kaufland,Weißenauer Str. 15,88214, Ravensburg
Kaufland,Heuriedweg 21,88131, Lindau (Bodensee)-Reutin
Kaufland,Platzstr. 24,88348, Bad Saulgau
Kaufland,Klausenburger Str. 12,88069, Tettnang
Kaufland,Friedrichshafener Str. 39,88097, Eriskirch-Schlatt
Kaufland,Ailinger Str. 109,88046, Friedrichshafen
Kaufland,Stockerholzstr. 12,88048, Friedrichshafen
Kaufland,Nußdorfer Str. 101,88662, Überlingen
Kaufland,Gewerbepark 48,93333, Neustadt an der Donau
Kaufland,Straubinger Str. 64,94405, Landau an der Isar
Kaufland,Friedenstr. 23,93053, Regensburg-Galgenberg
Kaufland,Donaustaufer Str. 128,93059, Regensburg-Weichs
Kaufland,Hans-Hayder-Str. 2,93059, Regensburg-Reinhausen
Kaufland,Eichstätter Str. 29,91781, Weißenburg
Kaufland,Otto-von-Dandl-Ring 11,94315, Straubing
Kaufland,Ittlinger Str. 224,94315, Straubing
Kaufland,Ansbacher Str. 11,91710, Gunzenhausen
Kaufland,Altdorfer Str. 63,92318, Neumarkt in der Oberpfalz
Kaufland,Friedrich-Wambsganz-Str. 1,91154, Roth
Kaufland,Hösamer Feld 7,94474, Vilshofen
Kaufland,Espenpark 30,90559, Burgthann
Kaufland,Passauer Str. 160,94060, Pocking
Kaufland,Rother Str. 1 B,90530, Wendelstein
Kaufland,Am Falbenholzweg 15,91126, Schwabach-Vogelherd
Kaufland,Rodinger Str. 22,93413, Cham-Janahof
Kaufland,Neuburger Str. 128,94036, Passau-Kohlbruck
Kaufland,Oppelner Str. 223,90473, Nürnberg-Langwasser
Kaufland,Am Bergsteig 1,92224, Amberg
Kaufland,Dinkelsbühler Str. 34,91555, Feuchtwangen
Kaufland,Dianaplatz 23-25,90443, Nürnberg-Gibitzenhof
Kaufland,Ritter-von-Lang-Allee 7,91522, Ansbach-Kammerforst
Kaufland,Schwabacher Str. 99,90439, Nürnberg
Kaufland,Rothenburger Str. 70,90522, Oberasbach-Altenberg
Kaufland,Krötenseestr. 1,92237, Sulzbach-Rosenberg-Loderhof
Kaufland,Fürther Str. 187,90429, Nürnberg
Kaufland,Florianstr. 1,94051, Hauzenberg
Kaufland,Carl-Thiersch-Str. 4,91052, Erlangen
Kaufland,Westliche Stadtmauerstr. 27,91054, Erlangen-Innenstadt
Kaufland,Bahnhofstr. 15,91541, Rothenburg ob der Tauber
Kaufland,Rothenburger Str. 47,91438, Bad Windsheim
Kaufland,Untere Bauscherstr. 25,92637, Weiden in der Oberpfalz
Kaufland,Robert-Bosch-Straße2,91413, Neustadt an der Aisch
Kaufland,Nürnberger Str. 22,91257, Pegnitz
Kaufland,Rothenburger Str. 19,91315, Höchstadt
Kaufland,Hermann-von-Mittnacht-Str. 10,97999, Igersheim
Kaufland,Forchheimer Str. 15,96050, Bamberg
Kaufland,Weiherstr. 27,95448, Bayreuth
Kaufland,Industriestr. 9,96120, Bischberg
Kaufland,Am Dreistock 12,97318, Kitzingen
Kaufland,Bayreuther Str. 15,95615, Marktredwitz
Kaufland,Albert-Ruckdeschel-Str. 16,95326, Kulmbach
Kaufland,Nürnberger Str. 12,97076, Würzburg
Kaufland,Industriestr. 3-5,97076, Würzburg-Lengfeld
Kaufland,Robert-Koch-Str. 5,96215, Lichtenfels
Kaufland,Stammbacher Str. 3,95213, Münchberg
Kaufland,Hauptbahnhofstr. 4,97424, Schweinfurt-Innenstadt
Kaufland,Bismarckstr. 26,97877, Wertheim
Kaufland,Coburger Str. 2,96487, Dörfles-Esbach
Kaufland,Hans-Böckler-Str. 19,95032, Hof
Kaufland,Dr.-Hans-Künzel-Str. 1,95119, Naila
Kaufland,Bettelhecker Str. 155,96515, Sonneberg-Bettelhecken
Kaufland,Steubenstr. 1,97688, Bad Kissingen-Winkels
Kaufland,Eisfelder Str. 60,98646, Hildburghausen
Kaufland,Meininger Str. 10,97616, Bad Neustadt an der Saale
Kaufland,Würzburger Str. 1,98529, Suhl
Kaufland,Werrastr. 14,98617, Meiningen
Kaufland,Mühltor 1,98693, Ilmenau
Kaufland,Steinerne Wiese 39,98574, Schmalkalden
Kaufland,Alfred-Ley-Str. 12,99310, Arnstadt-Rudisleben
Kaufland,Humboldtstr. 90,99425, Weimar
Kaufland,Kranichfelder Str. 103,99097, Erfurt
Kaufland,Hermsdorfer Str. 4,99099, Erfurt-Daberstedt
Kaufland,Bürgeraue 2,99867, Gotha
Kaufland,Leipziger Str. 78a,99085, Erfurt
Kaufland,Bernhard-Prager-Gasse 1-7,99510, Apolda
Kaufland,Nordhäuser Str. 73t,99091, Erfurt-Gispersleben
Kaufland,Bahnhofstr. 8,99817, Eisenach
Kaufland,Neue Wiese 1,99817, Eisenach
Kaufland,Lindenbühl 11,99947, Bad Langensalza
Kaufland,Mainzer Str. 20,99610, Sömmerda
Kaufland,Papiermühlenweg 18,99974, Mühlhausen
Kaufland,Frankenhäuser Str. 1 A-D,99706, Sondershausen
