Name,Street,Zip Code,Address
Norma,Markneukirchner Str. 52-54,8626, Adorf/Vogtl.
Norma,Hofer Str. 50A,8606, Oelsnitz/Vogtl.
Norma,Hammerbrücker Str. 3A,8262, Muldenhammer
Norma,Siegener Str. 58,8523, Plauen
Norma,Bahnhofstr. 11-15,8523, Plauen
Norma,Lessingstr. 52,8525, Plauen
Norma,Bahnhofstr. 40,7330, Probstzella
Norma,Jössnitzer Str. 120,8525, Plauen
Norma,Neuheider Str. 1A,8304, Schönheide
Norma,Funckstr. 2A- 2B,8309, Eibenstock
Norma,Perlaser Str. 13,8233, Treuen
Norma,Ernst-Thälmann-Str. 1A,7334, Kamsdorf
Norma,Kulmbacher Str. 20,7318, Saalfeld/Saale
Norma,Albert-Schweitzer-Str. 1,8468, Reichenbach
Norma,Schopperstr. 61A,7937, Zeulenroda-Triebes
Norma,Kobaltstr. 43,8289, Schneeberg
Norma,Industrie- und Gewerbepark 1A,7426, Königsee
Norma,Lengenfelder Str. 17,8107, Kirchberg
Norma,Schwarzburger Str. 1,7407, Rudolstadt
Norma,Jüdeweiner Str. 6,7381, Pößneck
Norma,Schwarzenberger Str. 50,8344, Grünhain-Beierfeld
Norma,Oststr. 1,7407, Rudolstadt
Norma,Alt Saale 9,7407, Uhlstädt-Kirchhasel
Norma,Rodaer Str. 38,7806, Neustadt an der Orla
Norma,Geraer Str. 22,7819, Triptis
Norma,Äußere Zwickauer Str. 36,8064, Zwickau
Norma,Bahnhofstr. 2F,8056, Zwickau
Norma,Scheffelstr. 71A,8066, Zwickau
Norma,Chemnitzer Str. 55,9366, Stollberg-Niederdorf
Norma,Pleissen Anger 9,8459, Neukirchen Pleisse
Norma,Glauchauer Str. 26,8058, Zwickau
Norma,Willy-Poller-Str. 4,9423, Gelenau
Norma,Heinrich-Heine-Str. 14,7646, Stadtroda
Norma,Fröbelstr. 15,7548, Gera
Norma,Am Kühlen Grund 1,7580, Ronneburg
Norma,Friedrich-Zucker-Str. 1,7745, Jena
Norma,Dr.-Charlotte-Krenzer-Str. 1B,9337, Hohenstein-Ernstthal (Wüstenbrand)
Norma,Ziegenhainer Str. 54,7749, Jena
Norma,Reichenbrander Str. 126,9117, Chemnitz
Norma,August-Bebel-Str. 29,7743, Jena
Norma,Annaberger Str. 352-356,9125, Chemnitz
Norma,In den Satteln 15,7616, Bürgel
Norma,Neefestr. 58A,9119, Chemnitz
Norma,Zschopauer Str. 256,9126, Chemnitz
Norma,Albert-Einstein-Str. 15,9212, Limbach-Oberfrohna
Norma,Limbacher Str. 56,9113, Chemnitz
Norma,Augustusburger Str. 216,9127, Chemnitz
Norma,Leipziger Str. 193-199,9114, Chemnitz
Norma,Glösaer Str. 1,9131, Chemnitz
Norma,Hauptstr. 190A,9618, Großhartmannsdorf
Norma,Rudolf-Breitscheid-Str. 45,4600, Altenburg
Norma,Schmiedehäuser Str. 56,7774, Dornburg-Camburg
Norma,Gutenbergstr. 70,9669, Frankenberg /Sa.
Norma,Neusorger Str. 30,9648, Altmittweida
Norma,Wiesenmühlenweg 8,4654, Frohburg
Norma,Breitenhainer Weg 10,4613, Lucka
Norma,Chemnitzer Str. 105,9599, Freiberg
Norma,Am Bahnhof 4,9599, Freiberg
Norma,Naumburger Str. 15,6628, Bad Kösen
Norma,Blumrodaer Str. 2A,4565, Regis-Breitingen
Norma,Hainichener Str. 11B,9661, Rossau
Norma,Rochlitzer Str. 9,9326, Geringswalde
Norma,Carsdorfer Str. 15,4523, Pegau
Norma,Naumburger Str. 77,6667, Weißenfels
Norma,Fischgasse 5,6667, Weißenfels
Norma,Weststr. 58,9603, Großschirma
Norma,Göteborger Str. 7,6686, Lützen
Norma,Breite Str. 20B,6231, Bad Dürrenberg
Norma,Carl-Thieme-Str. 26,1705, Freital
Norma,Vorwerkstr. 1,4668, Grimma
Norma,Karl-Barth-Str. 1,6237, Leuna
Norma,Meißner Str. 19,1665, Käbschütztal
Norma,Ernst-Thälmann-Str. 39,1809, Heidenau
Norma,Räcknitzhöhe 35,1217, Dresden
Norma,Paradiesstr. 40,1217, Dresden
Norma,Geusaer Str. 81A,6217, Merseburg
Norma,Schönauer Str. 240,4205, Leipzig
Norma,Leubener Str. 61,1279, Dresden
Norma,Papstdorfer Str. 27,1277, Dresden
Norma,Salzwiesenrain 1,6567, Bad Frankenhausen/Kyffhäuser
Norma,Stötteritzer Str. 38,4317, Leipzig
Norma,Zum Storchennest 2,4668, Grimma
Norma,Grosser Marktweg 8,4178, Leipzig
Norma,Zweinaundorfer Str. 163,4316, Leipzig
Norma,Schandauer Str. 34,1309, Dresden
Norma,Otto-Schill-Str. 10,4109, Leipzig
Norma,Merseburger Str. 74,6268, Querfurt
Norma,Südpromenade 14,6246, Schafstädt
Norma,Am Kalkfeld 1,6556, Artern Unstrut
Norma,Philipp-Reis-Str. 80,4179, Leipzig
Norma,Arthur-Winkler-Str. 37,4319, Leipzig
Norma,Hallesche Str. 120,6217, Merseburg
Norma,Talstr. 6,1662, Meißen
Norma,Braustr. 34,4821, Brandis
Norma,Hartzstr. 6,4129, Leipzig
Norma,Knopstr. 17,4159, Leipzig
Norma,Moritzburger Str. 84,1640, Coswig
Norma,Am Börnchen 3,4159, Leipzig
Norma,Modelwitzer Str. 1,4435, Schkeuditz
Norma,Essener Str. 11,4129, Leipzig
Norma,Dresdener Str. 3,4758, Oschatz
Norma,Hermann-Heidel-Str. 11,6132, Halle
Norma,Poststr. 6A,6179, Teutschenthal
Norma,Am Mittelfeld 1,6526, Sangerhausen
Norma,Dr.-Albert-Dietze-Str. 11,1454, Radeberg
Norma,Alte Promenade 32,6526, Sangerhausen
Norma,Neustädter Passage 11,6122, Halle
Norma,Alleestr. 90,1591, Riesa
Norma,Riesaer Str. 5,1612, Nünchritz
Norma,Heidering 6-8,6120, Halle
Norma,Schulstr. 1,6313, Wimmelburg
Norma,Lindenstr. 23B,1616, Strehla
Norma,Wesenitzaue 1,1909, Großharthau
Norma,An den Breiten 9,1454, Wachau
Norma,Puschkinstr. 30,4838, Eilenburg
Norma,Securiusstr. 12A,4509, Delitzsch
Norma,Ernst-Thälmann-Str. 3,1877, Bischofswerda
Norma,Querstr. 4,4889," Schildau, Gneisenaustadt"
Norma,Görlitzer Str. 29,2763, Zittau
Norma,Hauptstr. 78A,2791, Oderwitz
Norma,Marktstr. 18-20,1609, Gröditz
Norma,Saarstr. 24,1917, Kamenz
Norma,Dübener Str. 1,4860, Torgau
Norma,Jahnstr. 10,6388, Gröbzig
Norma,Lindenweg 5,4910, Elsterwerda
Norma,Muskauer Str. 20C,2625, Bautzen
Norma,Wolfener Str. 26g,6800, Jeßnitz
Norma,Wolfener Str. 26B,6800, Raguhn-Jeßnitz
Norma,Breitscheidstr. 2,2708, Löbau
Norma,Magdeburger Str. 32,6449, Aschersleben
Norma,Bernburger Str. 39,6366, Köthen (Anhalt)
Norma,Gröbziger Str. 61,6406, Bernburg (Saale)
Norma,Briesker Str. 121,1968, Senftenberg
Norma,Leipziger Str. 12,4916, Herzberg
Norma,Altener Str. 19,6847, Dessau-Rosslau
Norma,Kavalierstr. 49,6844, Dessau-Roßlau
Norma,Schulstr. 8B,1968, Senftenberg
Norma,Rauschwalder Str. 46,2826, Görlitz
Norma,Kornhausstr. 31A,6846, Dessau-Rosslau
Norma,An der Frauenkirche 12,2826, Görlitz-Innenstadt
Norma,Holsteiner Str. 8,3238, Finsterwalde
Norma,Jessener Schulstr. 4,6917, Jessen (Elster)
Norma,An der B187,6917, Jessen (Elster)
Norma,Roßlauer Str. 94,6861, Dessau-Roßlau
Norma,Rosslauer Str. 35,6869, Coswig (Anhalt)
Norma,Puschkinstr. 25,6886," Wittenberg, Lutherstadt"
Norma,Dresdener Chaussee 88,3130, Spremberg
Norma,Spremberger Str. 79,3119, Welzow
Norma,Elsterweg 9-14,3130, Spremberg
Norma,Strugaaue 1,2959, Schleife
Norma,Gewerbepark Nord 22,3205, Calau
Norma,Gewerbegebiet Süd 5,3159, Döbern
Norma,Schopenhauerstr. 5,3050, Cottbus
Norma,Boxberger Str. 21,3048, Cottbus
Norma,Tagorestr. 2,3149, Forst (Lausitz)
Norma,Am Teufelsteich 6,3185, Peitz
Norma,Karl-Marx-Str. 86,3172, Guben
Norma,Jüterboger Chaussee 25,15936, Dahme/Mark
Norma,Bahnhofstr. 6,14823, Niemegk
Norma,Erich-Weinert-Str. 11,14806, Belzig
Norma,Rudolf-Breitscheid-Str. 62,15837, Baruth Mark
Norma,Schopsdorfer Chaussee 20A,14793, Ziesar
Norma,Ratinger Str. 1,14547, Beelitz
Norma,Industriestr. 1,14959, Trebbin
Norma,Michendorfer Gartenstr. 10A,14552, Michendorf
Norma,Wilhelmsdorfer Str. 4-6,14776, Brandenburg
Norma,Rathausstr. 2,14974, Ludwigsfelde
Norma,Dorfstr. 55,14789, Bensdorf OT Woltersdorf
Norma,Ruppinstr. 2,14770, Brandenburg
Norma,Potsdamer Str. 46B,14550, Groß Kreutz (Havel)
Norma,Krakauer Landstr. 31,14776, Brandenburg
Norma,Zum Großen Zernsee 3,14542, Werder (Havel)
Norma,Luckenwalder Str. 113,15711, Königs Wusterhausen
Norma,Alt Glasow 10A,15831, Blankenfelde-Mahlow
Norma,Rudolf-Breitscheid-Str. 162,14482, Potsdam
Norma,Am Reitplatz 1,15848, Beeskow
Norma,Potsdamer Str. 37-38,14469, Potsdam
Norma,Hinter den Höfen 10,15859, Storkow
Norma,Ruhlsdorfer Str. 14-16,14513, Teltow
Norma,John-Locke-Str. 19,12305, Berlin
Norma,Bammer Weg 2,14727, Premnitz
Norma,Hans-Grade-Allee 18,12529, Schönefeld
Norma,Am Schulzenpfuhl 1,12529, Schönefeld (Brandenburg)
Norma,Mohriner Allee 21,12347, Berlin
Norma,Müggelheimer Damm 233,12559, Berlin-Köpenick
Norma,Wassermannstr. 97,12489, Berlin
Norma,Bruno-Baum-Ring 28,14712, Rathenow
Norma,Bahnhofstr. 22,15517, Fürstenwalde/Spree
Norma,Schlachthausstr. 1,14712, Rathenow
Norma,Frankfurter Str. 96,15299, Müllrose
Norma,Seelenbinderstr. 112-120,12555, Berlin
Norma,Rudolf-Breitscheid-Str. 13,15517, Fürstenwalde/Spree
Norma,Am Markt 4,15517, Fürstenwalde/Spree
Norma,Kaulsdorfer Str. 209,12555, Berlin
Norma,Skalitzer Str. 141,10997, Berlin
Norma,Woltersdorfer Landstr. 19,15537, Erkner
Norma,Seegefelder Str. 148,14612, Falkensee
Norma,Karl-Liebknecht-Str. 24,15517, Fürstenwalde/Spree
Norma,Bremer Str. 9,10551, Berlin
Norma,Falkenhagener Str. 30-32,14612, Falkensee
Norma,Raiffeisenstr. 9,14641, Nauen
Norma,Am Weinberg 1,15295, Brieskow Finkenheerd
Norma,Anton-Saefkow-Platz 8,10369, Berlin
Norma,Bergstr. 2,15562, Rüdersdorf
Norma,Helene-Weigel-Platz 13,12681, Berlin
Norma,Kniprodestr. 64,10407, Berlin
Norma,Heinrich-Grüber-Str. 86,12619, Berlin
Norma,Tiroler Str. 28,13187, Berlin
Norma,Blumberger Damm 124-128,12685, Berlin
Norma,Kopenhagener Str. 77,13158, Berlin
Norma,Quedlinburger Str. 31,12627, Berlin
Norma,Titusweg 3,13509, Berlin
Norma,Alte Hellersdorfer Str. 130,12629, Berlin
Norma,Liebensteiner Str. 44,12687, Berlin
Norma,Dietzgenstr. 125,13158, Berlin
Norma,Märkische Allee 344A,12689, Berlin
Norma,Markendorfer Str. 20,15234, Frankfurt
Norma,Ernst-Thälmann-Str. 11,15345, Petershagen Eggersdorf
Norma,Hauptstr. 54,16548, Glienicke
Norma,McDonald's-Str. 3,16356, Ahrensfelde
Norma,Hamburger Str. 6,14662, Friesack
Norma,Bruno-Apitz-Str. 14,13125, Berlin
Norma,Herrenseeallee 15 15,15344, Strausberg
Norma,Dorfstr. 16A,16562, Hohen Neuendorf
Norma,Kirschallee 1A,15326, Lebus
Norma,Schönower Str. 41-43,16341, Panketal
Norma,Rosenstr. 1,16321, Bernau bei Berlin
Norma,Zepernicker Landstr. 50,16321, Bernau OT Ladeburg
Norma,Rungestr. 34,16515, Oranienburg
Norma,Köritzer Str. 58,16845, Neustadt
Norma,Dr.-Wilhelm-Külz-Str. 20,19322, Wittenberge
Norma,Horning 7B,19322, Wittenberge
Norma,Bahnhofstr. 27,16259, Bad Freienwalde (Oder)
Norma,Leibnizstr. 1A,16225, Eberswalde
Norma,Ernst-Thälmann-Str. 39,16244, Schorfheide
Norma,Joachimsthaler Str. 2,16230, Britz
Norma,Finkenbergstr. 19,19309, Lenzen (Elbe)
Norma,Leopoldsbrunnen 3,19303, Dömitz
Norma,Bergstr. 22,16928, Pritzwalk
Norma,Friedrichszentrum 14,16831, Rheinsberg
Norma,Feldstr. 1,16831, Rheinsberg
Norma,Am Rosenplan 1,16909, Wittstock Dosse
Norma,Rudolf-Breitscheid-Str. 27,16278, Angermünde
Norma,Lychener Str. 25,17268, Templin
Norma,Wobbeliner Str. 24,19288, Ludwigslust
Norma,Berliner Allee 17D,16303, Schwedt/Oder
Norma,Platz der Befreiung 1,16303, Schwedt/Oder-Zentrum
Norma,Bahnhofstr. 12-14,19258, Boizenburg Elbe
Norma,Kranichstr. 17,17235, Neustrelitz
Norma,Buchholzallee 3,19370, Parchim
Norma,Ludwigsluster Str. 29,19370, Parchim
Norma,Söringstr. 3A,19230, Hagenow
Norma,Blücherstr. 8,19386, Lübz
Norma,Neustädter Damm 19,17291, Prenzlau
Norma,Kastanienallee 48,16307, Gartz/O.
Norma,Robert-Schulz-Ring 37A,17291, Prenzlau
Norma,Am Pfennigsberg 7,17192, Waren
Norma,Zur Ziegelei 9,17348, Woldegk
Norma,Gerhard-Hauptmann-Str. 7,19053, Schwerin
Norma,Dr.-Joseph-Herzfeld-Str. 41,19057, Schwerin
Norma,Rostocker Str. 31A,17033, Neubrandenburg
Norma,Einsteinstr. 37,17036, Neubrandenburg
Norma,Zittower Str. 1B,19067, Leezen
Norma,Löcknitzer Str. 14,17309, Pasewalk
Norma,Platz der Freundschaft 14,18273, Güstrow
Norma,Lange Str. 14,19417, Warin
Norma,Malchiner Str. 88,17166, Teterow
Norma,Buchenstr. 1B,17358, Torgelow
Norma,Industriestr. 2,18246, Bützow
Norma,Neubrandenburger Str. 21,17379, Ferdinandshof
Norma,Stettiner Str. 69A-D,17367, Eggesin
Norma,Bahnhofstr. 34-35,18299, Laage
Norma,Güstrower Str. 78b,18258, Schwaan
Norma,Demminer Str. 15-17,17159, Dargun
Norma,Nikolaistr. 4,17109, Demmin
Norma,Pasewalker Allee 49,17389, Anklam
Norma,Demminer Str. 7,17126, Jarmen
Norma,Panzower Weg 40,18233, Neubukow
Norma,Schmiedeweg 9,18196, Dummerstorf
Norma,Am Karauschensoll 1A,18198, Kritzmow
Norma,Weidengrund 1,18059, Rostock
Norma,Bollbrügge 3,18190, Sanitz
Norma,Rostocker Str. 35A,18069, Lambrechtshagen
Norma,Krischanweg 10A,18069, Rostock
Norma,An den Salzwiesen 40,18209, Bad Doberan
Norma,Hundsburgallee 11D,18069, Rostock
Norma,Hundsburgallee 11D,18106, Rostock
Norma,Waldstr. 29,18225, Kühlungsborn
Norma,Tribseeser Str. 20D,18507, Grimmen
Norma,Feldstr. 81,17489, Greifswald
Norma,Wolgaster Landstr. 26,17493, Greifswald
Norma,Damgartener Chaussee 61c,18311, Ribnitz-Damgarten
Norma,Str. der Jugend 35,18469, Velgast
Norma,Richtenberger Chaussee 56A,18437, Stralsund
Norma,Heinrich-Heine-Ring 78,18435, Stralsund
Norma,Gingster Str. 63,18573, Samtens
Norma,Ringstr. 113-115,18528, Bergen
Norma,Wittower Str. 26,18556, Dranske
Norma,Hauptstr. 26,29393, Groß Oesingen
Norma,Alvernsche Str. 1,29229, Celle/Garßen
Norma,Nestauer Str. 8,29562, Suhlendorf
Norma,Lüneburger Landstr. 24,21368, Dahlenburg
Norma,Große Str. 55,21380, Artlenburg
Norma,Brüsseler Str. 4,21423, Winsen (Luhe)
Norma,Mercatorstr. 1,21502, Geesthacht
Norma,Wasserkrüger Weg 127A,23879, Mölln
Norma,Kolberger Str. 1,23909, Ratzeburg
Norma,Ratzeburger Allee 108,23562, Lübeck
Norma,Feldstr. 29,23858, Reinfeld (Holstein)
Norma,Klützer Str. 58,23936, Grevesmühlen
Norma,Tierparkpromenade 1,23966, Wismar
Norma,Lübsche Str. 146-148,23966, Wismar
Norma,Philosophenweg 1,23970, Wismar
Norma,Marktstr. 1,23968, Gägelow
Norma,Hoher Damm 48,23970, Wismar
Norma,Grevesmühlener Str. 29,23942, Dassow
Norma,Memelstr. 12,23554, Lübeck
Norma,Elisabethstr. 22,23701, Eutin
Norma,Kirchtor 13,24601, Wankendorf
Norma,Fuldaer Str. 9A,36129, Gersfeld (Rhön)
Norma,Eisenacher Str. 25,36142, Tann
Norma,Justus-Liebig-Str. 1,36100, Petersberg
Norma,Franfurter Str. 39,36043, Fulda
Norma,Weimarer Str. 21/23,36039, Fulda
Norma,Lehnerzer Str. 6,36039, Fulda
Norma,Josefstr. 16,36088, Hünfeld
Norma,Zufahrtsstr. 1A,36460, Merkers
Norma,Bahnhofstr. 35,36110, Schlitz
Norma,Marktstr. 35,36132, Eiterfeld
Norma,Hönebacher Str. 34,36289, Friedewald
Norma,Alsfelder Str. 3,36251, Bad Hersfeld
Norma,Butzbacher Str. 6,35516, Münzenberg
Norma,Industriestr. 6A,36251, Ludwigsau
Norma,Frankfurter Str. 346,35398, Giessen
Norma,Nürnberger Str. 61-65,36199, Lispenhausen
Norma,Busecker Weg 1,35463, Fernwald-Annerod
Norma,Wingert 17,35396, Gießen
Norma,Marktstr. 1,35460, Staufenberg
Norma,Heubergstr. 2,37269, Eschwege
Norma,August-Vilmar-Str. 22,34576, Homberg
Norma,Grüner Weg 2,35792, Löhnberg
Norma,Marburger Landstr. 1B,35091, Cölbe-Bürgeln
Norma,Unterm Flecken 4,35794, Mengerskirchen
Norma,Bürgermeisterwiese 8,35745, Herborn
Norma,Hausener Weg 45,37339, Worbis
Norma,Holzweg 7,37308, Heilbad Heiligenstadt
Norma,Theodor-Haubach-Str. 1,34132, Kassel
Norma,Zorger Str. 5,37445, Walkenried
Norma,Sandbrink 1,38877, Benneckenstein (Harz)
Norma,Rosentalstr. 18,38899, Oberharz am Brocken
Norma,Rathmannsdorfer Str. 12,39439, Güsten
Norma,Karl-Zerbst-Str. 28,38889, Blankenburg (Harz)
Norma,Richard-Wagner-Str. 39-41,38820, Halberstadt
Norma,Friedensplatz 2,39397, Gröningen
Norma,Moskauer Str. 21,39218, Schönebeck (Elbe)
Norma,Zimmererstr. 13,39218, Schönebeck (Elbe)
Norma,Karither Str. 29,39245, Gommern
Norma,Alt Salbke 96,39122, Magdeburg
Norma,Werner von Siemens Ring 1-2,39116, Magdeburg
Norma,Leipziger Chaussee 63,39120, Magdeburg
Norma,Halberstädter Chaussee 55-65,39116, Magdeburg
Norma,Brenneckestr. 42,39118, Magdeburg
Norma,Schönebecker Str. 60,39104, Magdeburg
Norma,Braunschweiger Str. 22-24,39112, Magdeburg
Norma,Seestr. 6,39114, Magdeburg
Norma,Münchentor 33,39279, Möckern
Norma,Große Diesdorfer Str. 162,39110, Magdeburg
Norma,Grätzer Str. 36-39,39291, Möckern
Norma,Silberschlagstr. 10,39128, Magdeburg
Norma,Büddenstedter Str. 12,38364, Schöningen
Norma,Niederndodeleber Str. 2,39167, Hohe Börde / Ot Irxleben
Norma,Breiteweg 110,39179, Barleben
Norma,August-Bebel-Damm 60,39126, Magdeburg
Norma,Seegrabenstr. 1,39326, Wolmirstedt
Norma,Birkholzer Chaussee 3,39517, Tangerhütte
Norma,Hauptstr. 1b,38461, Danndorf
Norma,Im Klingenkampe 54,30659, Hannover
Norma,Alte Landstr. 2,38524, Sassenburg-Grußendorf
Norma,Alter Damm 1,30419, Hannover
Norma,Scharnhorststr. 11B,39576," Stendal, Hansestadt"
Norma,Am Hegefeld 3E,38486, Klötze
Norma,Alte Bahnhofstr. 5,39624, Kalbe
Norma,Ballerstedter Str. 65,39606, Osterburg
Norma,Ballerstedter Str. 65A,39606, Osterburg
Norma,Neustädter Str. 31,39539, Havelberg
Norma,Konrad-Adenauer-Str. 63,42651, Solingen
Norma,Wichlinghauser Markt 19,42277, Wuppertal
Norma,Bonner Str. 42-44,42697, Solingen
Norma,Gräfrather Str. 188,42329, Wuppertal-Vohwinkel
Norma,Johann-Sebastian-Bach-Str. 7,40724, Hilden
Norma,Gleiwitzstr. 259,44328, Dortmund
Norma,Gut-Heil-Str. 5,44145, Dortmund
Norma,Schneidemühler Str. 11,40599, Düsseldorf
Norma,Im Bruchfeld 36,45525, Hattingen
Norma,Lindenhorster Str. 244,44339, Dortmund
Norma,Heyestr. 130-132,40625, Düsseldorf
Norma,Corneliusstr. 95,40215, Düsseldorf
Norma,Eickeler Str. 15,44651, Herne
Norma,Further Str. 133,41462, Neuss
Norma,Karl-Meyer-Str. 7,45884, Gelsenkirchen
Norma,Amelandstr. 17-23,45665, Recklinghausen
Norma,Kohlenweg 35,41189, Mönchengladbach
Norma,Wickrather Str. 117,41236, Mönchengladbach
Norma,Hubertusstr. 148,41239, Mönchengladbach
Norma,Viktoriastr. 55,41061, Mönchengladbach
Norma,Bahnstr. 50,47877, Willich
Norma,Fichtenstr. 1,41836, Hückelhoven
Norma,Friedrich-Ebert-Str. 121,47226, Duisburg
Norma,Hochstr. 51-53,45964, Gladbeck
Norma,Kölner Str. 235,47805, Krefeld
Norma,Max-Eyth-Str. 3-7,46149, Oberhausen
Norma,Vestische Str. 210-214,46145, Oberhausen
Norma,Bleichpfad 1,47799, Krefeld
Norma,Marktstr. 72,47798, Krefeld
Norma,Am Schibsler Weg 1-5,41836, Hückelhoven
Norma,Spartastr. 32,41812, Erkelenz-Gerderath
Norma,Brabanter Str. 48-50,41849, Wassenberg
Norma,Venloer Str. 87,41751, Viersen
Norma,Hauptstr. 36a,41366, Schwalmtal-Amern
Norma,Erler Str. 13,46514, Schermbeck
Norma,Legdener Str. 4,48720, Rosendahl
Norma,Nordbrocker Str. 50,46499, Hamminkeln
Norma,Münsterstr. 58,46414, Rhede
Norma,Marktstr. 27,47623, Kevelaer
Norma,Westend 31,46399, Bocholt
Norma,Bahnhofstr. 21,46459, Rees-Haldern
Norma,Baumannshof 1,47551, Bedburg-Hau
Norma,Emmericher Str. 6,46446, Emmerich am Rhein
Norma,Marie-Curie-Ring 11,55291, Saulheim
Norma,Barbarossaring 25-27,55118, Mainz
Norma,Jakob-Steffan-Str. 10,55122, Mainz
Norma,Schifferstr. 2-4,55218, Ingelheim
Norma,Salinenstr. 27,55543, Bad Kreuznach
Norma,Stromberger Str. 74,55413, Weiler
Norma,Kuseler Str. 11,55774, Baumholder
Norma,Am Markt 6,55494, Rheinböllen
Norma,Hauptstr. 387,55743, Idar-Oberstein
Norma,Sonnenhof 3,55469, Simmern
Norma,Tiefensteiner Str. 187,55743, Idar-Oberstein
Norma,H.-W.-Schmitz-Str. 3,56379, Singhofen
Norma,Emil-Thomas-Str. 5,55481, Kirchberg
Norma,Unten in der Aab 8,56154, Boppard
Norma,In der Sitters,55487, Sohren
Norma,Frankfurter Str. 47,56414, Wallmerod
Norma,Bahnallee 20,56410, Montabaur
Norma,Bahnallee 20-24,20, Montabaur
Norma,Hunsrückhöhenstr. 1,56323, Waldesch
Norma,Auf der Klaus 1,56422, Wirges
Norma,Donatusstr. 6,54411, Hermeskeil
Norma,Einkaufspark 2,56462, Höhn
Norma,Arenberger Str. 22,56077, Koblenz
Norma,Poststr. 1,54424, Thalfang
Norma,Bahnhofsplatz 2,57299, Burbach
Norma,Koblenzer Str. 7A,56459, Langenhahn
Norma,Andernacher Str. 86,56070, Koblenz
Norma,Rübenacher Str. 102,56072, Koblenz
Norma,Am Laach 7,56253, Treis-Karden
Norma,Handwerkstr. 2,54470, Bernkastel-Kues
Norma,Bahnhofstr. 34,56294, Münstermaifeld
Norma,In der Weiherwies,54536, Kröv
Norma,Clemensstr. 53,56218, Mülheim-Kärlich
Norma,Clemensstr. 21,56218, Mülheim-Kärlich
Norma,Saynische Str. 14,57567, Daaden
Norma,Poststr. 18,56269, Dierdorf
Norma,Bahnhofstr. 14,57586, Weitefeld
Norma,Hauptstr. 3,56575, Weißenthurm
Norma,Saynstr. 32,57627, Hachenburg
Norma,Augustastr. 74,56564, Neuwied
Norma,Am Eichenhein,56812, Cochem
Norma,Beverwijker Ring 3A,56564, Neuwied
Norma,Trierer Str. 3,54314, Zerf
Norma,Fraukircher Str. 26,56637, Plaidt
Norma,Erfurter Str. 5,56626, Andernach
Norma,Urbacher Str. 25,56305, Puderbach
Norma,Hauptstr. 158,57518, Alsdorf
Norma,In der Köschwies 7,54320, Waldrach
Norma,Neumarkt 31-33,57250, Netphen
Norma,Wissener Str. 11,57580, Gebhardshain
Norma,Buhnertstr. 1A,54523, Hetzerath
Norma,Trierer Str. 28,54340, Longuich
Norma,Friedrichstr. 28A,54516, Wittlich
Norma,Auf der Bölz 2,56645, Nickenich
Norma,Westerwaldpark 23,56587, Oberhonnefeld-Gierend
Norma,Zum Kehr 5,56826, Lutzerath
Norma,Paulinstr. 9-11,54292, Trier
Norma,Neuwiederstr. 109,56588, Waldbreitbach
Norma,Richtweg 12,57537, Wissen
Norma,Kornbitze 1,57632, Flammersfeld
Norma,Marktzentrum 4,57577, Hamm (Sieg)
Norma,Marburger Str. 79,57223, Kreuztal
Norma,Ritter-Heinrich-Str. 10,56766, Ulmen
Norma,Brohltalstr. 56,56651, Niederzissen
Norma,Hauptstr. 40,53577, Neustadt
Norma,Bahnhofstr. 9,53577, Neustadt
Norma,Gewerbestr. 9,54531, Manderscheid
Norma,Bahnhofstr. 1A,54441, Temmels
Norma,Am Sändchen 32-34,53545, Linz
Norma,Goethestr. 7,53424, Remagen
Norma,Rottbitzerstr. 28A,53604, Bad Honnef
Norma,Otto-Eichhorn-Str. 2,51545, Waldbröl
Norma,Bitburger Str. 1A,54668, Echternacherbrück
Norma,Rondell 1,54568, Gerolstein
Norma,Proffenweg 2C,53639, Königswinter
Norma,Dürener Str. 46,53501, Gelsdorf (Grafschaft)
Norma,Wallstr. 19,54576, Hillesheim
Norma,Krahmer Weg 2,53804, Much
Norma,Webersbenden 11,53902, Bad Münstereifel - Wald
Norma,Von-Weichs-Str. 2,53121, Bonn
Norma,Erich-Hoffmann-Str. 10,53121, Bonn
Norma,Hauptstr. 125A,53842, Troisdorf
Norma,Christian-Schäfer-Str. 22,53881, Euskirchen
Norma,Friedhofstr. 1,51789, Lindlar
Norma,Overather Str. 50-52,51429, Bergisch Gladbach
Norma,Gaulstr. 75,51688, Wipperfürth
Norma,Mühlenstr. 49,51143, Köln
Norma,Im Blauen Garn 101,50389, Wesseling
Norma,Deutscher Platz 3,53919, Weilerswist
Norma,Richard-Bertram-Str. 87,50321, Brühl
Norma,Buchholzstr. 105,51469, Bergisch Gladbach
Norma,Olpener Str. 114,51103, Köln
Norma,Steprathstr. 21,51103, Köln
Norma,Theodor-Heuss-Str. 19,50374, Erftstadt
Norma,Waldecker Str. 41,51065, Köln-Buchforst
Norma,Rathausstr. 3,53940, Hellenthal
Norma,Normannengasse 21,53909, Zülpich
Norma,Markt 13,50374, Erftstadt
Norma,Barbarastr. 3,50735, Köln
Norma,Manforter Str. 247,51373, Leverkusen
Norma,Gymnicher Hauptstr. 22-24,50374, Erftstadt
Norma,Altenhagener Str. 41,58097, Hagen
Norma,Rathausstr. 1,50169, Kerpen-Horrem
Norma,Am Kastanienhof 19-21,59423, Unna
Norma,Bahnhofstr. 37,59439, Holzwickede
Norma,Zum Wasserwerk 7-9,50170, Kerpen-Sindorf
Norma,Rölsdorfer Str. 27,52355, Düren
Norma,Robert-Koch-Str. 80A,59174, Kamen
Norma,Lessingstr. 2,59174, Kamen
Norma,Dortmunder Str. 19,58455, Witten
Norma,Birkesdorfer Str. 42,52353, Düren
Norma,Werner Str. 76-78,59192, Bergkamen
Norma,Ohndorfer Str. 1,50189, Elsdorf
Norma,Bundesstr. 53,52159, Roetgen
Norma,Am Parir 4,52379, Langerwehe
Norma,Stolberger Str. 121,52249, Eschweiler
Norma,Aachener Str. 13,52428, Jülich
Norma,Jülicher Str. 61,52457, Aldenhoven
Norma,Hüttenstr. 44,52068, Aachen
Norma,Jülicher Str. 25-27,52070, Aachen
Norma,Jülicher Str. 2,52499, Baesweiler
Norma,Boos-Fremery-Str. 34,52525, Heinsberg
Norma,Erzbischof-Philipp Str. 15,52525, Heinsberg
Norma,Roermonder Str. 137,52525, Heinsberg
Norma,Friedrichsdorfer Landstr. 48,69412, Eberbach
Norma,Ortsstr. 2,69234, Dielheim
Norma,Miltenberger Str. 48,63927, Bürgstadt
Norma,In der Quelle 7,63863, Eschau
Norma,Frühlingstr. 1,63939, Wörth am Main
Norma,Weiherweg 8,68794, Oberhausen-Rheinhausen
Norma,Obernburger Str. 44,63853, Mömlingen
Norma,Wallstadter Str. 64,68526, Ladenburg
Norma,Benzstr. 2,63843, Niedernberg
Norma,Freiburger Str. 31,69469, Weinheim
Norma,Kurt-Schumacher-Str. 35,67346, Speyer
Norma,Gleiwitzer Str. 38,69502, Hemsbach
Norma,Wenigumstädter Str. 34-36,64850, Schaafheim
Norma,Siemensstr. 4,63768, Hösbach
Norma,Dieselstr. 2,63762, Großostheim
Norma,Schönbornstr. 1,63741, Aschaffenburg
Norma,Seidelstr. 1,63741, Aschaffenburg
Norma,Obernburger Str. 123A,63811, Stockstadt
Norma,Mundenheimerstr. 30,67061, Ludwigshafen
Norma,H 55,68159, Mannheim
Norma,Sonderburger Str. 12,68307, Mannheim
Norma,Platanenallee 23,64832, Babenhausen
Norma,Comeniusstr. 6,67071, Ludwigshafen am Rhein
Norma,Andreasstr. 70,68623, Lampertheim
Norma,Darmstädter Str. 28,64839, Münster
Norma,Schubertstr. 2,63791, Karlstein
Norma,Schraderstr. 34,67227, Frankenthal
Norma,Am Kanal 1C,67227, Frankenthal (Pfalz)
Norma,Rathausstr. 9,63579, Freigericht
Norma,Gimmeldinger Str. 12,67433, Neustadt
Norma,Bahnhofstr. 121,68623, Lampertheim-Hofheim
Norma,Wingertstr. 6,63571, Gelnhausen-Meerholz
Norma,Leipziger Str. 76,63571, Gelnhausen
Norma,Erfurter Str. 8,63517, Rodenbach
Norma,Danziger Str. 37,63179, Obertshausen
Norma,An der Kreisstr. 1,64331, Weiterstadt
Norma,Nordstr. 71-73,63450, Hanau
Norma,An der Saline 8,63654, Büdingen
Norma,Hugo-Wolf-Str. 10,63069, Offenbach am Main
Norma,Waldstr. 46,63065, Offenbach
Norma,Andrestr. 42,63067, Offenbach
Norma,Ostheimer Str. 55,61130, Nidderau
Norma,Auf dem Hainspiel 2,61138, Niederdorfelden
Norma,Glauberger Str. 45C,63695, Glauburg
Norma,Alt Schwanheim 56,60529, Frankfurt
Norma,Marktstr. 2-4,65428, Rüsselsheim
Norma,Wickerer Str. 8-10,65439, Flörsheim
Norma,Bolongarostr. 134,65929, Frankfurt
Norma,Messeplatz 3,61197, Florstadt-Nieder-Florstadt
Norma,Am langen Steg 2-4,63667, Nidda
Norma,In der Laubach 2-4,61191, Rosbach
Norma,Hugenottenstr. 54,61381, Friedrichsdorf
Norma,Haagstr. 11,61169, Friedberg
Norma,Otto-Wallach-Str. 5,65203, Wiesbaden-Biebrich
Norma,Im Bruch 7,66917, Wallhalben
Norma,Niedermoscheler Str. 1B,67821, Alsenz
Norma,Am Bahnhof 1-3,65510, Idstein
Norma,Bahnhofstr. 6,66907, Glan-Münchweiler
Norma,Neukirchner Str. 12,65510, Hünstetten-Kesselbach
Norma,Frankfurter Str. 126A,65520, Bad Camberg
Norma,Georg-Fleischer-Str. 5,66914, Waldmohr
Norma,Lehnstr. 37,66869, Kusel
Norma,An den Kirschbäumen 1,66459, Kirkel-Neuhäusel
Norma,Ringstr. 2,66538, Neunkirchen
Norma,Nikolaus-Otto-Str. 13,65582, Diez
Norma,Jägersfreuder Str. 62,66113, Saarbrücken
Norma,Am Siechhaus 19,65614, Beselich
Norma,Im Petersfeld 2,65624, Altendiez
Norma,Alsweilerstr. 62,66646, Marpingen
Norma,Provinzialstr. 58,66126, Saarbrücken
Norma,Völklinger Str. 29-31,66333, Völklingen
Norma,Provinzialstr. 242A,66740, Saarlouis-Lisdorf
Norma,Saarwellinger Str. 2A,66809, Nalbach
Norma,Trierer Str. 55-57,66706, Perl
Norma,Wettegasse 12,73441, Bopfingen
Norma,Röchlingstr. 16,73447, Oberkochen
Norma,Aalener Str. 4,73432, Aalen
Norma,An der Sechta 1,73479, Ellwangen-Röhlingen
Norma,Eduard-Pfeiffer-Str. 17,73430, Aalen
Norma,In den Kocherwiesen 5,73460, Hüttlingen
Norma,Marienstr. 29,73479, Ellwangen
Norma,Steinbeisstr. 5,73312, Geislingen
Norma,Bargauer Str. 32,73540, Heubach
Norma,Fabrikstr. 6,73079, Süßen
Norma,Buchstr. 119,73525, Schwäbisch Gmünd
Norma,Eutighofer Str. 56,73525, Schwäbisch Gmünd
Norma,Stuttgarter Str. 1,73054, Eislingen Fils
Norma,Schönebürgstr. 9,74564, Crailsheim
Norma,Hauptstr. 100,72525, Münsingen
Norma,Zeller Str. 16,73235, Weilheim
Norma,Bahnhofstr. 3,73066, Uhingen
Norma,Irene-Kärcher-Str. 13,74423, Obersontheim
Norma,Bahnhofstr. 41,74405, Gaildorf
Norma,Justinus-Kerner-Str. 8,73642, Welzheim
Norma,Tannenbergstr. 113,73230, Kirchheim unter Teck
Norma,Kirchheimer Str. 172,73265, Dettingen
Norma,Im Hoffeld 1,74427, Fichtenberg
Norma,Rehhaldenweg 29,73614, Schorndorf
Norma,Bismarckstr. 8,73614, Schorndorf
Norma,Baumgartenweg 2,72517, Sigmaringendorf
Norma,Crailsheimer Str. 67,74523, Schwäbisch Hall
Norma,Albstr. 29,73240, Wendlingen
Norma,Kirchstr. 33,72622, Nürtingen
Norma,Sigmaringer Str. 75,72501, Gammertingen
Norma,Nürtinger Str. 26,72622, Nürtingen
Norma,Berliner Str. 22,71540, Murrhardt
Norma,Kirchstr. 19,72793, Pfullingen
Norma,Benzstr. 10,71384, Weinstadt
Norma,Sondelfinger Str. 109,72760, Reutlingen
Norma,Sondelfingerstr. 109,72766, Reutlingen
Norma,Blumenstr. 13,73728, Esslingen
Norma,Marktstr. 7,71364, Winnenden
Norma,Im Horben 3,71560, Sulzbach
Norma,Sulzbacher Str. 140,71522, Backnang
Norma,Beinsteiner Str. 4,71334, Waiblingen
Norma,Vordere Str. 4,70734, Fellbach
Norma,Stuttgarter Str. 20,70736, Fellbach
Norma,Lagerstr. 6,72510, Stetten am kalten Markt
Norma,Im Gehrn 1,71737, Kirchberg a.d.Murr
Norma,Raiffeisenstr. 5,72810, Gomaringen
Norma,Tübinger Str. 11,70771, Leinfelden-Echterdingen
Norma,Radolfzeller Str. 19,78467, Konstanz
Norma,Carl-Benz-Str. 5,78467, Konstanz
Norma,Ostendstr. 110,70188, Stuttgart
Norma,Theodor-Groz-Str. 76,72458, Albstadt-Ebingen
Norma,Nordbahnhofstr. 61,70191, Stuttgart
Norma,Streibgasse 8,70567, Stuttgart
Norma,Böblinger Str. 8,70178, Stuttgart
Norma,Westfalenstr. 27,71640, Ludwigsburg
Norma,Prof.-Maier-Leibnitz-Str. 9-11,78476, Allensbach
Norma,Bahnhofstr. 7,71711, Steinheim an der Murr
Norma,Dorfplatz 8,71711, Murr
Norma,Talstr. 11,78333, Stockach
Norma,Bahnhofstr. 26,70806, Kornwestheim
Norma,Wilhelmstr. 9,71101, Schönaich
Norma,Ellhofener Str. 54,74251, Lehrensteinsfeld
Norma,Königstr. 50,72108, Rottenburg
Norma,Königsberger Str. 16,71034, Böblingen
Norma,Besigheimer Str. 30,74354, Besigheim
Norma,Robert-Gerwig-Str. 12,78315, Radolfzell am Bodensee
Norma,Lutzstr. 6,74354, Besigheim
Norma,Hauptstr. 65,74369, Löchgau
Norma,Sülmermühlstr. 23,74072, Heilbronn
Norma,Titotstr. 7-9,74072, Heilbronn
Norma,Bahnhofstr. 17,78564, Wehingen
Norma,Fichtestr. 42,78224, Singen
Norma,Bahnhofstr. 29,78224, Singen (Hohentwiel)
Norma,Im Grund 1,72355, Schömberg
Norma,Josef-Beyerle-Str. 18,71263, Weil der Stadt
Norma,Europastr. 12,78549, Spaichingen
Norma,Am Bahndamm 5,78234, Engen
Norma,Rauher Grund 8,72160, Horb
Norma,Burgweg 1,74193, Schwaigern-Stetten
Norma,Ernst-Haller-Str. 4,78647, Trossingen
Norma,Am Kriegsdamm 7,78628, Rottweil
Norma,Malmsheimer Str. 1,72172, Sulz
Norma,Balinger Str. 5,78727, Oberndorf a. Neckar (OT Bochingen)
Norma,Neckarelzer Str. 43,74821, Mosbach
Norma,Würzburger Str. 54,74736, Hardheim
Norma,Steinbeisstr. 6,78727, Oberndorf
Norma,Talweg 2,75433, Maulbronn
Norma,Harzerstr. 29,78054, Villingen-Schwenningen
Norma,Dr.-Heinrich-Köhler-Str. 2,74731, Walldürn
Norma,Westliche Karl-Friedrich-Str. 104,75172, Pforzheim
Norma,Kelterstr. 26,75179, Pforzheim
Norma,Bahnhofstr. 14,78166, Donaueschingen
Norma,Wilhelm-Becker-Str. 11,75179, Pforzheim
Norma,Bahnhofstr. 20,72280, Dornstetten
Norma,Pforzheimer Str. 71,75015, Bretten
Norma,Vier-Häuser-Str. 3,78713, Schramberg-Sulgen
Norma,Stuttgarter Str. 24-26,72250, Freudenstadt
Norma,Bundesstr. 1B,79780, Stühlingen
Norma,Hauptstr. 2,75196, Remchingen
Norma,Hauptstr. 67,77761, Schiltach
Norma,Tonbachstr. 11,72270, Baiersbronn
Norma,Talstr. 20,78112, Sankt Georgen im Schwarzwald
Norma,Kammerforststr. 3,76646, Bruchsal
Norma,Kirrlacher Str. 60,76709, Kronau
Norma,Steinrücken 2,77793, Gutach (Schwarzwaldbahn)
Norma,Friedrich-Ebert-Platz 3,79822, Titisee-Neustadt
Norma,Berliner Str. 8,79761, Waldshut-Tiengen
Norma,Schulstr. 3,79853, Lenzkirch
Norma,Herrmann-Leichtlin-Str. 15,76185, Karlsruhe
Norma,Hertzstr. 4,76287, Rheinstetten
Norma,Unterentersbacher Str. 9,77736, Zell
Norma,Rheinstr. 48,77815, Bühl
Norma,Hauptstr. 6C,77704, Oberkirch
Norma,Eisenbahnstr. 18,79774, Albbruck
Norma,Gutenbergstr. 1A,76761, Rülzheim
Norma,Breslauer Str. 3,77723, Gengenbach
Norma,Fautenbacher Str. 5-7,77855, Achern
Norma,An den Brunnenwiesen 1,79183, Waldkirch
Norma,Schutterwälder Str. 3A,77656, Offenburg
Norma,Allmendstr. 16,77948, Friesenheim
Norma,Am Elzdamm 6,79312, Emmendingen
Norma,Im Häflä 1,79713, Bad Säckingen
Norma,Sedanstr. 12+12A,79098, Freiburg
Norma,Horststr. 37,76829, Landau
Norma,Sundgauallee 59,79114, Freiburg
Norma,Ruster Str. 8,77975, Ringsheim
Norma,Im Gaisgraben 2,79219, Staufen
Norma,Friedrichstr. 99,79618, Rheinfelden
Norma,Robert-Bosch-Str. 1,79618, Rheinfelden
Norma,Wallbrunnstr. 88,79539, Lörrach
Norma,Hauptstr. 400,79576, Weil am Rhein
Norma,Am Einlaß 3,80469, München
Norma,Schleißheimer Str. 125,80797, München
Norma,Regerstr. 66,81541, München
Norma,Donnersbergerstr. 29,80634, München
Norma,Schlierseestr. 28-30,81539, München
Norma,Riesenfeldstr. 16,80809, München
Norma,Fromundstr. 31-33,81547, München
Norma,Kreillerstr. 21,81673, München
Norma,Oberhofer Platz 4,80807, München
Norma,Albert-Roßhaupter-Str. 102,81369, München
Norma,Hardenbergstr. 27,80992, München
Norma,Ehrwalder Str. 2,81377, München
Norma,Lerchenauerstr. 158,80935, München
Norma,Bingener Str. 46,80993, München
Norma,Triebstr. 7,80993, München
Norma,Joergstr. 86,80689, München
Norma,Terofalstr. 19,80689, München
Norma,Josef-Lang-Str. 12,81245, München
Norma,Münchner Str. 113,82008, Unterhaching
Norma,Manzostr. 37A,80997, München
Norma,Königswieser Str. 5,81475, München
Norma,Eschenstr. 38,82024, Taufkirchen
Norma,Professor-Kallmann-Str. 1,82049, Pullach
Norma,Am Brunneck 4,85521, Ottobrunn
Norma,Dieselstr. 2,85757, Karlsfeld
Norma,Wiesentfelser Str. 8,81249, München
Norma,Südliche Ingolstädter Str. 74,85716, Unterschleissheim
Norma,Johann-Sebastian-Bach-Str. 44,85591, Vaterstetten
Norma,Wittelsbacherstr. 23,82110, Germering
Norma,Hirschauerstr. 1,82110, Germering
Norma,Muggenthaler Str. 1,82152, Krailling
Norma,Ludwig-Thoma-Str. 30,85221, Dachau
Norma,Bahnhofstr. 11,85386, Eching
Norma,Münchner Str. 15,85604, Zorneding
Norma,Heckenstr. 3,82140, Olching
Norma,Römerstr. 72,82205, Gilching
Norma,Wallbergstr. 16,85570, Markt Schwaben
Norma,Münchner Str. 1,82319, Starnberg
Norma,Augsburger Str. 32,82256, Fürstenfeldbruck
Norma,Landsberger Str. 61,82256, Fürstenfeldbruck
Norma,Johann-Auer-Str. 4,85435, Erding
Norma,Heignkamer Str. 4,83607, Holzkirchen
Norma,Glonner Str. 1,85567, Grafing bei München
Norma,Gewerbering 2,85238, Petershausen
Norma,Gewerbestr. 17,82211, Herrsching
Norma,Lachener Str. 2,86911, Dießen am Ammersee
Norma,Sachsenkamer Str. 21,83646, Bad Tölz
Norma,Ingolstädter Str. 37-39,85276, Pfaffenhofen an der Ilm
Norma,Münchener Str. 38,83527, Haag
Norma,Neue Industriestr. 6,85368, Moosburg
Norma,Im Thal 1,82377, Penzberg
Norma,Obere Stadt 77,82362, Weilheim
Norma,Industriestr. 3-6,83734, Hausham
Norma,Martinstr. 23,86551, Aichach
Norma,Bahnhofstr. 1,84416, Taufkirchen
Norma,Bozener Str. 4,86316, Friedberg
Norma,Augsburger Str. 20,86529, Schrobenhausen
Norma,Ebersberger Str. 19,83022, Rosenheim
Norma,Industriestr. 1,86558, Hohenwart
Norma,Aventinstr. 4,83022, Rosenheim
Norma,Friedberger Str. 136,86163, Augsburg
Norma,Münchener Str. 34-36,86899, Landsberg
Norma,Gießenbachstr. 2,83022, Rosenheim
Norma,Bürgermeister-Wohlfarth-Str. 74,86343, Königsbrunn
Norma,Haunstetter Str. 239-241,86179, Augsburg
Norma,Hauptstr. 20,82380, Peißenberg
Norma,Reichenberger Str. 49-53,86161, Augsburg
Norma,Breslauer Str. 1A,86899, Landsberg am Lech
Norma,Stätzlinger Str. 35,86165, Augsburg
Norma,Konrad-Zuse-Str. 1,86159, Augsburg
Norma,Logistikring 10,85084, Reichertshofen
Norma,Sonnenstr. 49,82380, Peißenberg
Norma,Neuburger Str. 26,86167, Augsburg
Norma,Tauroggener Str. 3,86167, Augsburg
Norma,Bei der Jakobskirche 1,86152, Augsburg
Norma,Maximilianstr. 71,86150, Augsburg
Norma,Bischof-Ulrich-Str. 6,86399, Bobingen
Norma,Gabelsberger Str. 7a,86199, Augsburg
Norma,Abensberger Str. 36A,84048, Mainburg
Norma,Holzbachstr. 2F,86152, Augsburg
Norma,Straßäcker 12,82418, Murnau
Norma,Donauwörther Str. 19,86154, Augsburg
Norma,Opalstr. 10,84032, Altdorf
Norma,Im Gewerbegebiet 5,83093, Bad Endorf
Norma,Am Nestackerweg 20,86391, Stadtbergen
Norma,Donauwörther Str. 219,86154, Augsburg
Norma,Ulmer Str. 131-133,86156, Augsburg
Norma,Augsburger Str. 75,85290, Geisenfeld-Geisenfeldwinden
Norma,Augsburger Str. 9,86368, Gersthofen
Norma,Friedländer Str. 4,84478, Waldkraiburg
Norma,Augsburger Str. 60,86830, Schwabmünchen
Norma,Siemens Str. 5,84030, Landshut
Norma,Lorenzerstr. 14,84144, Geisenhausen
Norma,Benzstr. 18,86356, Neusäß
Norma,Lohenfeld 14,83119, Obing
Norma,Kurt-Gnettner-Ring 2,86956, Schongau
Norma,Industriestr. 9,84030, Ergolding
Norma,Augsburger Str. 13,86668, Karlshuld
Norma,Bahnhofstr. 20A,86807, Buchloe
Norma,Fraunhoferstr. 1,84137, Vilsbiburg
Norma,Systemformstr. 3,83209, Prien
Norma,Am Pulverl 12,85051, Ingolstadt
Norma,Haunwöhrer Str. 6,85051, Ingolstadt
Norma,Bräustr. 2,85098, Großmehring
Norma,Hartackerstr. 35,85088, Vohburg
Norma,Pouzauges Ring 1,86405, Meitingen
Norma,Harderstr. 13,85049, Ingolstadt
Norma,Luitpoldallee 27,84453, Mühldorf
Norma,Sudetenlandstr. 40,86633, Neuburg
Norma,Mößlinger Str. 45,84453, Mühldorf am Inn
Norma,Gaimersheimer Str. 59,85057, Ingolstadt
Norma,Godramsteiner Str. 2,85049, Ingolstadt
Norma,Sonnenleite 14,83308, Trostberg
Norma,Wiesenstr. 19,87600, Kaufbeuren-Neugablonz
Norma,Kufsteiner Str. 10,83088, Kiefersfelden
Norma,Nürnberger Str. 20,85101, Lenting
Norma,Wolfgang-Leeb-Str. 38,84513, Töging
Norma,Hauptstr. 17,84061, Ergoldsbach
Norma,Neugablonzer Str. 88,87600, Kaufbeuren
Norma,Münchner Str. 10-12,86641, Rain
Norma,Werner-von-Siemens-Str. 25,83301, Traunreut
Norma,Hochlerchstr. 2,83250, Marquartstein
Norma,Am Mühlanger 4,86637, Wertingen
Norma,Am Fischweiher 50,82481, Mittenwald
Norma,Schornstr. 18,82467, Garmisch-Partenkirchen
Norma,Landsberger Str. 36,87719, Mindelheim
Norma,Kaufbeurener Str. 78,87616, Marktoberdorf
Norma,Zugspitzstr. 30,82467, Garmisch-Partenkirchen
Norma,Neuöttinger Str. 62D,84503, Altötting
Norma,Landshuter Str. 4,84524, Neuötting
Norma,Leierndorfer Str. 6A,84085, Langquaid
Norma,Rupertistr. 40-42,83278, Traunstein
Norma,Bürgermeister-Raab-Str. 25,86470, Thannhausen
Norma,Amperstr. 2,84130, Dingolfing
Norma,Traunsteiner Str. 23,83313, Siegsdorf
Norma,Sallinger Str. 13,86609, Donauwörth
Norma,Weißenburger Str. 19,85072, Eichstätt
Norma,Hauptstr. 102A,89343, Jettingen-Scheppach
Norma,Försterstr. 43,85110, Kipfenberg
Norma,Herzogin-Anna-Str. 7,89420, Höchstädt
Norma,Markmillergasse 4,89420, Höchstädt/Donau
Norma,Bahnhofstr. 64,86381, Krumbach
Norma,Lauterbachstr. 20,84307, Eggenfelden
Norma,Robert-Koch-Str. 58-62,84489, Burghausen
Norma,Dillinger Str. 33,89331, Burgau
Norma,Kemptener Str. 66,87629, Füssen
Norma,Georg-Hogen-Ring 2,89407, Dillingen
Norma,Fritz-Gastager-Str. 13,83334, Inzell
Norma,Stephansrieder Str. 2,87724, Ottobeuren
Norma,Rudolf-Diesel-Str. 2,87724, Ottobeuren
Norma,Dillinger Str. 4,89415, Lauingen
Norma,Ettenbeurer Str. 27,89335, Ichenhausen
Norma,Meilinger Str. 3,87459, Pfronten
Norma,Uhlandstr. 6,87727, Babenhausen
Norma,Harburger Str. 20,86650, Wemding
Norma,An der Günz 8,89312, Günzburg
Norma,Kiem-Pauli-Str. 13,83410, Laufen
Norma,Ulmer Str. 26,87437, Kempten (Allgäu)
Norma,Füssener Str. 45,87471, Durach
Norma,Duracher Str. 54,87437, Kempten
Norma,Ringstr. 23A,84347, Pfarrkirchen
Norma,Oberwanger Str. 1,87439, Kempten
Norma,Maximilianstr. 10,87700, Memmingen
Norma,Pettenkoferstr. 1A,87439, Kempten
Norma,Woringer Str. 2a,87700, Memmingen
Norma,Schillerstr. 12,89567, Sontheim an der Brenz
Norma,Rudolf-Wanzl-Str. 1,89340, Leipheim
Norma,Reichenbachstr. 9,83435, Bad Reichenhall
Norma,Rathausplatz 4-6,87435, Kempten
Norma,Wildspitzstr. 1,87751, Heimertingen
Norma,Herzog-Georg-Str. 3,89264, Weißenhorn
Norma,Liebherr-Weg 15,88451, Dettingen an der Iller
Norma,Bahnhofstr. 3,83395, Freilassing
Norma,Dietenheimer Str. 2,89257, Illertissen
Norma,Gewerbestr. 12,86720, Nördlingen
Norma,Rübenmarkt 6,86720, Nördlingen
Norma,Falkenstr. 32,89269, Vöhringen
Norma,Am Schwarzen Graben 14,89278, Nersingen
Norma,Benzstr. 5,89129, Langenau
Norma,Hauptstr. 37,89250, Senden
Norma,Berliner Str. 17,89250, Senden
Norma,Fleinheimer Str. 50,89564, Nattheim
Norma,Leipheimer Str. 97,89233, Neu-Ulm
Norma,Östliche Alpenstr. 30,87527, Sonthofen
Norma,Am Wedelgraben 36,89522, Heidenheim
Norma,Herrenkellergasse 18,89073, Ulm
Norma,Isnyer Str. 5/2,88299, Leutkirch im Allgäu
Norma,Untere Wiesen 2,88416, Ochsenhausen
Norma,Ehinger Str. 19,89077, Ulm
Norma,Wilhelmstr. 82,89518, Heidenheim an der Brenz
Norma,Aalener Str. 4,89520, Heidenheim an Der Brenz
Norma,Magirusstr. 40,89077, Ulm
Norma,Maierhöfenerstr. 15,88316, Isny
Norma,Karlstr. 67,89547, Gerstetten
Norma,Biberacher Str. 13,88471, Laupheim
Norma,Enzenspergerweg 7,87561, Oberstdorf
Norma,Memminger Str. 24,88410, Bad Wurzach
Norma,Leipzigstr. 28,88400, Biberach
Norma,Lindauer Str. 28,87534, Oberstaufen
Norma,Industriestr. 21,88441, Mittelbiberach
Norma,Weilerstr. 39,89143, Blaubeuren
Norma,Lindenstr. 18,89584, Ehingen (Donau)
Norma,Staufner Str. 11,88161, Lindenberg im Allgäu
Norma,Zeppelinstr. 8,88239, Wangen
Norma,Graf-von-Zeppelin-Str. 2,89150, Laichingen
Norma,Auf der Steige 50,88326, Aulendorf
Norma,Baindter Str. 8,88255, Baienfurt
Norma,Gartenstr. 77,88212, Ravensburg
Norma,Jahnstr. 26,88214, Ravensburg
Norma,Bahnhofstr. 20,88361, Altshausen
Norma,Bregenzer Str. 67,88131, Lindau
Norma,Fuchsgasse 3,88348, Bad Saulgau
Norma,Alte Unlinger Str. 4,88499, Riedlingen
Norma,Grabenstr. 12,88069, Tettnang
Norma,Moosstr. 1,88074, Meckenbeuren
Norma,Mühlesch 28,88085, Langenargen
Norma,Hohenzollernstr. 5,88356, Ostrach
Norma,Werastr. 54,88045, Friedrichshafen
Norma,Hauptstr. 4,88512, Mengen
Norma,Ravensburger Str. 32A,88677, Markdorf
Norma,Gehrenbergstr. 1,88090, Immenstaad
Norma,Schulstr. 2,88630, Pfullendorf
Norma,Dr.-Zimmermann-Str. 18A,88709, Meersburg
Norma,Lippertsreuter Str. 35,88662, Überlingen
Norma,Bacchusweg 1,93326, Abensberg
Norma,Schäfflerstr. 1,93309, Kelheim
Norma,Raiffeisenstr. 23,93077, Bad Abbach
Norma,Bahnhofstr. 23,93087, Alteglofsheim
Norma,Hauptstr. 76,92345, Dietfurt
Norma,Ingolstädter Str. 1C,92339, Beilngries
Norma,Am Reitfeld 8B,93161, Sinzing
Norma,Konrad-Adenauer-Allee 30,93051, Regensburg
Norma,Am Gewerbebogen 1,93155, Hemau
Norma,Bürgermeister-Korn-Str. 1,91757, Treuchtlingen
Norma,Kumpfmühler Str. 48,93051, Regensburg
Norma,Hornstr. 6,93053, Regensburg
Norma,Puricellistr. 17,93049, Regensburg
Norma,Gleiwitzer Str. 6,93073, Neutraubling
Norma,Bukarester Str. 2,93055, Regensburg
Norma,Steinweg 19,93059, Regensburg
Norma,Altmühlstr. 11,93059, Regensburg
Norma,Münchener Str. 46,91177, Thalmässing
Norma,Schlachthofstr. 2-4,91781, Weißenburg
Norma,Regendorfer Str. 7,93138, Lappersdorf
Norma,Otto-Von-Dandl-Ring 8,94315, Straubing
Norma,Hebbelstr. 14b,94315, Straubing
Norma,Zum Mallersdorfer Grund 1,92331, Parsberg
Norma,Gewerbepark 2,91785, Pleinfeld
Norma,Selingstädter Str. 1,91180, Heideck
Norma,Regensburger Str. 47,93128, Regenstauf
Norma,Pielweichser Str. 2,94447, Plattling
Norma,Kotaustr. 6,94327, Bogen
Norma,Berchinger Str. 38,92342, Freystadt
Norma,Altstadtring 22,91161, Hilpoltstein
Norma,Untere Hauptstr. 13,92364, Deining
Norma,Schlierfer Holz 1,92369, Sengenthal
Norma,Pleinfelder Str. 68A,91166, Georgensgmünd
Norma,Maxhütter Str. 35,93133, Burglengenfeld
Norma,Aschaer Str. 2,94360, Mitterfels
Norma,Ansbacher Str. 20,91717, Wassertrüdingen
Norma,Industriestr. 6,91710, Gunzenhausen
Norma,Gewerbering 2,94086, Bad Griesbach
Norma,Windsbacher Str. 41,91174, Spalt
Norma,Regensburger Str. 75,93158, Teublitz
Norma,Rodinger Str. 12,93167, Falkenstein
Norma,Regensburger Str. 34,92318, Neumarkt in der Oberpfalz
Norma,Obere Marktstr. 8,92318, Neumarkt in der Oberpfalz
Norma,Altenfeldener Str. 8,90584, Allersberg
Norma,Münchener Str. 61,91154, Roth
Norma,Nürnberger Str. 48,92318, Neumarkt
Norma,Amberger Str. 80,92318, Neumarkt in der Oberpfalz
Norma,Willy-Supf-Platz 2,91154, Roth
Norma,Ruselstr. 30,94469, Deggendorf
Norma,Brucker Str. 22,93149, Nittenau
Norma,Passauer Str. 23,94474, Vilshofen
Norma,Füssinger Str. 15,94060, Pocking
Norma,Pyrbaumer Str. 4,92353, Postbauer-Heng
Norma,Hans-Sachs-Str. 51,92436, Bruck
Norma,Barteläcker 15,92283, Lauterhofen
Norma,Ansbacher Str. 31,91575, Windsbach
Norma,Regensburger Str. 66,92421, Schwandorf
Norma,Falkensteiner Str. 6,93426, Roding
Norma,Gunzenhausener Str. 59,91572, Bechhofen
Norma,Gewerbestr. 4,91126, Schwabach
Norma,Von-Raumer-Str. 3A,91550, Dinkelsbühl
Norma,Johann-Höllfritsch-Str. 51,90530, Wendelstein
Norma,Fürther Str. 40,91126, Schwabach
Norma,Viechtacher Str. 12,94239, Ruhmannsfelden
Norma,Türkeistr. 28,90518, Altdorf
Norma,Schlauersbacher Str. 26,91564, Neuendettelsau
Norma,Nürnberger Str. 6,90537, Feucht
Norma,Moosau 20,94152, Neuhaus
Norma,Katzwanger Hauptstr. 33,90453, Nürnberg
Norma,Spitzwegstr. 1,90455, Nürnberg
Norma,Spitzwegstr. 31,90455, Nürnberg
Norma,Im Herrmannshof 3,91595, Burgoberbach
Norma,Chamer Str. 19,93468, Miltach
Norma,Hans-Eder-Str. 30,93413, Cham
Norma,Vilstalsraße 117,92245, Kümmersbruck
Norma,Regensburger Str. 55,94036, Passau
Norma,Peigertinger Str. 7,94538, Fürstenstein
Norma,Glogauer Str. 28-30,90473, Nürnberg
Norma,Morgenlandstr. 5,92521, Schwarzenfeld
Norma,Wiesenweg 1,94244, Geiersthal
Norma,Einsteinring 2,90453, Nürnberg
Norma,Am Alten Sportplatz 1,94259, Kirchberg im Wald
Norma,Fischbacher Hauptstr. 110,90475, Nürnberg
Norma,Industriestr. 6,91567, Herrieden
Norma,Stephanstr. 61,94034, Passau
Norma,Heinz-Flessner-Str. 1,92431, Neunburg vorm Wald
Norma,Fürther Str. 40,91560, Heilsbronn
Norma,Eibacher Hauptstr. 50,90451, Nürnberg
Norma,Sechserstr. 4,92224, Amberg
Norma,Sandstr. 2A,92224, Amberg
Norma,Minervastr. 169,90469, Nürnberg
Norma,Dinkelsbühler Str. 7,91555, Feuchtwangen
Norma,Rinchnacher Str. 14,94209, Regen
Norma,Windsbacher Str. 20,91522, Ansbach
Norma,Heisterstr. 4,90441, Nürnberg
Norma,Vogelherdstr. 16,91227, Leinburg
Norma,Bahnhofstr. 6,91522, Ansbach
Norma,Torstr. 35,93444, Bad Kötzting
Norma,Türkenstr. 60,91522, Ansbach
Norma,Kapuzinerstr. 42,94032, Passau
Norma,Halskestr. 6,90459, Nürnberg
Norma,Immenstetter Str. 18,92224, Amberg
Norma,Bayreuther Str. 51,92224, Amberg
Norma,Pastoriusstr. 51,90480, Nürnberg
Norma,Gibitzenhofstr. 94,90443, Nürnberg
Norma,Schweinauer Hauptstr. 56,90441, Nürnberg
Norma,Schweiggerstr. 14,90478, Nürnberg
Norma,Allersberger Str. 56,90461, Nürnberg
Norma,Am Tillypark 1,90431, Nürnberg
Norma,Tafelfeldstr. 16,90443, Nürnberg
Norma,Webersgasse 20,90439, Nürnberg
Norma,Dr.-Fritz-Ebbert-Str. 1,94034, Passau
Norma,Ossietzkystr. 29,90439, Nürnberg
Norma,Obere Kanalstr. 30-32,90429, Nürnberg
Norma,Rothenburger Str. 10,91522, Ansbach
Norma,Laufamholzstr. 84-86,90482, Nürnberg
Norma,Deggendorfer Str. 37,94513, Schönberg
Norma,Hauptmarkt 11,90403, Nürnberg
Norma,Innere Laufer Gasse 10,90403, Nürnberg
Norma,Rothenburger Str. 54,90522, Oberasbach
Norma,Stresemannplatz 9,90489, Nürnberg
Norma,Willstr. 15,90429, Nürnberg
Norma,Rothenburger Str. 16,90513, Zirndorf
Norma,Am Gewerbepark 3,90552, Röthenbach
Norma,Bayreuther Str. 34,90489, Nürnberg
Norma,Welserstr. 42,90489, Nürnberg
Norma,Nuernberger Str. 29a,90513, Zirndorf
Norma,Rosenberger Str. 97,92237, Sulzbach-Rosenberg
Norma,Johannisstr. 90-94,90419, Nürnberg
Norma,Äußere Bayreuther Str. 80,90491, Nürnberg-Schoppershof
Norma,Sigmundstr. 71,90431, Nürnberg
Norma,Hauptstr. 3,90607, Rückersdorf
Norma,Nordring 35,90408, Nürnberg
Norma,Fronmüllerstr. 78,90763, Fürth
Norma,Angerweiher 3,92507, Nabburg
Norma,Nürnberger Str. 143,91217, Hersbruck
Norma,Röthenbacher Str. 26,91207, Lauf
Norma,Kaiserstr. 173,90763, Fürth
Norma,Brettergartenstr. 90,90427, Nürnberg
Norma,Bierweg 31B,90411, Nürnberg
Norma,Salzstr. 16-22,90763, Fürth
Norma,Rathsbergstr. 19,90411, Nürnberg
Norma,Gabelsbergerstr. 1,90762, Fürth
Norma,Mathildenstr. 6,90762, Fürth Zentrum
Norma,Gartenstr. 11,90762, Fürth
Norma,Gustavstr. 65,90762, Fürth
Norma,Erlanger Str. 52,90765, Fürth
Norma,Wehlauer Str. 86,90766, Fürth
Norma,Stadtplatz 18 - 20,94227, Zwiesel
Norma,Neudorfer Höhe 2,90599, Dietenhofen
Norma,Bahnhofstr. 20,92536, Pfreimd
Norma,Am Grünen Weg 6,90766, Fürth
Norma,Zum Wasserhaus 10,90556, Cadolzburg
Norma,Konrad-Wilsdorf-Str. 1B,94518, Spiegelau
Norma,Vacher Str. 5-7,90766, Fürth
Norma,Vacher Str. 188,90766, Fürth
Norma,Kurt-Scherzer-Str. 2,90768, Fürth
Norma,Amberger Str. 1,92242, Hirschau
Norma,Werkstr. 2,90765, Fürth
Norma,Gründlacher Str. 313,90765, Fürth
Norma,Auweg 3,91220, Schnaittach
Norma,Am Bahnhof 6,92526, Oberviechtach
Norma,Adam-Wild-Str. 17,93437, Furth im Wald
Norma,Fischhausweg 23B,91583, Schillingsfürst
Norma,Heinrich-Eiber-Str. 5,93449, Waldmünchen
Norma,Seukendorfer Str. 15,90587, Veitsbronn
Norma,Im Gewerbepark 2,94545, Hohenau
Norma,Nürnberger Str. 50,90579, Langenzenn
Norma,Wetterkreuz 8,91058, Erlangen
Norma,Holzmüllerweg 1,91452, Wilhermsdorf
Norma,Dr.-Otto-Leich-Str. 6,90542, Eckental
Norma,Mairau 3,94107, Untergriesbach
Norma,Bahnhofstr. 26,94078, Freyung
Norma,Jandelsbrunner Str. 48,94065, Waldkirchen
Norma,Sylvaniastr. 14,91056, Erlangen
Norma,Neue Str. 9,91459, Markt Erlbach
Norma,Felix-Klein-Str. 59,91058, Erlangen
Norma,Paul-Gossen-Str. 69,91052, Erlangen
Norma,Karl-Zucker-Str. 7-9,91052, Erlangen
Norma,Erlanger Str. 58,91074, Herzogenaurach
Norma,Rathausplatz 3,91052, Erlangen
Norma,An der Schütt 22-24,91074, Herzogenaurach
Norma,Marktplatz 4,91054, Erlangen
Norma,Odenwaldallee 31,91056, Erlangen
Norma,Eslarner Str. 15,92539, Schönsee
Norma,Wiesenweg 1,91448, Emskirchen
Norma,Am Schönfeld 4,91322, Gräfenberg
Norma,Hauptstr. 92,92729, Weiherhammer
Norma,Bahnhofstr. 29,94110, Wegscheid
Norma,Leuchtenberger Str. 35,92699, Irchenrieth
Norma,Bergeler Str. 23,91593, Burgbernheim
Norma,Würzburger Str. 54,91541, Rothenburg ob der Tauber
Norma,Neuhauser Str. 15,91275, Auerbach
Norma,Am Mühlberg 11,91085, Weisendorf
Norma,Eisenbahnstr. 10,91438, Bad Windsheim
Norma,Altenstadter Str. 8,92648, Vohenstrauß
Norma,Leimberger Str. 67,92637, Weiden
Norma,Am Kreuzbach 1,91083, Baiersdorf
Norma,Karl-Eibl-Str. 32,91413, Neustadt
Norma,Bahnhofstr. 10,91301, Forchheim-Kersbach
Norma,Gewerbering 2,91341, Röttenbach
Norma,Pressather Str. 51,92637, Weiden
Norma,Vohenstraußer Str. 4,92637, Weiden
Norma,Neue Amberger Str. 4,92655, Grafenwöhr
Norma,Dr.-Martin-Luther-Str. 25,92637, Weiden
Norma,Bayreuther Str. 102,91301, Forchheim
Norma,Nürnberger Str. 26A,91257, Pegnitz
Norma,Föhrenweg 1,91301, Forchheim
Norma,Pretzfelder Str. 1,91356, Kirchehrenbach
Norma,Am langen Berg 7,91278, Pottenstein
Norma,Bamberger Str. 81,91301, Forchheim
Norma,Burghaslacher Str. 1,91486, Uehlfeld
Norma,Böhmerwaldstr. 14,91315, Höchstadt
Norma,Naabstr. 5,92660, Neustadt an der Waldnaab
Norma,Bad Mergentheimer Str. 4,97993, Creglingen
Norma,Am Mühlberg 22,91477, Markt Bibart
Norma,Nürnberger Str. 96-100,96114, Hirschaid
Norma,Attelsdorf 24,96132, Schlüsselfeld
Norma,Röntgenstr. 4A,95478, Kemnath
Norma,Weidener Str. 31,95469, Speichersdorf
Norma,Sportplatzstr. 2,91332, Heiligenstadt
Norma,Bamberger Str. 20,96138, Burgebrach
Norma,Schlüsselfelder Str. 31A,96160, Geiselwind
Norma,Alte Bundesstr. 3,96135, Stegaurach
Norma,Spitzwegstr. 59,95447, Bayreuth
Norma,Kemnather Str. 29,95448, Bayreuth
Norma,Bahnhofstr. 18,95466, Weidenberg
Norma,Kanalstr. 17,95444, Bayreuth
Norma,Herrenwiesenstr. 7-9,97980, Bad Mergentheim
Norma,Bahnhofstr. 20b,95643, Tirschenreuth
Norma,Am Weiherer Weg 12,96142, Hollfeld
Norma,Promenadestr. 12,96047, Bamberg
Norma,Am Traugraben 13,97342, Marktsteft
Norma,Pödeldorfer Str. 142,96052, Bamberg
Norma,Am Bauhof 4,95445, Bayreuth
Norma,Luitpoldstr. 45,96052, Bamberg
Norma,Franzosengraben 1,97350, Mainbernheim
Norma,Würzburger Str. 2,97199, Ochsenfurt
Norma,Hallstadter Str. 96,96052, Bamberg
Norma,Korbacher Str. 2,97353, Wiesentheid
Norma,Äußere Sulzfelder Str. 35,97318, Kitzingen
Norma,Mainberheimer Str. 97,97318, Kitzingen
Norma,Industriestr. 7,96120, Bischberg
Norma,Ritterstr. 13-17,97318, Kitzingen
Norma,Bamberger Str. 32,96110, Scheßlitz
Norma,Berndorfer Str. 18,95349, Thurnau
Norma,Gewerbepark 9,96149, Breitengüssbach
Norma,Mergentheimer Str. 29,97268, Kirchheim/Unterfranken
Norma,Obere Torgasse 25,97922, Lauda-Königshofen
Norma,Wunsiedler Str. 4,95615, Marktredwitz
Norma,Mitterteicher Str. 1,95652, Waldsassen
Norma,Hofer Str. 9,95632, Wunsiedel
Norma,Alte Landstr. 1,97228, Rottendorf
Norma,Dieselstraße,97332, Volkach
Norma,Bahnhofstr. 6,97500, Ebelsbach
Norma,Am Alten Bahnhof 1,97332, Volkach
Norma,Dr.-Georg-Schäfer-Str. 3,97447, Gerolzhofen
Norma,Wenzelstr. 10,97084, Würzburg
Norma,Hochhäuserstr. 6A,97941, Tauberbischofsheim
Norma,Tischeräcker 2-4,95339, Wirsberg
Norma,Lichtenfelser Str. 48,95326, Kulmbach
Norma,Franz-Ludwig-Str. 5,97072, Würzburg
Norma,Werner-von-Siemens-Str. 60,97076, Würzburg-Lengfeld
Norma,Dientzenhoferstr. 1,96250, Ebensfeld
Norma,Sartoriusstr. 6,97072, Würzburg
Norma,Albert-Ruckdeschel-Str. 2,95326, Kulmbach
Norma,Semmelstr. 20,97070, Würzburg
Norma,Matterstockstr. 38,97080, Würzburg
Norma,Zellerstr. 43,97082, Würzburg-Zellerau
Norma,Leibnizstr. 2A,97204, Höchberg
Norma,Lichtenfelser Str. 44,96231, Bad Staffelstein
Norma,In der Au 33,96224, Burgkunstadt
Norma,Robert-Bosch-Str. 1,97437, Haßfurt
Norma,Ziegelhütte 2,95346, Stadtsteinach
Norma,Oberpleichfelder Str. 4,97241, Bergtheim
Norma,Burggrumbacher Str. 1,97222, Rimpar
Norma,Raiffeisenstr. 11,97209, Veitshöchheim
Norma,Alte Ziegelei 5,96106, Ebern
Norma,Bamberger Str. 21,96215, Lichtenfels
Norma,Siemensstr. 30,96247, Michelau
Norma,Helmbrechtser Str. 4,95213, Münchberg
Norma,Blücherstr. 5,95100, Selb
Norma,Hopfengarten 7,97506, Grafenrheinfeld
Norma,Goethestr. 4,97469, Gochsheim
Norma,Otto-Hahn-Str. 4-6,97440, Werneck
Norma,Lindenstr. 16,95233, Helmbrechts
Norma,Sonnenstr. 37,97225, Zellingen
Norma,Mittelstr. 2A,96317, Kronach
Norma,Manggasse 7-13,97421, Schweinfurt
Norma,Frohnlacher Str. 7,96242, Sonnefeld
Norma,Am Oberen Marienbach 12-14,97421, Schweinfurt
Norma,Oskar-von-Miller-Str. 60,97424, Schweinfurt
Norma,Würzburger Str. 69,97877, Wertheim
Norma,Heckenweg 4,97422, Schweinfurt
Norma,Lindenstr. 20,97877, Wertheim
Norma,Ringstr. 23,97461, Hofheim
Norma,Unlitzstr. 10,95111, Rehau
Norma,Bestenheider Landstr. 70,97877, Wertheim
Norma,Baumhofstr. 53,97828, Marktheidenfeld
Norma,Hofer Str. 86,95145, Oberkotzau
Norma,Bamberger Str. 34,96450, Coburg
Norma,Söllershöhe 5,97828, Altfeld
Norma,Mohrenstr. 12,96450, Coburg
Norma,Hauptstr. 58,97909, Stadtprozelten
Norma,Mainkaistr. 2,97753, Karlstadt
Norma,Nikolaus-A.-Otto-Str. 2,96472, Rödental
Norma,August-Mohl-Str. 38,95030, Hof
Norma,Kronacher Str. 129,95119, Naila
Norma,Ludwigstr. 40,95028, Hof
Norma,Volkershausener Str. 46,97711, Maßbach
Norma,Kronacher Str. 6,96332, Pressig
Norma,Mühlweg 2,96465, Neustadt bei Coburg
Norma,Am Kreisel 1,97714, Oerlenbach
Norma,Neuhäuser Str. 13,96515, Sonneberg
Norma,Kissinger Str. 68-70,97762, Hammelburg
Norma,Walter-Senger-Str. 2-4,97816, Lohr am Main
Norma,Am Riedgraben 4-6,97688, Bad Kissingen
Norma,Industriestr. 37,97631, Bad Königshofen i. Grabfeld
Norma,Hartmannstr. 9,97688, Bad Kissingen
Norma,Eisfelder Str. 32,96528, Schalkau
Norma,Coburger Str. 1,98673, Eisfeld
Norma,Römhilder Str. 29,98646, Hildburghausen
Norma,Zum Mühlengrund 10,97705, Burkardroth
Norma,Linderbachweg 7,97833, Frammersbach
Norma,Alter Molkereiweg 14-18,97616, Bad Neustadt an der Saale
Norma,Piesauer Str. 4G,98739, Lichte
Norma,Brandweg 23,98724, Neuhaus
Norma,Beethovenweg 22,97638, Mellrichstadt
Norma,Leninstr. 16,98660, Themar
Norma,Bahnhofstr. 1,98701, Großbreitenbach
Norma,Einhäuser Str. 9,98617, Obermaßfeld-Grimmenthal
Norma,Schillerstr. 14,98617, Meiningen
Norma,Zellaer Str. 48,98528, Suhl-Goldlauter
Norma,Industriestr. 1,97650, Fladungen
Norma,Heinrich-Heine-Str. 1,98617, Meiningen
Norma,Am Königswasser 7,98528, Suhl
Norma,Jerusalemer Str. 8,98617, Meiningen
Norma,Otto-Keiner-Str. 79,98554, Benshausen
Norma,Hammergasse 7-9,98587, Steinbach-Hallenberg
Norma,Ilmenauer Str. 6-8,99326, Stadtilm
Norma,Hilderser Str. 2A,98590, Schwallungen
Norma,Wilhelm-Külz-Str. 45,98574, Schmalkalden
Norma,Professor-Frosch-Str. 60,99310, Arnstadt
Norma,August-Bebel-Str. 11,99444, Blankenhain
Norma,Gothaer Str. 114,98593, Floh-Seligenthal
Norma,Frauenbreitunger Weg 30,98597, Breitungen
Norma,Bebraer Str. 1,99894, Friedrichroda
Norma,Inselsbergstr. 70,99891, Tabarz Thür. Wald
Norma,Färberwaidweg 2,99097, Erfurt
Norma,Parkstr. 9A,99867, Gotha
Norma,Am Rosenberg 3,99092, Erfurt
Norma,Hallesche Str. 17,99085, Erfurt
Norma,Stauffenbergallee 5,99086, Erfurt
Norma,August-Schleicher-Str. 3,99089, Erfurt
Norma,Hugo-John-Str. 10,99086, Erfurt
Norma,Lowetscher Str. 1A,99089, Erfurt
Norma,Leutloffstr. 44,99510, Apolda
Norma,Gothaer Str. 1,99817, Eisenach
Norma,Kleine Rennbahn 76,99817, Eisenach
Norma,Wildecker Str. 15,99837, Werra-Suhl-Tal
Norma,Siedlungsweg 6,99189, Gebesee
Norma,Kleinvargulaer Str. 3,99955, Herbsleben
Norma,Poststr. 11,99947, Bad Langensalza
Norma,Tennstedter Str. 13,99947, Bad Langensalza
Norma,Straussfurter Str. 1,99631, Weißensee
Norma,Rudolf-Breitscheid-Str. 24,99974, Mühlhausen Thüringen
Norma,Hollenbacher Landstr. 1,99974, Mühlhausen Thüringen
Norma,Holzthalebener Str. 11,99996, Menteroda
Norma,Hospitalstr. 158,99706, Sondershausen
Norma,Am Bahndamm 7,99759, Sollstedt
Norma,Nordhäuser Str. 119,99752, Bleicherode
Norma,Grimmelallee 10,99734, Nordhausen
