Name,Street,Zip Code,Address
tegut...,Reinhardtstr. 56,7318, Saalfeld /Saale
tegut...,Blumenstr. 41,7389, Ranis
tegut...,Ölwiesenweg 5,7768, Kahla
tegut...,Carl-Zeiss-Str. 4,7743," Jena, Goethegalerie"
tegut...,Brüder-Grimm-Str. 132,36396, Steinau
tegut...,Breitenbacher Str. 22,36381, Schlüchtern
tegut...,Brückenstr. 3,36157, Ebersburg
tegut...,Am Forsthaus 3,36163, Poppenhausen (Wasserkuppe)
tegut...,Schlüchterner Str. 3a,36103, Flieden
tegut...,Hanauer Str. 1,36119, Neuhof
tegut...,Rhönhof 28,36124, Eichenzell
tegut...,Gartenstr. 2,36452, Kaltennordheim
tegut...,Gewerbepark 5,36160, Dipperz
tegut...,Im Mühlfeld 23,36399, Freiensteinau
tegut...,Keltenstr. 20,36043, Fulda-Kohlhaus
tegut...,Langenbieberer Str. 6,36145, Hofbieber
tegut...,Breitunger Str. 2-4,36100, Petersberg
tegut...,St.-Nikolaus-Weg 13,36142, Tann (Rhön)
tegut...,Am Emaillierwerk 1,36043, Fulda-Innenstadt
tegut...,Rabanusstr. 3,36037, Fulda
tegut...,Edith-Stein-Str. 13,36100, Petersberg
tegut...,Merkurstr. 16-20,36041, Fulda
tegut...,Maberzeller Str. 45,36041, Fulda
tegut...,Schlitzer Str. 79-81,36039, Fulda-Horas
tegut...,Schulstr. 2,36100, Petersberg
tegut...,Josef-Damian-Schmitt-Str. 1a,36100, Petersberg
tegut...,Hünfelder Str. 2,36088, Hünfeld-Mackenzell
tegut...,Gartenweg 3,36419, Geisa
tegut...,Josefstr. 3,36088, Hünfeld
tegut...,Bahnhofstr. 3,36448, Bad Liebenstein
tegut...,Welzgasse 1,36358, Herbstein
tegut...,Am Niedertor 2-8,36088, Hünfeld
tegut...,Untere Beete 3,36433, Bad Salzungen
tegut...,Bahnhofstr. 11,36433, Bad Salzungen
tegut...,Fuldaer Str. 52,36364, Bad Salzschlirf
tegut...,Marktplatz 3,36151, Burghaun
tegut...,Bruchwiesenweg 2,36110, Schlitz
tegut...,Bahnhofstr. 27,36414, Unterbreizbach
tegut...,An der Leimenkaute 3,36341, Lauterbach
tegut...,Höhenstr. 2,35410, Villingen/Hungen
tegut...,Im Borngarten 2,36325, Feldatal
tegut...,H.-v.-Stephan-Str. 4,36251, Bad Hersfeld
tegut...,Benno-Schilde-Str. 8,36251, Bad Hersfeld
tegut...,Industriestr. 6,36251, Ludwigsau
tegut...,An der Au 10,36304, Alsfeld
tegut...,Lindenallee 1-3,36179, Bebra
tegut...,Grüner Weg 6,36320, Kirtorf
tegut...,Kasseler Str. 25,34637, Schrecksbach
tegut...,Adolph-Kolping-Str. 9,35392, Gießen-Kleinlinden
tegut...,Neustadt 28,35390, Gießen
tegut...,Braacher Str. 14-16,36199, Rotenburg
tegut...,Porstendorfer Str. 3,35460, Staufenberg
tegut...,Lindenstr. 15,35287, Amöneburg
tegut...,Ernst-Ihle-Str. 8,34613, Schwalmstadt-Ziegenhain
tegut...,Friedrich-Ebert-Str. 90,34613, Schwalmstadt
tegut...,Mühlgasse 11,35274, Kirchhain
tegut...,Wendische Mark 7-13,37269, Eschwege
tegut...,Bahnhofstr. 25-27,37269, Eschwege
tegut...,Marburger Str. 100,35043, Marburg-Cappel
tegut...,Jakob-Kaiser-Str. 7,35037," Marburg, Stadtwald"
tegut...,Universitätsstr. 8,35037, Marburg
tegut...,Rudolf-Bultmann-Str. 8,35039, Marburg
tegut...,Ketzerbach 25-28,35037, Marburg-Ketzerbach
tegut...,Vorderweg 1,37290, Meißner
tegut...,Am Kaufmarkt 1,35041, Marburg-Wehrda
tegut...,Kasseler Str. 52,34212, Melsungen
tegut...,Am Wasser 4,37297, Berkatal/Frankershausen
tegut...,Stümpelstal 1a,35041, Marburg
tegut...,Werrastr. 6,37242, Bad Sooden-Allendorf
tegut...,Hundsburgstr. 11,34582, Borken (Hessen)
tegut...,Am Weinberg 5-7,35285, Gemünden (Wohra)
tegut...,Zum Kurpark 2,34596, Bad Zwesten
tegut...,Am Hospital 3,34560, Fritzlar
tegut...,Am Sportzentrum 3,35683, Dillenburg
tegut...,Raiffeisenstr. 2,35114, Haina-Löhlbach
tegut...,Brüsseler Str. 1,37308, Heilbad Heiligenstadt
tegut...,Breiter Hagen 6 (EKZ Fürstenga,34537, Bad Wildungen
tegut...,An der Bohlenbrücke,37213, Witzenhausen
tegut...,Elisabeth-Selbert-Str. 40,34253, Kassel-Lohfelden
tegut...,Am Kornhaus 2,34549, Edertal
tegut...,Altenbaunaer Str. 14-18,34225, Baunatal-Altenritte-Altenritte
tegut...,Leipziger Str. 120-126,34123, Kassel
tegut...,Mündener Str. 17,37218, Gertenbach
tegut...,Frankfurter Str. 86,34121, Kassel
tegut...,Königsplatz 61,34117, Kassel-Mitte
tegut...,Friedrich-Ebert-Str. 29,34117, Kassel
tegut...,Wilhelmshöher Allee 89,34121, Kassel
tegut...,Ludwig-Erhard-Str. 11,34131, Kassel-Marbachshöhe
tegut...,Wilhelmshöher Allee 253,34131, Kassel
tegut...,Wilhelmshöher Allee 262,34131, Kassel
tegut...,Wolfhager Str. 278,34128, Kassel
tegut...,Zum Hirtenkamp 1,34128, Kassel-Harleshausen
tegut...,Rathausplatz 8-11,34246, Vellmar-Obervellmar
tegut...,Alfred-Delp-Weg 7,37085, Göttingen
tegut...,Schützeberger Str. 91,34466, Wolfhagen
tegut...,Weender Sraße 75,37073, Göttingen
tegut...,Am Kaufpark 1,37081, Göttingen
tegut...,An der Lutter 22,37075, Göttingen
tegut...,Briloner Landstr. 4-6,34497, Korbach
tegut...,Industriestr. 17,34369, Hofgeismar
tegut...,Osteroder Str. 10,37520, Schwiegershausen
tegut...,In der Klappe 2,34399, Oberweser-Gieselwerder
tegut...,Annemarie-Renger-Str. 1o,55131, Mainz
tegut...,Holzhofstr. 9,55116, Mainz
tegut...,Bahnhofstr. 8a,55116, Mainz
tegut...,Katzenberg 13,55126, Mainz
tegut...,Rheinstr. 29,69126, Heidelberg
tegut...,Hauptstr. 110,69117, Heidelberg
tegut...,Werner-von-Siemens-Str. 35,64711, Erbach
tegut...,Hauptstr. 34,63846, Laufach
tegut...,Rudelzauer Str. 14,63762, Großostheim
tegut...,Schillerstr. 109,63741, Aschaffenburg
tegut...,Heidelberger Str. 100,64625, Bensheim
tegut...,Industriestr. 24,63811, Stockstadt
tegut...,Am Pflaster 19,63599, Biebergemünd
tegut...,Marie-Curie-Str. 2,64653, Lorsch
tegut...,Darmstädterstr. 66-68,64372, Ober-Ramstadt
tegut...,Waldstr. 71b,64846, Groß-Zimmern
tegut...,Neustadter Str. 2-4,67125, Schauernheim
tegut...,Erwin-Grimm-Ring 1,63533, Mainhausen
tegut...,Friedberger Gäßchen 5,63755, Alzenau
tegut...,Frankfurter Str. 96,63500, Seligenstadt
tegut...,Raiffeisenstr. 11,63579, Freigericht
tegut...,Kleinbahnweg 3,63589, Linsengericht
tegut...,Ludwigstr. 2-4,64283, Darmstadt
tegut...,Kasinostr. 92,64293, Darmstadt
tegut...,Leipziger Str. 74,63571, Gelnhausen
tegut...,Babenhäuser Str. 29,63128, Dietzenbach
tegut...,Masayaplatz 3,63128, Dietzenbach
tegut...,Fabrikstr. 5,63636, Brachttal-Schlierbach
tegut...,Feldstr. 13,64347, Griesheim
tegut...,Ringstr. 58,63505, Langenselbold
tegut...,Max-Planck-Str. 6,64331, Weiterstadt
tegut...,Rheinstr. 31,63225, Langen
tegut...,Lise-Meitner-Str. 2,64560, Riedstadt-Wolfskehlen
tegut...,Heldenbergener Str. 4,63452, Hanau
tegut...,Aschaffenburger Str. 24,63073, Offenbach-Bieber
tegut...,Schillerstr. 77-79,63165, Mühlheim am Main
tegut...,Frankfurter Str. 70-72,63303, Dreieich-Sprendlingen
tegut...,Keltenstr. 18-20,63486, Bruchköbel
tegut...,Heinrich-Böll-Str. 42,63486, Bruchköbel-Niederissigheim
tegut...,Braubachstr. 18,63477, Maintal-Dörnigheim
tegut...,Gerauer Str. 54a,64546, Mörfelden-Walldorf
tegut...,Große Marktstr. 36-42,63065, Offenbach am Main
tegut...,Pfortenstr. 3,60386, Frankfurt-Fechenheim
tegut...,Mailänder Str. 8,60598, Frankfurt am Main-Sachsenhausen
tegut...,Triebstr. 51,60388, Frankfurt-Bergen Enkheim
tegut...,Walter-Kolb-Str. 13,60594, Frankfurt-Sachsenhausen
tegut...,Berger Str. 195,60385, Frankfurt-Bornheim
tegut...,Bleichstr. 57,60313, Frankfurt-Am Eschenheimer Turm
tegut...,Kaiserstr. 62-64,60329, Frankfurt am Main
tegut...,Die Weidenbach 5-13,63674, Altenstadt
tegut...,An der Rosenhelle 6,61138, Niederdorfelden
tegut...,Friedberger Landstr. 408,60389, Frankfurt
tegut...,Gravensteiner-Platz 4-6,60435, Frankfurt am Main
tegut...,Voltastr. 70-72,60486, Frankfurt
tegut...,Leonardo-da-Vinci-Allee 4-8,60486, Frankfurt
tegut...,Friedberger Str. 93,61118, Bad Vilbel
tegut...,Mörfelder Str. 22,65451, Kelsterbach
tegut...,Radilostr. 17-19,60489, Frankfurt-Rödelheim
tegut...,Bahnhofstr. 190-196,61184, Karben
tegut...,Friedhofsweg 2,61184, Okarben
tegut...,Adam-Opel-Str. 4-6,65462, Ginsheim-Gustavsburg
tegut...,Königsteiner Str. 31-33,65812, Bad Soden am Taunus
tegut...,Mühlstr. 23,63679, Rainrod
tegut...,Epinay Platz 1,61440, Oberursel
tegut...,Frankfurter Str. 50-52,61476, Kronberg im Taunus
tegut...,Mainblick 65,61476, Kronberg im Taunus
tegut...,Fauerbacher Str. 9,61169, Friedberg
tegut...,Anna-Kloos-Str. 1,61169, Friedberg (Hessen)
tegut...,Biedrichstr. 13,61200, Woelfersheim
tegut...,Stresemannstr. 3,61231, Bad Nauheim
tegut...,Valterweg 1,65817, Eppstein
tegut...,Rheingaustr. 30,65201, Wiesbaden/Schierstein
tegut...,Luisenstr. 23,65185, Wiesbaden
tegut...,Richard-Wagner-Str. 86,65193, Wiesbaden
tegut...,Dotzheimerstr. 82,65197, Wiesbaden
tegut...,Fondetterstr. 26,65207, Wiesbaden-Naurod
tegut...,Feldbergstr. 1,65527, Niedernhausen
tegut...,Neukirchner Str. 14,65510, Hünstetten-Kesselbach
tegut...,Joseph-Schneider-Str. 1,65549, Limburg a. d. Lahn
tegut...,An der oberen Halde 64,73527, Schwäbisch Gmünd
tegut...,Albert-Roller-Str. 2,71332, Waiblingen
tegut...,Gotthilf-Bayh-Str. 1-3,70736, Fellbach
tegut...,Epplestr. 14,70597, Stuttgart-Degerloch
tegut...,Heusteigstr. 41,70180, Stuttgart
tegut...,Königstr. 26,70173, Stuttgart
tegut...,Mailänder Platz 7,70173, Stuttgart
tegut...,Alarichstr. 4,70469, Stuttgart
tegut...,Marstallstr. 1,71634, Ludwigsburg
tegut...,Luitpoldstr. 3,80335, München
tegut...,Rettistr. 3,91522, Ansbach
tegut...,Herrnstr. 26,90763, Fürth
tegut...,Gustav-Schickedanz-Str. 2,90762, Fürth
tegut...,Nürnberger Str. 7,91052, Erlangen-Innenstadt
tegut...,Lange Zeile 61,91054, Erlangen
tegut...,Ullstädter Str. 8,91474, Langenfeld
tegut...,Bamberger Str. 18,96114, Hirschaid
tegut...,Ludwigstr. 25,96052, Bamberg
tegut...,Michelinstr. 142,96103, Hallstadt
tegut...,Würzburger Str. 45,97246, Eibelstadt
tegut...,Schleifweg 9,97084, Würzburg-Rottenbauer
tegut...,Schallfelder Str. 38,97447, Gerolzhofen
tegut...,Zeppelinstr. 122,97074, Würzburg-Frauenland
tegut...,Virchowstr. 2,97072, Würzburg-Sanderau
tegut...,Am Zehnthügel 2,97230, Estenfeld
tegut...,Frankfurter Str. 18,97082, Würzburg-Zellerau
tegut...,Lachenbrunnweg 1,97509, Kolitzheim
tegut...,Gadheimer Str. 1a,97080, Würzburg
tegut...,Erlabrunner Str. 36,97276, Margetshöchheim
tegut...,Rathausstr. 33,97274, Leinach
tegut...,Ludwig-Grobe-Str. 3,97453, Schonungen
tegut...,Schelmsrasen 4-6,97421, Schweinfurt-Innenstadt
tegut...,Segnitzstr. 4,97422, Schweinfurt
tegut...,Gretel-Baumbach-Str. 8,97424, Schweinfurt-Niederwerrn
tegut...,Luitpoldstr. 17,97828, Marktheidenfeld
tegut...,Karchestr. 12,96450, Coburg
tegut...,Im Büttnerstrich 4,97456, Dittelbrunn
tegut...,Neustadter Str. 9,96450, Coburg
tegut...,Kronacher Str. 9,96472, Rödental
tegut...,Bodelschwinghstr. 1,97753, Karlstadt
tegut...,Hofwiese 6,96524, Föritztal
tegut...,Rödelsweg 255a,98663, Heldburg
tegut...,Bahnhofsallee 6,96528, Frankenblick
tegut...,Ludwigstr. 9,97816, Lohr a. Main
tegut...,Hindenburgstr. 26,97631, Bad Königshofen i. Grabfeld
tegut...,Riedgraben 4-6,97688, Bad Kissingen-Garitz
tegut...,Mühlweg 4,97720, Nüdlingen
tegut...,Waldstr. 3,96528, Schalkau
tegut...,Würzburger Str. 75,97737, Gemünden
tegut...,Hauptstr. 63,97633, Saal a.d.Saale
tegut...,Im See 1,97846, Partenstein
tegut...,Saalestr. 2,97616, Bad Neustadt a. d. Saale
tegut...,Veitsberg Am Hohn 8,97618, Hohenroth
tegut...,Meininger Str. 32,98631, Römhild
tegut...,Meininger Str. 32,98630, Römhild
tegut...,Thomas-Mann-Str. 1,97616, Bad Neustadt a.d.Saale
tegut...,Birkenweg 14,97775, Burgsinn
tegut...,Probstzellaer Str. 21,98743, Gräfenthal
tegut...,Gabeler Str. 1a,98667, Schönbrunn
tegut...,Plettenberger Weg 17,98553, Schleusingen
tegut...,Schwarzburger Str. 14,98746, Katzhütte
tegut...,Meininger Str. 1a,98631, Grabfeld
tegut...,Meininger Str. 6,98660, Themar
tegut...,Gänsrain 1,97769, Bad Brückenau
tegut...,Oberwaldbehrunger Str. 20a,97656, Oberelsbach
tegut...,Berkerserstr. 31,98617, Meiningen-Dreissigacker
tegut...,Linsenhofer Str. 63,98529, Suhl
tegut...,Landsberger Str. 2,98617, Meiningen
tegut...,Margarethenstr. 9,98704, Langewiesen
tegut...,Utendorfer Str. 31,98617, Meiningen
tegut...,Fritz-Aßmuss-Str. 16,98639, Walldorf
tegut...,Mühlstr. 52,98547, Viernau
tegut...,Gräfenrodaer Str. 7,98559, Oberhof
tegut...,Marktplatz 13,99885, Ohrdruf
tegut...,Wachsenburgstr. 99,99334, Ichtershausen
tegut...,Am Sportplatz 22,99869, Drei Gleichen
tegut...,Rainer-Maria-Rilke-Str. 41,99425, Weimar
tegut...,Ibenhainer Str. 65,99880, Waltershausen
tegut...,Eichendorffstr. 27,99096, Erfurt
tegut...,Damaschkestr. 1,99425, Weimar
tegut...,Häßler Str. 6-8a,99096, Erfurt
tegut...,Gorkistr. 11,99084, Erfurt
tegut...,Weimarer Str. 120b,99867, Gotha
tegut...,Neuwerkstr. 3,99084, Erfurt
tegut...,Leinastr. 78,99867, Gotha
tegut...,Anger 74,99084, Erfurt
tegut...,Marktstr. 28-31,99084, Erfurt
tegut...,Bergener Str. 18,99092, Erfurt
tegut...,Barfüsserstr. 1,99817, Eisenach
tegut...,Nordplatz 20,99817, Eisenach
tegut...,Bahnhofstr. 9,99100, Dachwig
tegut...,Anger 55,99955, Herbsleben
tegut...,Marktstr. 25,99947, Bad Langensalza
tegut...,Bahnhofstr. 35,99831, Amt Creuzburg
tegut...,Schornstr. 2,99831, Amt Creuzburg
tegut...,Langensalzaer Landstr. 25,99974, Mühlhausen-Süd
tegut...,Beethovenstr. 9,99706, Sondershausen
tegut...,Str. der Einheit 105,99752, Bleicherode
tegut...,str. der Opfer des Fasch. 44,99734, Nordhausen-Salza
