Name,Street,Zip Code,Address
HIT Leipzig,Str. Des 18. Oktober 44,4103, Leipzig
HIT Schwerin-Görries,Am Fasanenhof 7,19061, Schwerin
HIT Hann.Münden,Auefeld 9,34346, Hann. Münden
HIT Hildesheim,Rex-Brauns-Str. 5-7,31139, Hildesheim-Ochtersum
HIT Rheda-Wiedenbrück,Feldhüserweg 1,33378, Rheda-Wiedenbrück
HIT Bad Salzuflen,Schloßstr. 36a,32108, Bad Salzuflen
HIT Dormagen,Lübecker Str. 1,41540, Dormagen-Horrem
HIT Warendorf,Splieterstr. 23,48231, Warendorf
HIT Mönchengladbach-Rheydt,Dahlener Str. 171,41239, Mönchengladbach-Rheydt-West
HIT Mönchengladbach,Rudolfstr. 43,41068, Mönchengladbach
HIT,Bahnhofstr. 122-124,41844, Wegberg
HIT Münster,Geringhoffstr. 44,48163, Münster
HIT Schwalmtal-Amern,Siemensstr. 1,41366, Schwalmtal
HIT Koblenz,Schlachthofstr. 66,56073, Koblenz
HIT Hachenburg,Adolf Münch Weg 1,57627, Hachenburg
HIT,Adolf Münch Weg 1,57672, Hachenburg
HIT Andernach,Erfurter Str. 4-6,56626, Andernach
HIT Bad Berleburg,Bahnhofstr. 8,57319, Bad Berleburg
HIT Mayen,Hausener Str. 2-6,56727, Mayen
HIT Freudenberg,Krottorfer Str. 2,57258, Freudenberg
HIT Schmallenberg,Poststr. 6,57392, Schmallenberg
HIT Wenden,Peter-Dassis-Ring 2,57482, Wenden
HIT Daun,Mehrener Str. 23a,54550, Daun
HIT,Bahnhofstr. 3,54550, Daun
HIT Lennestadt,Gartenstr. 8,57368, Lennestadt
HIT Bad Honnef,Berck-sur-Mer-Str. 1,53604, Bad Honnef
HIT Bad Neuenahr-Ahrweiler,Wilhelmstr. 50-52,53474, Bad Neuenahr-Ahrweiler
HIT Olsberg,Fruges Str. 1,59939, Olsberg
HIT Brilon,Hasselborn 44,59929, Brilon
HIT Bonn-Bad Godesberg,Drachenburgstr. 14,53179, Bonn
HIT Hennef,Adenauerplatz 2,53773, Hennef
HIT Gerolstein,Sarresdorfer Str. 87,54568, Gerolstein
HIT Meschede,Jahnstr. 58,59872, Meschede
HIT Gummersbach,Kölner Str. 223,51645, Gummersbach
HIT Meckenheim,Neuer Markt 1,53340, Meckenheim
HIT Sankt Augustin,Alte Heerstr. 53,53757, Sankt Augustin
HIT Siegburg,Industriestr. 29,53721, Siegburg
HIT,Waskebieke 4,58840, Plettenberg
HIT Rheinbach,Meckenheimer Str. 8,53359, Rheinbach
HIT Meinerzhagen,Volmestr. 58,58540, Meinerzhagen
HIT,Im Grengel,51766, Engelskirchen
HIT Marienheide,Bahnhofstr. 21,51709, Marienheide
HIT Troisdorf-Sieglar,Spicher Str. 101,53844, Troisdorf-Rotter See
HIT Overath,Propsteistr. 20,51491, Overath
HIT Prüm,Kalvarienbergstr. 37-41,54595, Prüm
HIT Niederkassel-Rheidt,Marktstr. 109,53859, Niederkassel
HIT Overath-Untereschbach,Olper Str. 20,51491, Overath
HIT Euskirchen,Roitzheimer Str. 117,53879, Euskirchen
HIT Lüdenscheid,Glatzer Str. 1,58511, Lüdenscheid
HIT Köln Porz,Marienburger Str. 1,51145, Köln Porz-Urbach-Urbach
HIT Euskirchen,Georgstr. 22,53879, Euskirchen
HIT,Lessingstr. 1-3,50321, Brühl-Pingsdorf
HIT Köln-Reiterstaffel,Reiterstaffelplatz 1,50968, Köln-Marienburg
HIT Soest,Am Bahnhof 2,59494, Soest
HIT Leverkusen-Schlebusch,Gezelinallee 17-19,51375, Leverkusen
HIT Köln-Braunsfeld,Scheidtweilerstr. 83-87,50933, Köln
HIT Frechen,Dürener Str. 52,50226, Frechen
HIT,Kerpener Str. 157/163,50170, Kerpen-Sindorf
HIT Bergheim,Kölnerstr. 31,50126, Bergheim
HIT,Kölner Str. 16,50126, Bergheim-Kenten
HIT,Am Jobberath 2,50126, Bergheim
HIT Eschweiler,Dürener Str. 200,52249, Eschweiler
HIT Aachen-Tivoli,Krefelder Str. 199,52070, Aachen
HIT Aachen,Schurzelter Str. 565-569,52074, Aachen
HIT,Bergstr. 49-57,69469, Weinheim
HIT Bad Dürkheim,Bruchstr. 7,67098, Bad Dürkheim
HIT,Köningsberger Str. 2,63179, Obertshausen
HIT,Liebigstraße 1,63225, Langen
HIT Büdingen,An Der Saline 18,63654, Büdingen
HIT Offenbach,Sprendlinger Landstr. 140,63069, Offenbach am Main
HIT Eisenberg,Konrad-Adenauer-Str. 1,67304, Eisenberg
HIT Frankfurt-Sachsenhausen,Mörfelder Landstr. 129,60598, Frankfurt
HIT Kirchheimbolanden,Hitzfeldstr. 1,67292, Kirchheimbolanden
HIT,Nordenstädter Straße 33,65239, Hochheim
HIT Bad Homburg,Frankfurter Landstr. 1,61352, Bad Homburg
HIT Mainz-Kostheim,Hochheimer Str. 35,55246, Mainz-Kostheim
HIT Wiesbaden,Hasengartenstr. 25,65189, Wiesbaden
HIT Idstein,Wiesbadener Str. 58,65510, Idstein
HIT Stuttgart,Karlstr. 4,70173, Stuttgart
HIT Bietigheim-Bissingen,Mühlwiesenstr. 27,74321, Bietigheim-Bissingen-Bietigheim
HIT Mühlacker-Enzberg,Kanalstr. 46,75417, Mühlacker-Enzberg-Enzberg
HIT Karlsruhe,Eichelbergstr. 34,76189, Karlsruhe
HIT,Rosenheimer Str. 30/32,81669, München-Haidhausen-Au-Haidhausen
HIT München Giesing,Giesinger Bahnhofplatz 1a,81539, München
HIT München-Laim,Elsenheimerstr. 57,80687, Muenchen-Laim
HIT München-Fasangarten,Auguste-Kent-Platz 2,81549, München
HIT München-Trudering,Truderinger Str. 272,81825, München
HIT München-Moosach,Am Neubruch 7,80997, München
HIT München-Pasing,Pasinger Bahnhofsplatz 5,81241, München
HIT Oberschleißheim,Mittenheimer Str. 52,85764, Oberschleißheim
HIT Parsdorf,Am Lerchenfeld 3,85599, Parsdorf
HIT Erding,Rudolf-Diesel-Str. 4,85435, Erding
HIT Aichach,Franz-Beck-Str. 3,86551, Aichach
