Name,Street,Zip Code,Address
ALDI Nord,Oelsnitzer Str. 60z,8626, Adorf/Vogtl.
ALDI Nord,Willy-Brandt-Ring 2,8606, Oelsnitz/Vogtl.
ALDI Nord,Neundorfer Str. 188,8523, Plauen
ALDI Nord,Äußere Reichenbacher Str. 64,8529, Plauen
ALDI Nord,Ferdinand-Lassalle-Str. 21,8223, Falkenstein
ALDI Nord,Alte Jößnitzer Str. 30,8525, Plauen
ALDI Nord,Bahnhofstr. 15a,8209, Auerbach/Vogtl.
ALDI Nord,Austeg 3,7907, Schleiz
ALDI Nord,Mittlerer Watzenbach 27,7318, Saalfeld
ALDI Nord,Am Kuchenhaus 12,8321, Zschorlau
ALDI Nord,Braustr. 1,8499, Mylau
ALDI Nord,Roter Mühlenweg 28,8340, Schwarzenberg/Erzgeb.
ALDI Nord,Meinersdorfer Str. 8,7937, Zeulenroda
ALDI Nord,Reichenbacher Str. 105,7973, Greiz
ALDI Nord,Zwickauer Str. 324,8468, Reichenbach im Vogtland
ALDI Nord,Lengenfelder Str. 41,8107, Kirchberg
ALDI Nord,Saalfelder Str. 29,7381, Pößneck
ALDI Nord,Bruno-Dost-Str. 39,8289, Schneeberg
ALDI Nord,Anne-Frank-Str. 1,7407, Rudolstadt
ALDI Nord,Lößnitzer Str. 20,8280, Aue
ALDI Nord,Oststr. 31-33,7407, Rudolstadt
ALDI Nord,Am Kreuzberg 69,8064, Zwickau
ALDI Nord,Oberwiesenthaler Weg 6,9456, Annaberg-Buchholz
ALDI Nord,Triptiser Str. 12a,7806, Neustadt an der Orla
ALDI Nord,Muldestr. 55,8056, Zwickau
ALDI Nord,Wehrgasse 1b,8297, Zwönitz
ALDI Nord,Gewerbering,9456, Annaberg-Buchholz
ALDI Nord,Uferstr. 3,8412, Werdau
ALDI Nord,Marienthaler Str. 8,8060, Zwickau
ALDI Nord,Lerchenweg 3,8066, Zwickau
ALDI Nord,Am Schafberge 2,7570, Weida
ALDI Nord,Angerstr. 21,8058, Zwickau
ALDI Nord,Chemnitzer Str. 52,9427, Ehrenfriedersdorf
ALDI Nord,Lutherstr. 15,9366, Stollberg
ALDI Nord,Hedwigschachtstr. 1,9376, Oelsnitz/Erzgeb.
ALDI Nord,Johann-Ehrenfried-Wagner-Str. 9,9496, Marienberg
ALDI Nord,Chemnitzer Str. 1,9385, Lugau
ALDI Nord,Meinersdorfer Str. 6,9390, Gornsdorf
ALDI Nord,Otto-Rothe-Str. 26,7549, Gera
ALDI Nord,Platanenstr. 4,9356, St. Egidien
ALDI Nord,Parkhausstr. 2,8451, Crimmitschau
ALDI Nord,Jenaer Str. 11,7646, Stadtroda-Podelsatz
ALDI Nord,Im Gewerbegebiet 10,9355, Gersdorf
ALDI Nord,Braustr. 13,7551, Gera
ALDI Nord,Salvador-Allende-Platz 25,7747, Jena
ALDI Nord,Goetheweg 30,8371, Glauchau
ALDI Nord,Hinter dem Südbahnhof 1,7548, Gera
ALDI Nord,Grenayer Str. 10c,8371, Glauchau
ALDI Nord,Oßmaritzer Str. 1a,7745, Jena
ALDI Nord,Guteborner Allee 3,8393, Meerane-Waldsachsen
ALDI Nord,Dörfelstr. 3,9526, Olbernhau
ALDI Nord,Dornaer Str. 4,7545, Gera
ALDI Nord,Dresdner Str. 151,9337, Hohenstein-Ernstthal
ALDI Nord,Erich-Weinert-Str. 45,7629, Hermsdorf
ALDI Nord,Waldkirchener Str. 15-17a,9405, Zschopau
ALDI Nord,Wladimir-Sagorski-Str. 22,9122, Chemnitz-Morgenleite
ALDI Nord,Leutragraben 1,7743, Jena-Zentrum
ALDI Nord,Dr.-Salvador-Allende-Str. 1,9119, Chemnitz
ALDI Nord,Bergstr. 18,4626, Schmölln
ALDI Nord,Hermann-Pöge-Str. 2,9120, Chemnitz
ALDI Nord,Altenburger Str. 1,7743, Jena
ALDI Nord,Zwickauer Str. 247,9116, Chemnitz
ALDI Nord,Heinrich-Lorenz-Str. 39,9120, Chemnitz
ALDI Nord,Zschopauer Str. 244,9126, Chemnitz
ALDI Nord,Waldenburger Str. 33,9116, Chemnitz
ALDI Nord,Saasaer Str. 1k,7607, Eisenberg
ALDI Nord,Theaterstr. 7,9111, Chemnitz
ALDI Nord,Limbacher Str. 81,9243, Niederfrohna
ALDI Nord,Heinrich-Schütz-Str. 55,9130, Chemnitz
ALDI Nord,Bornaer Str. 148,9114, Chemnitz
ALDI Nord,Augustusburger Str. 75,9557, Flöha
ALDI Nord,str. der Deutschen Einheit 2-4,9217, Burgstädt
ALDI Nord,Altenburger Str. 29,4603, Nobitz
ALDI Nord,Offenburger Allee 15,4600, Altenburg
ALDI Nord,Freiberger Str. 31,9569, Oederan
ALDI Nord,Käthe-Niederkirchner-Str. 60,6712, Zeitz
ALDI Nord,Badstr. 2a,9669, Frankenberg
ALDI Nord,Altenburger Str. 71,4610, Meuselwitz
ALDI Nord,Donaliesstr. 51,6712, Zeitz
ALDI Nord,Großhartmannsdorfer Str. 9a,9618, Brand-Erbisdorf
ALDI Nord,Chemnitzer Str. 28E,9648, Mittweida
ALDI Nord,Olbernhauer Str. 72,9599, Freiberg
ALDI Nord,Colditzer Str. 6,4643, Geithain
ALDI Nord,Dresdner Str. 31d,9599, Freiberg
ALDI Nord,Kastanienring 2,9661, Hainichen
ALDI Nord,Franz-Julius-Höltz-Str. 3,6618, Naumburg
ALDI Nord,Geithainer Str. 21,9306, Rochlitz
ALDI Nord,Bahnhofstr. 39,6618, Naumburg
ALDI Nord,Lobstädter Str. 25,4552, Borna
ALDI Nord,Lützener Str. 16,6679, Hohenmölsen
ALDI Nord,Oststr. 3a,4552, Borna
ALDI Nord,Schusterstr. 1,4539, Groitzsch
ALDI Nord,Am Marktweg 2,6667, Leißling
ALDI Nord,Selauer Str. 65,6667, Weißenfels
ALDI Nord,Gewerbering 5,1744, Reinholdshain
ALDI Nord,Merseburger Str. 142,6667, Weißenfels
ALDI Nord,Friedhofsweg 2,6632, Freyburg
ALDI Nord,Fabrikstr. 3,1683, Nossen
ALDI Nord,Colditzer Str. 39,4703, Leisnig
ALDI Nord,Dresdner Str. 258,1705, Freital
ALDI Nord,Grimmaische Str. 67,4720, Döbeln
ALDI Nord,Koburger Str. 181,4416, Markkleeberg
ALDI Nord,Gerichtswiesen 39,4668, Grimma
ALDI Nord,Meißner Str. 30b,1723, Wilsdruff
ALDI Nord,Lange Str. 26,4668, Grimma
ALDI Nord,Bornaer Chaussee 2,4416, Markkleeberg
ALDI Nord,Gompitzer Höhe 5a,1156, Dresden
ALDI Nord,Leipziger Str. 34,4420, Markranstädt
ALDI Nord,Friederikenstr. 25,4279, Leipzig
ALDI Nord,Gerhard-Ellrodt-Str. 30,4249, Leipzig
ALDI Nord,Str. Am See 1,4207, Leipzig
ALDI Nord,Fritz-Meinhardt-Str. 5,1239, Dresden
ALDI Nord,Str. des Friedens 100,6217, Merseburg
ALDI Nord,Rottwerndorfer Str. 41,1796, Pirna
ALDI Nord,Kesselsdorfer Str. 158,1169, Dresden
ALDI Nord,Bulgakowstr. 5,1217, Dresden
ALDI Nord,Siegfried-Rädel-Str. 3,1809, Heidenau
ALDI Nord,Tharandter Str. 40,1159, Dresden
ALDI Nord,Erdmannshainer Str. 67,4683, Naunhof
ALDI Nord,Struppener Str. 2a,1796, Pirna
ALDI Nord,Chemnitzer Str. 28,1187, Dresden
ALDI Nord,Bockstr. 1-3,4289, Leipzig
ALDI Nord,Reicker Str. 97,1237, Dresden
ALDI Nord,Ludwigsburger Str. 9,4209, Leipzig
ALDI Nord,Uhlandstr. 5,1069, Dresden
ALDI Nord,Klingenstr. 38a,4229, Leipzig
ALDI Nord,Pirnaer Landstr. 196,1257, Dresden
ALDI Nord,Rudolf-Renner-Str. 41A,1796, Pirna
ALDI Nord,Arthur-Hoffmann-Str. 113,4275, Leipzig
ALDI Nord,Raimundstr. 1-3,1157, Dresden
ALDI Nord,Holzhäuser Str. 108,4299, Leipzig
ALDI Nord,Nonnenstr. 13/15,4229, Leipzig
ALDI Nord,Braustr. 26,4107, Leipzig
ALDI Nord,Webergasse 1,1067, Dresden-Innere Altstadt
ALDI Nord,Am Einkaufszentrum,6254, Leuna
ALDI Nord,Enderstr. 59,1277, Dresden
ALDI Nord,Bahnhofstr. 1-3,6567, Bad Frankenhausen
ALDI Nord,Schönfelder Str. 4,6556, Artern/Unstrut
ALDI Nord,Straßburger Platz 1,1307, Dresden
ALDI Nord,Kleinzschachwitzer Ufer 3,1259, Dresden
ALDI Nord,Löwenhainer Str. 2,1279, Dresden
ALDI Nord,Vor dem Nebraer Tor 5,6268, Querfurt
ALDI Nord,Kollenbeyer Weg 2e,6217, Merseburg
ALDI Nord,Windmühlenstr. 31,4107, Leipzig
ALDI Nord,Merseburger Str. 255,4178, Leipzig
ALDI Nord,Eilenburger Str. 55,4317, Leipzig
ALDI Nord,Glashütter Str. 87,1277, Dresden
ALDI Nord,Elsterstr. 51-57,4109, Leipzig
ALDI Nord,Georg-Schwarz-Str. 92-96,4179, Leipzig
ALDI Nord,Pfotenhauerstr. 7,1307, Dresden
ALDI Nord,Querfurter Str. 4,6217, Merseburg
ALDI Nord,Antonstr. 2a,1097, Dresden
ALDI Nord,Willy-Brandt-Platz 3-7,4109, Leipzig-Zentrum
ALDI Nord,Heinrich-Heine-Str. 39,4178, Leipzig
ALDI Nord,Lommatzscher Str. 1c,1139, Dresden
ALDI Nord,Konradstr. 27,4315, Leipzig
ALDI Nord,Weinböhlaer Str. 9,1445, Radebeul
ALDI Nord,Riesaer Str. 30,4328, Leipzig
ALDI Nord,Hugo-Aurig-Str. 7A,4319, Leipzig
ALDI Nord,Neumarkt 42,1662, Meißen
ALDI Nord,Meißner Str. 49,1445, Radebeul
ALDI Nord,Salzstr. 7,1640, Coswig
ALDI Nord,Elsbethstr. 25,4155, Leipzig
ALDI Nord,Löbauer Str. 68-70,4347, Leipzig
ALDI Nord,Döbelner Str. 132,1129, Dresden
ALDI Nord,Goldsternstr. 58,4329, Leipzig
ALDI Nord,Fabrikstr. 14a,1662, Meißen
ALDI Nord,Delitzscher Str. 61,4129, Leipzig
ALDI Nord,Georg-Schumann-Str. 363,4159, Leipzig
ALDI Nord,Bautzner Landstr. 149,1324, Dresden
ALDI Nord,Max-Liebermann-Str. 19F,4157, Leipzig
ALDI Nord,Merseburger Str. 25,4435, Schkeuditz
ALDI Nord,Tauchaer Str. 10,4357, Leipzig
ALDI Nord,Leipziger Str. 104,4425, Taucha
ALDI Nord,Gartenallee 4,4827, Machern
ALDI Nord,Travemünder Str. 1,1109, Dresden
ALDI Nord,Merseburger Str. 388,6132, Halle
ALDI Nord,Handelsstr. 4-8,4356, Leipzig-Seehausen
ALDI Nord,Nossener Str. 5,4758, Oschatz
ALDI Nord,Filderstädter Str. 5a,4758, Oschatz
ALDI Nord,Dresdner Str. 60,4808, Wurzen
ALDI Nord,Schandauer Str. 86,1855, Sebnitz
ALDI Nord,Kaiserslauterer Str. 65,6128, Halle
ALDI Nord,Schraplauer Straße,6317, Röblingen am See
ALDI Nord,Nischwitzer Breite 1,4808, Wurzen
ALDI Nord,Leipziger Chaussee 147,6112, Halle
ALDI Nord,An der Lauchstädter Str. 3,6179, Teutschenthal
ALDI Nord,Beesener Str. 225,6110, Halle
ALDI Nord,Hallesche Str. 69,6536, Roßla
ALDI Nord,Riesapark 2,1587, Riesa
ALDI Nord,Oststr. 02,6526, Sangerhausen
ALDI Nord,Bennstedter Str. 22,6126, Halle
ALDI Nord,Neustädter Passage 17,6122, Halle
ALDI Nord,An der Ziegelei 2,1454, Radeberg
ALDI Nord,Sebnitzer Str. 41,1844, Langburkersdorf
ALDI Nord,Blücherstr. 36,6120, Halle
ALDI Nord,Hermesstr. 07,6114, Halle
ALDI Nord,Hallesche Str. 224c,6295, Eisleben
ALDI Nord,Großenhainer Str. 39a,1471, Radeburg
ALDI Nord,Dölauer Str. 80,6120, Halle
ALDI Nord,Bergstr. 32,4838, Eilenburg
ALDI Nord,Saarbrücker Str. 01,6188, Peissen
ALDI Nord,Trothaer Str. 42,6118, Halle
ALDI Nord,Str. der Einheit 15,6198, Salzatal
ALDI Nord,Teninger Str. 5,1619, Zeithain
ALDI Nord,Dresdner Str. 33,1558, Großenhain
ALDI Nord,Gerbstedter Str. 5,6295, Eisleben
ALDI Nord,Pulsnitzer Straße16,1900, Großröhrsdorf
ALDI Nord,Eisenbahnstr. 25,4509, Delitzsch
ALDI Nord,Am Güterbahnhof 2,1877, Bischofswerda
ALDI Nord,Auf der Spitze 2,6308, Klostermansfeld
ALDI Nord,Birkenweg 02,1936, Königsbrück
ALDI Nord,Spreequellstr. 6,2727, Neugersdorf
ALDI Nord,Dresdner Str. 42,2763, Zittau
ALDI Nord,Leipziger Str. 35,2763, Zittau
ALDI Nord,Zittauer Str. 12,2681, Wilthen
ALDI Nord,Bautzener Str. 7a,2736, Oppach
ALDI Nord,Hauptstr. 10,1609, Gröditz
ALDI Nord,Brehnaer Str. 34,6749, Bitterfeld
ALDI Nord,Stolberger Str. 25A,6493, Harzgerode
ALDI Nord,Radegaster Str. 63,6780, Zörbig
ALDI Nord,Ascherslebener Str. 01,6425, Alsleben
ALDI Nord,Über der Heckerlingsbreite 19,6333, Hettstedt
ALDI Nord,Mühlstr. 13,6749, Bitterfeld-Wolfen
ALDI Nord,Postweg 16,4849, Bad Düben
ALDI Nord,Zum Großen Teich 1,4860, Torgau
ALDI Nord,Uferstr. 4,1917, Kamenz
ALDI Nord,Bernburger Str. 18,6420, Könnern
ALDI Nord,Elbstr. 14,4860, Torgau
ALDI Nord,Dresdner Str. 49d,2625, Bautzen
ALDI Nord,Stieberstr. 53,2625, Bautzen
ALDI Nord,Lauchhammer Str. 60,4910, Elsterwerda
ALDI Nord,Ahornallee 2,2708, Löbau
ALDI Nord,Gesundbrunnenring 4,2625, Bautzen
ALDI Nord,Dessauer Allee 53,6766, Bitterfeld-Wolfen
ALDI Nord,Nordring 11b,4924, Bad Liebenwerda
ALDI Nord,Eislebener Str. 3,6449, Aschersleben
ALDI Nord,Konrad-Adenauer-Allee 3,6366, Köthen
ALDI Nord,Magdeburger Str. 17,6449, Aschersleben
ALDI Nord,Schlachthofstr. 1,6366, Köthen
ALDI Nord,Otto-Schönermark-Str. 2,6502, Thale
ALDI Nord,R.-Luxemburg-Str. 47,6773, Gräfenhainichen
ALDI Nord,Schipkauer Str. 13,1987, Schwarzheide
ALDI Nord,Zepziger Weg 4,6406, Bernburg
ALDI Nord,Neinstedter Feldweg 1,6484, Quedlinburg
ALDI Nord,Karlstr. 1,6406, Bernburg
ALDI Nord,Friedensstr. 8,2991, Lauta
ALDI Nord,Zunftstr. 17,6847, Dessau-Roßlau
ALDI Nord,Franzstr. 159,6842, Dessau-Roßlau
ALDI Nord,Dresdner Str. 1,4916, Herzberg
ALDI Nord,Reichenbacher Str. 106,2827, Görlitz
ALDI Nord,Kühnauer Str. 25,6846, Dessau-Roßlau
ALDI Nord,Ziolkowskistr. 18,2977, Hoyerswerda
ALDI Nord,Teschenstr. 1,2977, Hoyerswerda
ALDI Nord,Gerberstr. 16-23,3253, Doberlug-Kirchhain
ALDI Nord,Albert-Einstein-Str. 1a,2977, Hoyerswerda
ALDI Nord,Bahnhofstr. 38,1968, Senftenberg
ALDI Nord,Emmerichstr. 33-35,2826, Görlitz
ALDI Nord,Roßlauer Allee 4,6844, Dessau-Roßlau
ALDI Nord,Pontestr. 10,2826, Görlitz
ALDI Nord,Nieskyer Str. 100,2828, Görlitz
ALDI Nord,Berliner Str. 20B,3238, Finsterwalde
ALDI Nord,Gewerbepark 2,6917, Jessen (Elster)
ALDI Nord,Magdeburger Str. 38a,6862, Dessau-Roßlau
ALDI Nord,Dessauer Str. 3-4,6886, Lutherstadt Wittenberg
ALDI Nord,Horkaer Str. 17,2906, Niesky
ALDI Nord,IFA-Park 2,1983, Großräschen
ALDI Nord,Marktstr. 4,6888, Mühlanger
ALDI Nord,Berliner Chaussee 75,6886, Lutherstadt Wittenberg
ALDI Nord,Grünstr. 3,3130, Spremberg
ALDI Nord,Berliner Str. 106,2943, Weißwasser/Oberlausitz
ALDI Nord,Sachsendorfer Str. 5,3058, Cottbus
ALDI Nord,Berliner Str. 114b,3099, Kolkwitz
ALDI Nord,Welzower Str. 26a,3048, Cottbus
ALDI Nord,Karl-Liebknecht-Str. 81,3046, Cottbus
ALDI Nord,Am Kaufland 3,3222, Lübbenau
ALDI Nord,Willy-Brandt-Str. 19a,3050, Cottbus
ALDI Nord,Stadtring 8,3042, Cottbus
ALDI Nord,Limberger Str. 1,3044, Cottbus
ALDI Nord,Cottbuser Str. 92,3149, Forst (Lausitz)
ALDI Nord,Berliner Str. 19,15926, Luckau
ALDI Nord,Promenade,14913, Jüterbog
ALDI Nord,Parkstr. 2,15907, Lübben
ALDI Nord,Beelitzer Str. 15-19,14943, Luckenwalde
ALDI Nord,Rudolf-Breitscheid-Str. 27,15837, Baruth
ALDI Nord,Clara-Zetkin-Str. 36a,14547, Beelitz
ALDI Nord,Teupitzer Str. 1,15755, Schwerin
ALDI Nord,Str. der Jugend 173,15806, Zossen
ALDI Nord,Luckenwalder Str. 2,14552, Michendorf
ALDI Nord,Brandenburgische Str. 1,14974, Ludwigsfelde
ALDI Nord,Hauptstr. 45,15741, Bestsensee
ALDI Nord,Geschwister-Scholl-Str. 30,14776, Brandenburg
ALDI Nord,Apfelweg 4,14542, Werder
ALDI Nord,Arthur-Scheunert-Allee 69,14558, Nuthetal
ALDI Nord,Willi-Sänger-Str. 66,14770, Brandenburg-Nord
ALDI Nord,Birkenweg 2,15834, Rangsdorf
ALDI Nord,Zeppelinstr. 119,14471, Potsdam-Potsdam West
ALDI Nord,Blankenfelder Dorfstr. 65,15827, Blankenfelde
ALDI Nord,Weidendamm 2,14482, Potsdam
ALDI Nord,Großbeerenstr. 215/219,14480, Potsdam
ALDI Nord,Luckenwalder Str. 6,15711, Königs Wusterhausen
ALDI Nord,Iris-Hahs-Hoffstetter-Str. 1,15712, Königs Wusterhausen-Zernsdorf-Zernsdorf
ALDI Nord,Gewerbeparkstr. 4,15745, Wildau
ALDI Nord,Potsdamer Str. 177,14469, Potsdam-Bornstedt
ALDI Nord,Berliner Str. 47-48,14467, Potsdam-Berliner Vorstadt
ALDI Nord,Goethestr. 2,15859, Storkow
ALDI Nord,Am Lückefeld 88,15831, Mahlow
ALDI Nord,Saganer Str. 9,14513, Teltow
ALDI Nord,Fürstenwalder Str. 10b,15848, Beeskow
ALDI Nord,Friedrich-Engels-Str. 79,15745, Wildau
ALDI Nord,Georg-Hermann-Allee 145,14469, Potsdam-Bornstedt
ALDI Nord,Mahlower Str. 179,14513, Teltow
ALDI Nord,Förster-Funke-Allee 104,14532, Kleinmachnow
ALDI Nord,Königstr. 56/57,14109, Berlin-Wannsee
ALDI Nord,Teltower Damm 281,14167, Berlin-Lichterfelde
ALDI Nord,Zescher Str. 3-5,12307, Berlin-Lichtenrade
ALDI Nord,Potsdamer Chaussee 33,14129, Berlin-Nikolassee
ALDI Nord,Am Pechpfuhl 8,12529, Schönefeld
ALDI Nord,Ernst-Thälmann-Str. 124,15732, Schulzendorf
ALDI Nord,Töpchiner Weg 193,12309, Berlin-Lichtenrade
ALDI Nord,Hildburghauser Str. 248,12207, Berlin-Lichterfelde
ALDI Nord,Hildburghauser Str. 3,12279, Berlin-Marienfelde
ALDI Nord,Breisgauer Str. 1b,14129, Berlin
ALDI Nord,Lausanner Str. 83,12205, Berlin-Lichterfelde
ALDI Nord,Karl-Marx-Str. 36,12529, Schönefeld
ALDI Nord,Sundgauer Str. 83-85,14169, Berlin-Zehlendorf
ALDI Nord,Lankwitzer Str. 20-24,12209, Berlin-Lichterfelde
ALDI Nord,Richard-Tauber-Damm 6,12277, Berlin-Marienfelde
ALDI Nord,Alexander-Meißner-Str. 1,12526, Berlin-Bohnsdorf
ALDI Nord,Marienfelder Chaussee 29,12349, Berlin-Buckow
ALDI Nord,Wilskistr. 47b,14169, Berlin-Zehlendorf
ALDI Nord,Wilhelm-von-Siemens-Str. 13,12277, Berlin-Mariendorf
ALDI Nord,Ritterfelddamm 200,14089, Berlin-Kladow
ALDI Nord,Schönefelder Chaussee 174,12524, Berlin-Altglienicke
ALDI Nord,Unter den Eichen 97,12203, Berlin-Lichterfelde
ALDI Nord,Haynauer Str. 76-80,12249, Berlin-Lankwitz
ALDI Nord,Joachim-Gottschalk-Weg 5,12353, Berlin-Gropiusstadt
ALDI Nord,Alt-Mariendorf 16,12107, Berlin-Mariendorf
ALDI Nord,Johannisthaler Chaussee 300,12351, Berlin-Gropiusstadt
ALDI Nord,Fritz-Reuter-Allee 184,12359, Berlin-Britz
ALDI Nord,Bismarckstr. 17,12169, Berlin-Steglitz
ALDI Nord,Bergstr. 93-97,12169, Berlin-Steglitz
ALDI Nord,Buckower Damm 50,12349, Berlin-Buckow
ALDI Nord,Karl-Marx-Str. 34,15890, Eisenhüttenstadt
ALDI Nord,Wegedornstr. 29,12524, Berlin-Altglienicke
ALDI Nord,Rudower Str. 116,12351, Berlin-Buckow
ALDI Nord,Kanalstr. 8,12357, Berlin-Rudow
ALDI Nord,Röblingstr. 118-124,12105, Berlin-Tempelhof
ALDI Nord,Gutsmuthsstr. 4-5,12163, Berlin-Steglitz
ALDI Nord,Warnemünder Str. 8,14199, Berlin-Schmargendorf
ALDI Nord,Regattastr. 51-53,12527, Berlin
ALDI Nord,Tempelhofer Damm 198,12099, Berlin-Tempelhof
ALDI Nord,Am Müggelpark 41-45,15537, Gosen
ALDI Nord,Milower Landstr. 9A,14712, Rathenow
ALDI Nord,Otto-Franke-Str. 98,12489, Berlin-Adlershof
ALDI Nord,Winckelmannstr. 38-42,12487, Berlin-Johannisthal
ALDI Nord,Müggelheimer Damm 244,12559, Berlin
ALDI Nord,Späthstr. 14-15,12359, Berlin-Britz
ALDI Nord,Schöneberger Str. 28,12103, Berlin-Tempelhof
ALDI Nord,Mecklenburgische Str. 23a-24,14197, Berlin-Wilmersdorf
ALDI Nord,Wexstr. 16-18,10715, Berlin-Wilmersdorf
ALDI Nord,Hoeppnerstr. 3-13,12101, Berlin-Tempelhof
ALDI Nord,Silbersteinstr. 146,12051, Berlin
ALDI Nord,Müggelheimer Str. 36,12555, Berlin
ALDI Nord,Karl-Marx-Str. 231,12055, Berlin
ALDI Nord,Alte Langewahler Chaussee 4,15517, Fürstenwalde
ALDI Nord,Am Markt 3,14641, Wustermark
ALDI Nord,Hermannstr. 72,12049, Berlin
ALDI Nord,Kaiser-Wilhelm-Platz 2,10827, Berlin
ALDI Nord,Artilleriepark 2,14624, Dallgow-Döberitz
ALDI Nord,Grenzallee 4L,12057, Berlin
ALDI Nord,Prager Platz 1-3,10779, Berlin-Wilmersdorf
ALDI Nord,Heilbronner Str. 26A,10711, Berlin
ALDI Nord,Köpenicker Landstr. 296,12437, Berlin
ALDI Nord,Heerstr. 332,13593, Berlin-Wilhelmstadt
ALDI Nord,Kreuzbergstr. 39,10965, Berlin
ALDI Nord,Karl-Marx-Str. 92-98,12043, Berlin
ALDI Nord,Müggelseedamm 150,12587, Berlin-Friedrichshagen
ALDI Nord,Theodor-Heuss-Platz 7,14052, Berlin-Westend
ALDI Nord,Rummelsburger Str. 16,12459, Berlin
ALDI Nord,Hasenheide 108,10967, Berlin-Kreuzberg
ALDI Nord,Elcknerplatz 8,12555, Berlin
ALDI Nord,Fürstenwalder Allee 326,12589, Berlin-Rahnsdorf
ALDI Nord,Leibnizstr. 73,10625, Berlin-Charlottenburg
ALDI Nord,Rudolf-Breitscheid-Str. 36,14712, Rathenow
ALDI Nord,Kiefholzstr. 49,12435, Berlin-Alt-Treptow
ALDI Nord,Julius-Rütgers-Str. 1,15537, Erkner
ALDI Nord,Brunsbütteler Damm 201-203,13581, Berlin-Spandau
ALDI Nord,Liberdastr. 5,12047, Berlin
ALDI Nord,Charlottenburger Chaussee 30,13597, Berlin-Spandau
ALDI Nord,Verlängerte Waldowallee 44,10318, Berlin-Karlshorst
ALDI Nord,Fürstenbrunner Weg 50,14059, Berlin-Westend
ALDI Nord,Ehrenfried-Jopp-Str. 57,15517, Fürstenwalde
ALDI Nord,Oranienstr. 140-142,10969, Berlin-Kreuzberg
ALDI Nord,Galenstr. 35,13597, Berlin-Spandau
ALDI Nord,- Leipziger Platz 12,10117, Berlin-Mitte
ALDI Nord,Eisenbahnstr. 42,10997, Berlin-Kreuzberg
ALDI Nord,Treseburger Str. 2,10589, Berlin-Charlottenburg
ALDI Nord,Heinrich-Heine-Platz 8-12,10179, Berlin-Mitte
ALDI Nord,Salchendorfer Weg 1,13583, Berlin
ALDI Nord,Hauptstr. 36,10317, Berlin-Rummelsburg
ALDI Nord,Bahnhofstr. 68-72,14612, Falkensee
ALDI Nord,Huttenstr. 41-44,10553, Berlin-Moabit
ALDI Nord,Sewanstr. 259,10319, Berlin-Friedrichsfelde
ALDI Nord,Revaler Str. 33,10245, Berlin-Friedrichshain
ALDI Nord,Rummelsburger Str. 98,10319, Berlin-Friedrichsfelde
ALDI Nord,Paulsternstr. 20,13599, Berlin-Siemensstadt
ALDI Nord,Invalidenstr. 59,10557, Berlin-Moabit
ALDI Nord,Spandauer Str. 112,14612, Falkensee
ALDI Nord,Rüdersdorfer Str. 65,10243, Berlin-Friedrichshain
ALDI Nord,Chemnitzer Str. 177,12621, Berlin-Kaulsdorf
ALDI Nord,Hans-Klakow-Str. 4,14656, Brieselang
ALDI Nord,Hultschiner Damm 140-142,12623, Berlin-Mahlsdorf
ALDI Nord,Alfred-Kowalke-Str. 2,10315, Berlin-Friedrichsfelde
ALDI Nord,Berolinastr. 7a,10178, Berlin-Mitte
ALDI Nord,Frankfurter Allee 144,10365, Berlin-Lichtenberg
ALDI Nord,Streitstr. 5-19,13587, Berlin-Hakenfelde
ALDI Nord,Saatwinkler Damm 8,13627, Berlin
ALDI Nord,Frankfurter Allee 117,10365, Berlin-Lichtenberg
ALDI Nord,Friedrich-Krause-Ufer 37-38,13353, Berlin-Moabit
ALDI Nord,Weinstr. 9,10249, Berlin-Friedrichshain
ALDI Nord,Woltersdorfer Str. 1,15566, Schöneiche
ALDI Nord,Schillerstr. 1,14641, Nauen
ALDI Nord,Josef-Orlopp-Str. 22-24,10367, Berlin-Lichtenberg
ALDI Nord,Alt Kaulsdorf 64,12621, Berlin-Kaulsdorf
ALDI Nord,Gerichtstr. 2-3,13347, Berlin
ALDI Nord,Dingolfinger Str. 1,12683, Berlin-Biesdorf
ALDI Nord,Bergstr. 1,15562, Rüdersdorf
ALDI Nord,Müllerstr. 128,13349, Berlin-Wedding
ALDI Nord,Greifswalder Str. 168,10409, Berlin-Prenzlauer Berg
ALDI Nord,Badstr. 4,13357, Berlin
ALDI Nord,Schwedter Str. 83,10437, Berlin-Prenzlauer Berg
ALDI Nord,Gülzower Str. 74,12619, Berlin-Hellersdorf
ALDI Nord,Marzahner Chaussee 218,12681, Berlin-Marzahn
ALDI Nord,Landsberger Allee 277,13055, Berlin
ALDI Nord,Ostseestr. 25,10409, Berlin-Prenzlauer Berg
ALDI Nord,Chopinstr. 28,13088, Berlin
ALDI Nord,Landsberger Allee 494,12685, Berlin-Marzahn
ALDI Nord,Börnestr. 25,13086, Berlin
ALDI Nord,Esplanade 9,13187, Berlin-Prenzlauer Berg
ALDI Nord,Pankower Allee 17-19,13409, Berlin-Reinickendorf
ALDI Nord,Ollenhauerstr. 106,13403, Berlin-Reinickendorf
ALDI Nord,Frankf. Chaussee 48,15370, Fredersdorf-Vogelsdorf
ALDI Nord,Holzhauser Str. 26-32,13509, Berlin-Tegel
ALDI Nord,Neue Grottkauer Str. 23,12619, Berlin-Hellersdorf
ALDI Nord,Neumannstr. 13,13189, Berlin-Pankow-Pankow
ALDI Nord,Hauptstr. 9,13055, Berlin
ALDI Nord,Lindenallee 2,15366, Dahlwitz-Hoppegarten
ALDI Nord,Str. vor Schönholz 21,13158, Berlin
ALDI Nord,Roedernallee 15-16,13407, Berlin-Reinickendorf
ALDI Nord,Rennbahnstr. 65,13086, Berlin
ALDI Nord,Buddestr. 32,13507, Berlin-Tegel
ALDI Nord,Damerowstr. 8,13187, Berlin-Pankow
ALDI Nord,Jan-Petersen-Str. 16,12679, Berlin-Marzahn
ALDI Nord,Oranienburger Str. 57-58,13437, Berlin-Wittenau
ALDI Nord,Mahlsdorfer Str. 56,15366, Hönow b. Berlin
ALDI Nord,Prerower Platz 1,13051, Berlin
ALDI Nord,Planstr. 1,15366, Neuenhagen
ALDI Nord,Dietzgenstr. 86,13156, Berlin
ALDI Nord,Senftenberger Ring 15,13439, Berlin
ALDI Nord,Hauptstr. 119,13158, Berlin-Rosenthal
ALDI Nord,Dorfstr. 22,13059, Berlin-Wartenberg
ALDI Nord,Wittenauer Str. 88-100,13435, Berlin-Wittenau
ALDI Nord,Oraniendamm 46,13469, Berlin-Waidmannslust
ALDI Nord,Havemannstr. 33,12689, Berlin-Marzahn
ALDI Nord,August-Bebel-Str. 1a,15234, Frankfurt (Oder)
ALDI Nord,Hennigsdorfer Str. 167,13503, Berlin-Heiligensee
ALDI Nord,Karl-Marx-Str. 193,15230, Frankfurt/Oder
ALDI Nord,Fredersdorfer Chaussee 77,15370, Fredersdorf-Vogelsdorf
ALDI Nord,Am Fuchsbau 4,15345, Petershagen/Eggersdorf
ALDI Nord,Treseburger Str. 26,13129, Berlin-Blankenburg
ALDI Nord,Am Pfingstberg 25,13465, Berlin-Hermsdorf
ALDI Nord,Bergstr. 2,15230, Frankfurt/Oder
ALDI Nord,Berliner Chaussee 101a,15234, Frankfurt/Oder-Kliestow
ALDI Nord,Hauptstr. 37,13127, Berlin
ALDI Nord,Bucher Weg 2,16356, Lindenberg
ALDI Nord,Klessener Str. 36,14662, Friesack
ALDI Nord,Am Annatal 59,15344, Strausberg
ALDI Nord,Rosa-Luxemburg-Str. 22,16727, Velten
ALDI Nord,Schönfließer Str. 25E,16540, Hohen Neuendorf
ALDI Nord,Zepernicker Str. 10,13125, Berlin-Buch
ALDI Nord,Hauptstr. 34,16567, Mühlenbeck
ALDI Nord,Berliner Chaussee 7,16556, Hohen Neuendorf
ALDI Nord,Akazienstr. 1,15344, Strausberg-Strausberg Nord
ALDI Nord,Hauptstr. 64,16348, Wandlitz
ALDI Nord,Freienwalder Str. 45b,16356, Werneuchen
ALDI Nord,Krokusstr. 3,16321, Bernau
ALDI Nord,Potsdamer Str. 1,16321, Bernau
ALDI Nord,Germendorfer Allee 20,16515, Oranienburg
ALDI Nord,Diedersdorfer Str. 12b,15306, Seelow
ALDI Nord,Berliner Weg 7a,16348, Wandlitz
ALDI Nord,Granseer Str. 12,16515, Oranienburg-Sachsenhausen
ALDI Nord,Bahnhofstr. 17,16868, Wusterhausen
ALDI Nord,Bahnhofstr. 77,16359, Biesenthal
ALDI Nord,Neustädter Str. 26,16816, Neuruppin
ALDI Nord,Trenckmannstr. 16,16816, Neuruppin
ALDI Nord,Pritzwalker Str. 46b,16866, Kyritz
ALDI Nord,Eberswalder Str. 6,16775, Löwenberg
ALDI Nord,Heinrich-Lehmpuhl-Str. 25,16269, Wriezen
ALDI Nord,Lenzener Chaussee,19322, Wittenberge
ALDI Nord,Wulkower Chaussee 12,16827, Alt Ruppin
ALDI Nord,Bergerstr. 113,16225, Eberswalde
ALDI Nord,Eduardshof 1,16259, Bad Freienwalde (Oder)
ALDI Nord,Schwarzer Weg 9,19348, Perleberg
ALDI Nord,Falkenthaler Chaussee 57,16792, Zehdenick
ALDI Nord,Berliner Str. 21,16775, Gransee
ALDI Nord,Werderstr. 25c,19303, Dömitz
ALDI Nord,Postliner Str. 19,19357, Karstädt
ALDI Nord,Paulshorster Str. 18,16831, Rheinsberg
ALDI Nord,Am Ring,16928, Pritzwalk
ALDI Nord,Papenbrucher Chaussee 2,16909, Wittstock/Dosse
ALDI Nord,Röbeler Str. 1,16909, Wittstock/Dosse
ALDI Nord,Schwedter Str. 21,16278, Angermünde
ALDI Nord,Vietmannsdorfer Straße,17268, Templin
ALDI Nord,H.-G.-Bock-Str. 6,16798, Fürstenberg
ALDI Nord,Fliederweg 5,19300, Grabow
ALDI Nord,Neue Tor Str. 13a,19288, Ludwigslust
ALDI Nord,Wesenberger Chaussee 4,17252, Mirow
ALDI Nord,Landgrabenpark 2,16303, Schwedt
ALDI Nord,Laascher Str. 30b,19306, Neustadt-Glewe
ALDI Nord,Berliner Str. 30,19258, Boizenburg
ALDI Nord,J.-Gagarin-Ring 8,19370, Parchim
ALDI Nord,Am Hafen 11,17207, Röbel
ALDI Nord,Ostring 6,19370, Parchim
ALDI Nord,R.-Tarnow-Str. 62,19230, Hagenow
ALDI Nord,Kühlhausberg 15,17235, Neustrelitz-Kiefernheide
ALDI Nord,Penzliner Str. 47,17235, Neustrelitz-Zierke
ALDI Nord,Alter Landweg 7,17258, Feldberger Seenlandschaft-Feld
ALDI Nord,Am Fuchsberg 1a,19386, Lübz
ALDI Nord,Quetziner Str. 19B,19395, Plau am See
ALDI Nord,Friedrich-Ebert-Str. 6,17213, Malchow
ALDI Nord,Hagenower Chaussee 29,19243, Wittenburg
ALDI Nord,Neubrandenburger Str. 21,17291, Prenzlau
ALDI Nord,Warendorfer Str. 8,17192, Waren
ALDI Nord,Fr.-W.-Raiffeisen-Str. 1b,17192, Waren
ALDI Nord,Parchimer Str. 64,19089, Crivitz
ALDI Nord,Am Grünen Tal 25,19063, Schwerin
ALDI Nord,Grabenstr. 9,19061, Schwerin
ALDI Nord,Pilaer Str. 3,19063, Schwerin-Neu Zippendorf
ALDI Nord,Güstrower Str. 4,19399, Goldberg
ALDI Nord,Wallstr. 68,19053, Schwerin-Paulsstadt
ALDI Nord,Platanenstr. 14,17033, Neubrandenburg
ALDI Nord,Lessingstr. 33b,19059, Schwerin-Weststadt
ALDI Nord,Güstrower Str. 34,19055, Schwerin-Werdervorstadt
ALDI Nord,Ahornstr. 46,19075, Pampow
ALDI Nord,Lärchenallee 32,19057, Schwerin-Friedrichsthal
ALDI Nord,Dr.- W.-Külz-Str. 40,17033, Neubrandenburg
ALDI Nord,Am Margaretenhof 12,19057, Schwerin
ALDI Nord,Markscheiderweg 1a,17036, Neubrandenburg-Fritscheshof
ALDI Nord,Bahnhofsplatz 5,18292, Krakow am See
ALDI Nord,Traberallee 11,17034, Neubrandenburg-Reitbahnviertel
ALDI Nord,Eschenhof 5b,17034, Neubrandenburg-Datzeberg
ALDI Nord,Johann-Stelling-Str. 22d,19205, Gadebusch
ALDI Nord,Goethestr. 14,19406, Sternberg
ALDI Nord,Pestalozzistr. 23,17309, Pasewalk
ALDI Nord,Werdohler Str. 3,17153, Stavenhagen
ALDI Nord,Pasew. Straße,17098, Friedland
ALDI Nord,Grüner Gang 11,17087, Altentreptow
ALDI Nord,Goldberger Str. 65,18273, Güstrow
ALDI Nord,Poggestr. 2A,17166, Teterow
ALDI Nord,Ebereschenweg 1e,18273, Güstrow
ALDI Nord,Ukranen Str. 1,17358, Torgelow-Spechtberg
ALDI Nord,Wismarsche Str. 2,18246, Bützow
ALDI Nord,Belliner Str. 9,17373, Ueckermünde
ALDI Nord,Mühlenteichplatz 2,18258, Schwaan
ALDI Nord,Wollweberstr. 5a,17109, Demmin
ALDI Nord,Fleckebyer Straße,18239, Satow
ALDI Nord,Hafenstr. 1,17389, Anklam
ALDI Nord,Dr.- G.-Kohnert-Str. 22,17126, Jarmen
ALDI Nord,Am Stellwerk 13,18233, Neubukow
ALDI Nord,August-Bebel-Str. 9a,18195, Tessin
ALDI Nord,Goethestr. 66a,17121, Loitz
ALDI Nord,Bäderstr. 3,17406, Usedom
ALDI Nord,Timmermansstrat 11,18055, Rostock
ALDI Nord,Hans-Sachs-Allee,18057, Rostock-Hansaviertel
ALDI Nord,Werftstr. 50,18057, Rostock
ALDI Nord,Am Handelspark 9,18209, Bad Doberan
ALDI Nord,Ostsee-Park-Str. 1a,18069, Rostock
ALDI Nord,Hinrichsdorfer Str. 8,18146, Rostock-Dierkow-West
ALDI Nord,Hansestr. 33,18182, Bentwisch
ALDI Nord,Bertolt-Brecht-Str. 23,18106, Rostock
ALDI Nord,Handwerksstr. 1b,18069, Rostock
ALDI Nord,Lichtenhäger Chaussee 1-3,18107, Rostock
ALDI Nord,Gewerbegebiet Fulgengrund 4,18225, Kühlungsborn
ALDI Nord,Vietlipper Damm,18507, Grimmen
ALDI Nord,Lortzing Str. 19a,18119, Rostock
ALDI Nord,Labahnstr. 18,17424, Heringsdorf
ALDI Nord,E.-Thälmann-Ring 56,17491, Greifswald
ALDI Nord,P.-Warschow-Str. 19,17489, Greifswald
ALDI Nord,Bahnhofsstr. 44,17489, Greifswald-Fleischervorstadt
ALDI Nord,Fridtjof-Nansen-Str. 27,17493, Greifswald
ALDI Nord,Robert-Koch-Str. 1,17438, Wolgast
ALDI Nord,Bäderstr. 2a,17459, Ückeritz
ALDI Nord,Marktflecken 18,17498, Neuenkirchen
ALDI Nord,Möskenweg 24b,17454, Zinnowitz
ALDI Nord,Gewerbegebiet,18461, Richtenberg
ALDI Nord,Rostocker Landweg 1b,18311, Ribnitz/Dam.
ALDI Nord,Bahnhofstr. 12,18181, Graal-Müritz
ALDI Nord,Strandstr. 28,18347, Dierhagen
ALDI Nord,Gustower Weg 3,18439, Stralsund
ALDI Nord,Grünhufer Bogen 13-17,18435, Stralsund
ALDI Nord,Carl - Loewe - Ring 1,18435, Stralsund-Knieper
ALDI Nord,Blaue Wiese 20,18356, Barth
ALDI Nord,Große Parower Str. 54,18435, Stralsund-Knieper
ALDI Nord,Bäderstraße,18375, Born-Darß
ALDI Nord,Mönchguter Tor 1,18586, Sellin
ALDI Nord,Ruschwitzstr. 56,18528, Bergen
ALDI Nord,Nonnenseestr. 1,18528, Bergen
ALDI Nord,Mukraner Str. 1b,18546, Saßnitz
ALDI Nord,Schulstr. 21,18551, Sagard
ALDI Nord,Nienhagener Str. 17,29339, Wathlingen
ALDI Nord,Wittinger Str. 42,29392, Wesendorf
ALDI Nord,Lärchenweg 1,29227, Celle-Altencelle
ALDI Nord,Oppershäuserstr. 6,29331, Lachendorf
ALDI Nord,An der Hasenbahn 3,29225, Celle
ALDI Nord,Bremer Weg 199,29227, Celle-Klein Hehlen
ALDI Nord,Hehlenbruchweg 4,29313, Hambühren
ALDI Nord,Celler Str. 35,29378, Wittingen
ALDI Nord,Hindenburgstr. 1,29386, Hankensbüttel
ALDI Nord,Nienburger Str. 49,29323, Wietze
ALDI Nord,Meißendorfer Str. 4,29308, Winsen
ALDI Nord,Celler Str. 50A,29348, Eschede
ALDI Nord,Celler Str. 31,29690, Schwarmstedt
ALDI Nord,Neutorstr. 63+65,29410, Salzwedel
ALDI Nord,Schillerstr. 11,29410, Salzwedel
ALDI Nord,Bergstr. 7,29389, Bad Bodenteich
ALDI Nord,Celler Str. 62,29303, Bergen
ALDI Nord,Celler Str. 45,29320, Hermannsburg
ALDI Nord,Stöckener Str. 12,27336, Rethem
ALDI Nord,Drawehner Str. 6-10,29439, Lüchow
ALDI Nord,Veerßer Str. 59,29525, Uelzen
ALDI Nord,Lüneburger Str. 52-54,29525, Uelzen
ALDI Nord,Lüchower Str. 10,29571, Rosche
ALDI Nord,Bismarckstr. 2-4,27232, Sulingen
ALDI Nord,Sudetenstr. 2,29664, Walsrode
ALDI Nord,Nordallee 3,29525, Uelzen
ALDI Nord,Bücker Str. 4-12,27318, Hoya
ALDI Nord,Cordinger Str. 59,29699, Bomlitz
ALDI Nord,Kiebitzkamp 3,29574, Ebstorf
ALDI Nord,Winkelmannshof 1,29633, Munster
ALDI Nord,Wulfers Hoff 8,27313, Dörverden
ALDI Nord,Böhmheide 45,29614, Soltau
ALDI Nord,Schützenstr. 5,29451, Dannenberg
ALDI Nord,Lange Str. 12-14,27305, Bruchhausen-Vilsen
ALDI Nord,Medinger Str. 32,29549, Bad Bevensen-Medingen
ALDI Nord,Max-Planck-Str. 3,27283, Verden
ALDI Nord,Süderstr. 18,27374, Visselhövede
ALDI Nord,Große Str. 38,27239, Twistringen
ALDI Nord,Bremer Str. 48,27283, Verden
ALDI Nord,Rübenbaum 1,29553, Bienenbüttel
ALDI Nord,Bremer Str. 34-38,27211, Bassum
ALDI Nord,Grenzweg 2a,21385, Amelinghausen
ALDI Nord,Große Str. 2,27299, Langwedel
ALDI Nord,Dannenberger Str. 24,21368, Dahlenburg
ALDI Nord,Zum Hachepark 3,28857, Syke
ALDI Nord,Am Lahof 1,28832, Achim-Baden
ALDI Nord,Marktstr. 10,29640, Schneverdingen
ALDI Nord,Willy-Brandt-Str. 10,21335, Lüneburg-Rotes Feld
ALDI Nord,Junkernkamp 8,27243, Harpstedt
ALDI Nord,Häcklinger Weg 66b,21335, Lüneburg-Oedeme
ALDI Nord,Embser Landstr. 4-6,28832, Achim
ALDI Nord,Lahauser Str. 2a,28844, Weyhe-Kirchweyhe
ALDI Nord,Brauerstr. 1,27356, Rotenburg
ALDI Nord,Posthausen 1,28870, Ottersberg
ALDI Nord,Harpstedter Str. 34c,27793, Wildeshausen
ALDI Nord,Bremer Str. 50,28844, Weyhe
ALDI Nord,Bleckeder Landstr. 26-28,21337, Lüneburg
ALDI Nord,Wiesenweg 9,21391, Reppenstedt
ALDI Nord,Dr.-Dürr-Str. 12,27793, Wildeshausen
ALDI Nord,Waldweg 1-5,27356, Rotenburg
ALDI Nord,Alte Baumschule 2,21376, Salzhausen
ALDI Nord,Wulf-Werum-Str. 2,21337, Lüneburg
ALDI Nord,Auf dem Schmaarkamp 15,21339, Lüneburg
ALDI Nord,Industriestr. 36,21354, Bleckede
ALDI Nord,Hauptstr. 118-120,28876, Oyten
ALDI Nord,Hans-Bredow-Str. 19,28325, Bremen-Osterholz
ALDI Nord,Große Str. 38,27367, Sottrum
ALDI Nord,Osterholzer Heerstr. 111-113,28307, Bremen-Osterholz
ALDI Nord,Kattenturmer Heerstr. 326,28277, Bremen
ALDI Nord,Röthenkuhlen 85,21379, Scharnebeck
ALDI Nord,Vahlder Weg 1a,27383, Scheeßel
ALDI Nord,Borgwardstr. 1,21365, Adendorf
ALDI Nord,Arsterdamm 94A,28277, Bremen
ALDI Nord,Steinsetzerstr. 11,28279, Bremen
ALDI Nord,Stuhrer Landstr. 142c,28816, Stuhr
ALDI Nord,Osenbrückstr. 5,28309, Bremen-Hemelingen
ALDI Nord,Vor der Westermarsch 1,21357, Bardowick
ALDI Nord,Schevemoorer Landstr. 14-20,28325, Bremen-Oberneuland
ALDI Nord,Harburger Str. 51-53,21271, Hanstedt
ALDI Nord,Emil-von-Behring-Str. 4,28207, Bremen-Hemelingen
ALDI Nord,Volkmannstr. 2,28201, Bremen
ALDI Nord,Vahrer Str. 279281,28329, Bremen
ALDI Nord,Berliner Freiheit 14,28327, Bremen
ALDI Nord,Alter Dorfweg 30-50,28259, Bremen
ALDI Nord,Annenheider Str. 181,27755, Delmenhorst-Hasport/Annenheide
ALDI Nord,Am Damm 10,28870, Ottersberg
ALDI Nord,Westerstr. 33,28199, Bremen-Neustadt
ALDI Nord,Violenstr. 24,28195, Bremen
ALDI Nord,Syker Str. 174,27751, Delmenhorst-Stickgras/Annenriede
ALDI Nord,Theodor-Heuss-Allee 6,28215, Bremen
ALDI Nord,Leher Heerstr. 105-107,28359, Bremen
ALDI Nord,Am Rieskamp 2,26197, Großenkneten
ALDI Nord,Dötlinger Str. 10-12,28197, Bremen-Woltmershausen
ALDI Nord,Wildeshauser Str. 50,27753, Delmenhorst-Deichhorst
ALDI Nord,Konsul-Smidt-Str. 8,28217, Bremen-Walle
ALDI Nord,Enrique-Schmidt-Str. 1,28359, Bremen
ALDI Nord,Weberstr. 7,27753, Delmenhorst-Mitte
ALDI Nord,Hemmstr. 353-357,28215, Bremen
ALDI Nord,Raiffeisenstr. 1,27777, Ganderkesee
ALDI Nord,Zinnhütte 13,21255, Tostedt
ALDI Nord,Waller Heerstr. 101,28219, Bremen-Walle
ALDI Nord,Am Allerbeek 2,21266, Jesteburg
ALDI Nord,Hamfhofsweg 59,28357, Bremen-Borgfeld
ALDI Nord,Winsener Landstr. 13-15,21423, Winsen/Luhe
ALDI Nord,Hamburger Str. 33-35,21481, Lauenburg/Elbe
ALDI Nord,Unter den Linden 5,21255, Tostedt
ALDI Nord,Zum Torfmoor 13,21423, Winsen/Luhe-Borstel
ALDI Nord,Falkenberger Landstr. 89,28865, Lilienthal-Falkenberg
ALDI Nord,Soltauer Str. 83,21244, Buchholz in der Nordheide-Seppensen
ALDI Nord,Lindenhofstr. 1-15,28237, Bremen
ALDI Nord,Sprötzer Weg 31a,21244, Buchholz in der Nordheide
ALDI Nord,Hauptstr. 35,26209, Kirchhatten
ALDI Nord,Altstadtring 100,21423, Winsen/Luhe
ALDI Nord,Am Langenmoor 1,28879, Grasberg
ALDI Nord,Hamburger Str. 85,21244, Buchholz in der Nordheide
ALDI Nord,Ritterhuder Heerstr. 6,28239, Bremen
ALDI Nord,Stader Str. 11,27419, Sittensen
ALDI Nord,Stedinger Str. 44a,27777, Bookholzberg-Bookholzberg
ALDI Nord,Bremer Landstr. 3c,27412, Tarmstedt
ALDI Nord,Harburger Str. 25,21435, Stelle
ALDI Nord,Eichenallee 1b,21220, Seevetal
ALDI Nord,Langenberger Str. 2,27798, Hude
ALDI Nord,Am Göhlenbach 33,21218, Seevetal
ALDI Nord,Bremer Str. 51,21224, Rosengarten-Nenndorf
ALDI Nord,Riesstr. 43,27721, Ritterhude
ALDI Nord,Berliner Str. 83-87,21502, Geesthacht
ALDI Nord,Hindenburgstr. 13,28717, Bremen
ALDI Nord,Am Schleusenkanal 28,21502, Geesthacht
ALDI Nord,Auf der Worth 9,27404, Zeven
ALDI Nord,Findorffstr. 39,27726, Worpswede
ALDI Nord,Am Stinnberg 11a,21279, Hollenstedt
ALDI Nord,An der Ihle 5c,27721, Ritterhude
ALDI Nord,Rheinstr. 6,26203, Wardenburg
ALDI Nord,Hermann-Fortmann-Str. 21,28759, Bremen-Vegesack
ALDI Nord,Nord-West-Ring 5,27404, Zeven
ALDI Nord,Am Saal 12,21217, Seevetal
ALDI Nord,Neuengammer Hausdeich 205,21039, Hamburg-Neuengamme
ALDI Nord,Möllner Str. 22a,21514, Büchen
ALDI Nord,Hammersbecker Str. 87,28755, Bremen-Vegesack
ALDI Nord,Bahnhofstr. 99-105,27711, Osterholz-Scharmbeck
ALDI Nord,Weserstrandstr. 17,28779, Bremen
ALDI Nord,Rönneburger Str. 5,21079, Hamburg-Wilstorf
ALDI Nord,Hördorfer Weg 45,27711, Osterholz-Scharmbeck
ALDI Nord,Beutnerring 21,21077, Hamburg-Marmstorf
ALDI Nord,Alter Postweg 125,26133, Oldenburg
ALDI Nord,Schwaneweder Str. 27,28779, Bremen-Blumenthal
ALDI Nord,Hamburger Str. 31,21493, Schwarzenbek
ALDI Nord,Zwischen den Kreiseln 10,21039, Börnsen
ALDI Nord,Seeveplatz 1,21073, Hamburg-Harburg-Harburg
ALDI Nord,Cloppenburger Str. 293,26133, Oldenburg
ALDI Nord,Neuer Weg 37b,21029, Hamburg-Bergedorf
ALDI Nord,Am Casinopark 14,21465, Wentorf
ALDI Nord,Lüneburger Str. 39,21073, Hamburg-Harburg-Harburg
ALDI Nord,Hans-Koch-Ring 4,21493, Schwarzenbek
ALDI Nord,Friedrich-Frank-Bogen 168-172,21033, Hamburg-Bergedorf
ALDI Nord,Bremer Str. 47-53,26135, Oldenburg-Osternburg
ALDI Nord,Am Bahnhof 3,26169, Friesoythe
ALDI Nord,Ritterkamp 42,28790, Schwanewede
ALDI Nord,Am Beckerkamp 29a,21031, Hamburg
ALDI Nord,Beckdorfer Str. 14,21641, Apensen
ALDI Nord,Cuxhavener Str. 66,21149, Hamburg-Neugraben-Fischbek
ALDI Nord,Am Ladenzentrum 5,21465, Reinbek
ALDI Nord,Mendelstr. 47,21031, Hamburg
ALDI Nord,Striepenweg 37,21147, Hamburg-Hausbruch
ALDI Nord,Hauptstr. 45-51,21629, Neu Wulmstorf
ALDI Nord,Cuxhavener Str. 402,21149, Hamburg-Neugraben-Fischbek
ALDI Nord,Hauptstr. 10a,27446, Selsingen
ALDI Nord,Bloherfelder Str. 97,26129, Oldenburg-Eversten
ALDI Nord,Clausewitzstr. 3,26125, Oldenburg-Ohmstede
ALDI Nord,Nadorster Str. 150,26123, Oldenburg
ALDI Nord,Hauptstr. 35A,27729, Hambergen
ALDI Nord,Gutenbergstr. 3a,21509, Glinde
ALDI Nord,Dratelnstr. 23-25,21109, Hamburg-Wilhelmsburg
ALDI Nord,Sachsenwaldstr. 20,21465, Reinbek
ALDI Nord,Wulmstorfer Wiesen 4,21629, Neu Wulmstorf
ALDI Nord,Friedrichsfehner Str. 1,26188, Friedrichsfehn
ALDI Nord,Scheideweg 56-58,26121, Oldenburg-Nadorst
ALDI Nord,Poststr. 46,26897, Esterwegen
ALDI Nord,Kandinskyallee 4-12,22115, Hamburg
ALDI Nord,Posthalterweg 10,26129, Oldenburg
ALDI Nord,Stader Str. 10,21614, Buxtehude-Eilendorf
ALDI Nord,Oberrege 12b,26931, Elsfleth
ALDI Nord,Alexander Str. 322,26127, Oldenburg
ALDI Nord,Möllner Landstr. 108,21509, Glinde
ALDI Nord,Stubbenweg 31,26125, Oldenburg-Etzhorn
ALDI Nord,Westmoor 2c,21614, Buxtehude
ALDI Nord,Ernst-August-Stieg 7,21107, Hamburg-Wilhelmsburg
ALDI Nord,Paschberg 22,21698, Harsefeld
ALDI Nord,Im Hegen 2-4,22113, Oststeinbek
ALDI Nord,Möllner Landstr. 131,22117, Hamburg-Billstedt
ALDI Nord,Billhorner Röhrendamm 145-147,20539, Hamburg-Rothenburgsort
ALDI Nord,Schiffbeker Weg 27,22111, Hamburg-Billstedt
ALDI Nord,Hindenburgstr. 29,27442, Gnarrenburg
ALDI Nord,Bahnhofstr. 5,26188, Edewecht
ALDI Nord,Baakenallee 38,20457, Hamburg
ALDI Nord,Horner Landstr. 110,22111, Hamburg-Horn
ALDI Nord,Querkamp 69,22119, Hamburg-Horn
ALDI Nord,Eiffestr. 406-418,20537, Hamburg
ALDI Nord,Köhlfleet Hauptdeich 7,21129, Hamburg-Finkenwerder
ALDI Nord,Am AKKU 7,22885, Barsbüttel
ALDI Nord,Zirkusweg 4-6,20359, Hamburg-St. Pauli
ALDI Nord,Grambeker Weg 95-97,23879, Mölln
ALDI Nord,Große Bergstr. 152-162,22767, Hamburg
ALDI Nord,Am Poggenpohl 3,21640, Horneburg
ALDI Nord,Lübecker Str. 116-124,22087, Hamburg-Hohenfelde
ALDI Nord,Neuer Kamp 31,20359, Hamburg-St. Pauli
ALDI Nord,Menckesallee 24-26,22089, Hamburg-Eilbek
ALDI Nord,Gustav-Adolf-Str. 92,22043, Hamburg-Marienthal
ALDI Nord,Bahrenfelder Str. 188,22765, Hamburg-Ottensen
ALDI Nord,Jenfelder Allee 70,22043, Hamburg-Jenfeld
ALDI Nord,Wandsbeker Marktstr. 103-107,22041, Hamburg-Wandsbek
ALDI Nord,Vorburgstr. 1,22946, Trittau
ALDI Nord,Holstenstr. 156,22765, Hamburg-Altona-Nord
ALDI Nord,Berliner Platz 21,22045, Hamburg-Jenfeld
ALDI Nord,Hamburger Str. 23,22083, Hamburg
ALDI Nord,Ostfeld 1,21635, Jork
ALDI Nord,Tonndorfer Hauptstr. 28,22045, Hamburg-Tonndorf
ALDI Nord,Holsteinischer Kamp 65,22081, Hamburg
ALDI Nord,Stephanstr. 6,22047, Hamburg-Wandsbek
ALDI Nord,Paul-Dessau-Str. 8,22761, Hamburg-Bahrenfeld
ALDI Nord,Auf dem Königslande 21,22041, Hamburg-Wandsbek
ALDI Nord,Ratzeburger Str. 36,23879, Mölln
ALDI Nord,Eimsbütteler Chaussee 85,20259, Hamburg
ALDI Nord,Langenhof 30a,26160, Bad Zwischenahn
ALDI Nord,Bahrenfelder Kirchenweg 80,22761, Hamburg-Bahrenfeld
ALDI Nord,Grindelberg 27-31,20144, Hamburg-Harvestehude
ALDI Nord,Bismarckstr. 24,20259, Hamburg
ALDI Nord,Hauptstr. 44-48,26892, Dörpen
ALDI Nord,Alter Teichweg 71,22049, Hamburg-Dulsberg
ALDI Nord,Osterstr. 119,20259, Hamburg
ALDI Nord,Barmbeker Str. 17-25,22303, Hamburg-Winterhude
ALDI Nord,Heußweg 37d,20255, Hamburg
ALDI Nord,Krüsistr. 7,22305, Hamburg-Barmbek-Nord
ALDI Nord,Bramfelder Str. 103,22305, Hamburg-Barmbek-Nord
ALDI Nord,Osdorfer Landstr. 1a,22607, Hamburg
ALDI Nord,Döhrenacker 3,27628, Hagen
ALDI Nord,Hufnerstr. 129,22305, Hamburg-Barmbek-Nord
ALDI Nord,Schweriner Str. 8-12,22143, Hamburg-Rahlstedt
ALDI Nord,Eidelstedter Weg 44,20255, Hamburg
ALDI Nord,Sieker Landstr. 29,22143, Hamburg-Rahlstedt
ALDI Nord,Raiffeisenstr. 52,26180, Rastede-Hostemost
ALDI Nord,Haldesdorfer Str. 86,22179, Hamburg-Bramfeld
ALDI Nord,Winterhuder Markt 6-7a,22299, Hamburg-Winterhude
ALDI Nord,Florianstr. 1,26683, Ramsloh
ALDI Nord,Randstr. 79,22525, Hamburg-Stellingen
ALDI Nord,Bekassinenau 86,22147, Hamburg-Rahlstedt
ALDI Nord,Steilshooper Str. 317,22309, Hamburg-Steilshoop
ALDI Nord,Krumme Kamp 1-11,26676, Barßel
ALDI Nord,Osterfeldstr. 39,22529, Hamburg-Lokstedt
ALDI Nord,Luruper Hauptstraße 79,22547, Hamburg
ALDI Nord,Sülldorfer Landstr. 158-162,22589, Hamburg
ALDI Nord,Schreyerring 6,22309, Hamburg-Steilshoop
ALDI Nord,Grelckstr. 2,22529, Hamburg-Lokstedt
ALDI Nord,Meiendorfer Str. 98,22145, Hamburg-Rahlstedt
ALDI Nord,Dinghorner Str. 12,21717, Fredenbeck
ALDI Nord,Bornheide 55,22549, Hamburg-Osdorf
ALDI Nord,Weserstr. 80,26919, Brake
ALDI Nord,Borsteler Chaussee 86,22453, Hamburg
ALDI Nord,Kieler Str. 555,22525, Hamburg-Stellingen
ALDI Nord,Am Bahnhof Süd 7,27432, Bremervörde
ALDI Nord,Berner Chaussee 16,22175, Hamburg-Bramfeld
ALDI Nord,Alsterdorfer Markt 4,22297, Hamburg-Alsterdorf
ALDI Nord,Pezolddamm 156-158,22159, Hamburg-Farmsen-Berne
ALDI Nord,Feldstr. 5,22880, Wedel
ALDI Nord,Rissener Str. 125,22880, Wedel
ALDI Nord,Oldenburger Landstr. 32,26215, Wiefelstede
ALDI Nord,Wesermünder Str. 70,27432, Bremervörde
ALDI Nord,Logestr. 34,27616, Beverstedt
ALDI Nord,Kolberger Str. 2,23909, Ratzeburg
ALDI Nord,Hauptstr. 58,22869, Schenefeld
ALDI Nord,Lohkampstr. 11-25,22523, Hamburg-Eidelstedt
ALDI Nord,Friedrich-Ebert-Allee 21,22869, Schenefeld
ALDI Nord,Tibarg 41-43,22459, Hamburg
ALDI Nord,Umländerwiek links 9-10,26871, Papenburg
ALDI Nord,Am Marienhof 1,22880, Wedel
ALDI Nord,Eilbergweg 10,22927, Großhansdorf
ALDI Nord,Buchenkamp 94,22359, Hamburg-Volksdorf
ALDI Nord,Pinneberger Chaussee 130-132,22523, Hamburg-Eidelstedt
ALDI Nord,Erdkampsweg 134,22335, Hamburg
ALDI Nord,Heinrich-Hertz-Str. 1b,23909, Ratzeburg
ALDI Nord,Schippelsweg 51,22455, Hamburg
ALDI Nord,Kunaustr. 1,22393, Hamburg-Sasel
ALDI Nord,Bogenstr. 30,22926, Ahrensburg
ALDI Nord,Hauptstr. 1,23898, Sandesneben
ALDI Nord,Krupunder Heide 2,25462, Rellingen
ALDI Nord,Carl-Benz-Str. 4,21684, Stade
ALDI Nord,Johannes-Büll-Weg 1a,22399, Hamburg
ALDI Nord,Im Gewerbegebiet 22a,26842, Ostrhauderfehn
ALDI Nord,Oldesloer Str. 50,22457, Hamburg-Schnelsen
ALDI Nord,Große Str. 26,22926, Ahrensburg
ALDI Nord,Poppenbüttler Hauptstr. 1,22399, Hamburg
ALDI Nord,Zu den Emsauen 2,26871, Papenburg
ALDI Nord,Hartkirchener Chaussee 14,25469, Halstenbek
ALDI Nord,Waldhof 1,25474, Ellerbek
ALDI Nord,Rhauderwieke 9,26817, Rhauderfehn
ALDI Nord,Friederikenstr. 44,26871, Papenburg
ALDI Nord,Ferdinand-Harten-Str. 3+5,22949, Ammersbek-Lottbek
ALDI Nord,Kornkamp 46g,22926, Ahrensburg
ALDI Nord,Kieler Str. 24-26,25474, Bönningstedt
ALDI Nord,Am Esch 3,26655, Westerstede-Halstrup
ALDI Nord,Rellinger Str. 25-27,25421, Pinneberg
ALDI Nord,Rugenbarg 84-90,22848, Norderstedt-Garstedt
ALDI Nord,Steinkamp 3,21684, Stade
ALDI Nord,Langenhorner Chaussee 579,22415, Hamburg-Langenhorn
ALDI Nord,Poggensiek 2,22941, Delingsdorf
ALDI Nord,Westring 8 Wedeler Weg,25421, Pinneberg
ALDI Nord,Grüner Weg 3,25462, Rellingen
ALDI Nord,Stahlwerkstr. 15a,26689, Augustfehn
ALDI Nord,Freiburger Str. 60,21682, Stade
ALDI Nord,Ohechaussee 26-32,22848, Norderstedt-Garstedt
ALDI Nord,Mittelstr. 76a,22851, Norderstedt
ALDI Nord,Viechelner Chaussee 8,23966, Bad Kleinen
ALDI Nord,Otto-Hahn-Str. 2,22941, Bargteheide
ALDI Nord,Kösliner Weg 6,22850, Norderstedt
ALDI Nord,Parkstr. 9,27612, Loxstedt
ALDI Nord,Flensburger Str. 3,25421, Pinneberg
ALDI Nord,Peiner Hag 11-13,25497, Prisdorf
ALDI Nord,Buckhörner Moor 110-112,22846, Norderstedt-Harksheide
ALDI Nord,Bahnhofstr. 9,21709, Himmelpforten
ALDI Nord,Ihrener Str. 7-9,26810, Westoverledingen
ALDI Nord,Eichholzkoppel 1,22889, Tangstedt
ALDI Nord,Gerberstr. 1,25436, Uetersen
ALDI Nord,Bohmsiel 12,27572, Bremerhaven
ALDI Nord,Tornescher Hof 1-5,25436, Tornesch
ALDI Nord,Gütloh 1-5,25451, Quickborn
ALDI Nord,Reuterstr. 115,25436, Uetersen
ALDI Nord,Quickborner Str. 54,22844, Norderstedt-Friedrichsgabe
ALDI Nord,Bundesstr. 7,23869, Elmenhorst
ALDI Nord,Mittelweg 105,26954, Nordenham-Abbehausen
ALDI Nord,Bahnhofstr. 94,25451, Quickborn
ALDI Nord,Bürgermeister-Heidenreich Str. 1a,26316, Varel-Langendamm
ALDI Nord,Zum Feldkamp 16a,27619, Schiffdorf
ALDI Nord,Neue Feldstr. 4,26826, Weener
ALDI Nord,Grönauer Heide 1,23627, Groß Grönau
ALDI Nord,Ostertorstr. 60,26670, Remels Uplengen
ALDI Nord,Osseweg 87,26789, Leer
ALDI Nord,Berliner Damm 1,25479, Ellerau
ALDI Nord,Lily-Braun-Str. 18-22,23843, Bad Oldesloe
ALDI Nord,Atenser Allee 142,26954, Nordenham
ALDI Nord,Am Galgenberg 1,21769, Lamstedt
ALDI Nord,Alte Bahnlinie 4,26345, Bockhorn
ALDI Nord,Hohe Loga 76,26789, Leer-Loga
ALDI Nord,Alexander-Fleming-Str. 1,23562, Lübeck
ALDI Nord,Dammstücken 25-27,24558, Henstedt-Ulzburg
ALDI Nord,Helene-Stöcker-Str. 1,23843, Bad Oldesloe
ALDI Nord,Am Bahnhof 3,23923, Herrnburg
ALDI Nord,Elbestr. 95,27570, Bremerhaven
ALDI Nord,Barnitzer Str. 1-7,23858, Reinfeld
ALDI Nord,Gebhartstr. 4,23936, Grevesmühlen
ALDI Nord,Burgstr. 1,23992, Neukloster
ALDI Nord,Weidentrift 4-6,23562, Lübeck
ALDI Nord,Ringstr. 19,26789, Leer-Heisfelde
ALDI Nord,Dassower Str. 8a,23923, Schönberg
ALDI Nord,Brünskamp 1,23866, Nahe
ALDI Nord,Hainholzer Damm 9a,25337, Elmshorn
ALDI Nord,Hans-Böckler-Str. 1a,25337, Elmshorn
ALDI Nord,Neuschanzer Str. 19,26831, Bunde
ALDI Nord,Kronsforder Allee 70c,23560, Lübeck
ALDI Nord,Brüder-Grimm-Ring 9,23560, Lübeck
ALDI Nord,Stresemannstr. 150,27576, Bremerhaven-Lehe
ALDI Nord,Barkhausenstr. 107,27568, Bremerhaven-Mitte
ALDI Nord,Wedenkamp 9b,25335, Elmshorn
ALDI Nord,Im Brink 8,26835, Hesel
ALDI Nord,Bürgermeister-Haupt-Str. 56,23966, Wismar
ALDI Nord,Korvettenstr. 69,23558, Lübeck-Buntekuh
ALDI Nord,Aschhorner Str. 10,21706, Drochtersen
ALDI Nord,Hansering 9-19,23558, Lübeck
ALDI Nord,Neuenburger Str. 21,26340, Zetel
ALDI Nord,Henstedter Str. 26,24629, Kisdorf
ALDI Nord,Herrenholz 14,23568, Lübeck
ALDI Nord,Otto-Peschel-Str. 14-16,21745, Hemmoor-Basbeck
ALDI Nord,Karpendiek 6-8,23970, Wismar
ALDI Nord,Kantstr. 22,23566, Lübeck
ALDI Nord,Nüttermoorer Str. 4,26789, Leer-Heisfelde
ALDI Nord,Ziegelstr. 109-111,23556, Lübeck
ALDI Nord,Neufelder Weg 3-5,27619, Schiffdorf
ALDI Nord,Gutenbergstr. 4a,24558, Henstedt-Ulzburg
ALDI Nord,Kanalstr. 76,23552, Lübeck-Moisling
ALDI Nord,Grootkoppel 5-7,23566, Lübeck
ALDI Nord,Langener Landstr. 160,27580, Bremerhaven-Lehe
ALDI Nord,Handelspark 21,27624, Bad Bederkesa
ALDI Nord,Ziegelstr. 2b,23556, Lübeck
ALDI Nord,Hans-Böckler-Str. 38,27578, Bremerhaven-Leherheide
ALDI Nord,Sibirien 4,25335, Elmshorn
ALDI Nord,Küsterkamp 3,25355, Barmstedt
ALDI Nord,Zierower Landstr. 4,23968, Wismar
ALDI Nord,Rathausmarkt 3b,23617, Stockelsdorf
ALDI Nord,Kisdorfer Weg 11,24568, Kaltenkirchen
ALDI Nord,Rudolf-Eucken-Str. 3,26802, Moormerland
ALDI Nord,Friedhofsallee 144,23554, Lübeck
ALDI Nord,Leher Landstr. 4h,27607, Langen
ALDI Nord,Glashüttenweg 31,23568, Lübeck
ALDI Nord,Funkenberg 1,24568, Kaltenkirchen
ALDI Nord,Solmitzstr. 18-24,23569, Lübeck
ALDI Nord,Horster Viereck 1,25358, Horst
ALDI Nord,Stockelsdorfer Weg 80,23611, Bad Schwartau
ALDI Nord,Eutiner Ring 14,23611, Bad Schwartau
ALDI Nord,Rüderstr. 3a,26382, Wilhelmshaven-Bant
ALDI Nord,An der Au 1,23611, Sereetz
ALDI Nord,Hauptstr. 138,26639, Wiesmoor
ALDI Nord,Wiebeke-Kruse-Str. 5-7,25348, Glückstadt
ALDI Nord,Am Markt 6,26452, Sande
ALDI Nord,Güterstr. 48a,26389, Wilhelmshaven-Ebkeriege
ALDI Nord,Werftstr. 161,26382, Wilhelmshaven-Bant
ALDI Nord,Gökerstr. 111c,26384, Wilhelmshaven-Heppens
ALDI Nord,Friedeburger Hauptstr. 119,26446, Friedeburg-Hesel
ALDI Nord,Rosenstr. 1,23626, Ratekau
ALDI Nord,Müllers Kamp 21-23,26629, Ostgroßefehn
ALDI Nord,Nordmeerstr. 100,23570, Lübeck-Innenstadt
ALDI Nord,Anny-Schröder-Weg 2,23795, Bad Segeberg
ALDI Nord,Sven-Hedin-Straße,26389, Wilhelmshaven-Maadebogen
ALDI Nord,Stader Str. 6,21781, Cadenberge
ALDI Nord,Kastanienallee 1,23946, Boltenhagen
ALDI Nord,Flutstr. 99,26388, Wilhelmshaven
ALDI Nord,Speckenstr. 15,27632, Dorum
ALDI Nord,Posener Str. 91,26388, Wilhelmshaven-Fedderwardergroden
ALDI Nord,Eutiner Str. 24,23795, Bad Segeberg
ALDI Nord,Mühlenweg 61,26419, Schortens
ALDI Nord,Hamburger Str. 36-38,24576, Bad Bramstedt
ALDI Nord,Lohstücker Weg 16,24576, Bad Bramstedt
ALDI Nord,Höppnerweg 14,23669, Timmend.Strand
ALDI Nord,Neumünsterstr. 6c,23812, Wahlstedt
ALDI Nord,2. Kompanieweg 8,26632, Ihlowerfehn
ALDI Nord,Petkumer Str. 207,26725, Emden
ALDI Nord,Bökenbarg 8,23623, Ahrensbök
ALDI Nord,Seestr. 63,23683, Scharbeutz
ALDI Nord,Raiffeisenstr. 17,26603, Aurich
ALDI Nord,Lookvenne 12,26721, Emden
ALDI Nord,Wittmunder Str. 7,26441, Jever
ALDI Nord,Cuxhavener Str. 42-44,21762, Otterndorf
ALDI Nord,Lübscher Kamp 4,25524, Itzehoe
ALDI Nord,Thüringer Str. 9,26723, Emden
ALDI Nord,Hammerkeweg 32,26603, Aurich
ALDI Nord,An der Stör 2a,25548, Kellinghusen
ALDI Nord,Rotenbrook 6,25524, Itzehoe
ALDI Nord,Dreekamp 10,26605, Aurich-Extum
ALDI Nord,Fritz-Reuter-Str. 11,26721, Emden
ALDI Nord,Langer Peter 27,25524, Itzehoe
ALDI Nord,Feuerweg 6e,27637, Nordholz
ALDI Nord,Steindamm 9b,25554, Wilster
ALDI Nord,Esenser Str. 58,26409, Wittmund-Uttel
ALDI Nord,Ekelser Str. 11,26624, Südbrookmerland-Moordorf
ALDI Nord,Neumünsterstr. 49b,24598, Boostedt
ALDI Nord,Deutsch-Ordens-Str. 2,25551, Hohenlockstedt
ALDI Nord,Lise-Meitner-Str. 16,25524, Itzehoe
ALDI Nord,Max-Planck-Str. 1-7,25541, Brunsbüttel
ALDI Nord,Gablonzer Str. 5,24610, Trappenkamp
ALDI Nord,Sierksdorfer Str. 19,23730, Neustadt
ALDI Nord,Rettiner Weg 77,23730, Neustadt I. H.
ALDI Nord,Christian-Hülsmeyer-Str. 3,27472, Cuxhaven
ALDI Nord,Heinrich-Steinberg-Str. 1,26434, Wangerland
ALDI Nord,Grodener Chaussee 34,27472, Cuxhaven-Groden
ALDI Nord,Handelsstr. 2,26736, Pewsum
ALDI Nord,Kieler Tor 42,24619, Bornhöved
ALDI Nord,Haart 224,24539, Neumünster-Ruthenberg
ALDI Nord,Altonaer Str. 164,24539, Neumünster-Wittorf
ALDI Nord,Brockeswalder Chaussee 52,27474, Cuxhaven
ALDI Nord,Johann-Specht-Str. 5-7,23701, Eutin
ALDI Nord,Wasbeker Str. 330,24537, Neumünster
ALDI Nord,Goethestr. 11,24534, Neumünster-Brachenfeld
ALDI Nord,Plöner Landstr. 8-10,23701, Eutin
ALDI Nord,Brookgang 21,23743, Grömitz
ALDI Nord,Keno-Tom-Brook-Straße,26529, Upgant-Schott
ALDI Nord,Heinrich-Grube-Weg 76,27476, Cuxhaven-Duhnen
ALDI Nord,Wittmunder Str. 6,26427, Esens
ALDI Nord,Königstr. 59,25709, Marne
ALDI Nord,Bahnhofstr. 9a,25712, Burg
ALDI Nord,Dornumer Str. 10,26556, Westerholt
ALDI Nord,Baeyerstr. 1,24536, Neumünster
ALDI Nord,Itzehoer Str. 4-6,24613, Aukrug
ALDI Nord,Johannßenstr. 19,25693, St. Michaelisdonn
ALDI Nord,Bahnhofstr. 23a,25560, Schenefeld
ALDI Nord,Plöner Chaussee 74,24326, Ascheberg
ALDI Nord,Lütjenburger Str. 9-10,24306, Plön
ALDI Nord,Coldinner Str. 11,26532, Großheide
ALDI Nord,Lütjenburger Str. 1,23714, Malente
ALDI Nord,Am Markt 2,24594, Hohenwestedt
ALDI Nord,Dieselstr. 4,23738, Lensahn
ALDI Nord,Bürgermeister-Höppner-Str. 1,23749, Grube
ALDI Nord,Am Edenhof 1,26524, Hage
ALDI Nord,Am Bensjücht 1,26553, Dornum-Schwittersum
ALDI Nord,Bahnhofstr. 1a,26506, Norden
ALDI Nord,Mühlenstr. 12,24582, Bordesholm
ALDI Nord,Gewerbestr. 13a,26506, Norden
ALDI Nord,Niedernstr. 9c,24589, Nortorf
ALDI Nord,Theodor-Storm-Str. 11-13,25557, Hanerau-Hademarschen
ALDI Nord,Hufenweg 24,24211, Preetz
ALDI Nord,Raiffeisenplatz 14,25704, Meldorf
ALDI Nord,Am Vossberg 6,23758, Oldenburg
ALDI Nord,Lise- Meitner-Str. 3,24220, Flintbek
ALDI Nord,Norderstr. 11-13,25767, Albersdorf
ALDI Nord,Königsberger Str. 7,24321, Lütjenburg
ALDI Nord,Kieler Str. 5,24238, Selent
ALDI Nord,Lütjenburger Str. 2,24223, Schwentinental-Raisdorf
ALDI Nord,Carl-Zeiss-Str. 2-10,24223, Schwentinental-Raisdorf
ALDI Nord,Grot Steenbusch 35,24145, Kiel
ALDI Nord,Villacher Str. 8,24147, Kiel
ALDI Nord,Theodor-Heuss-Ring 136,24143, Kiel
ALDI Nord,Hamburger Chaussee 180,24113, Kiel-Hassee
ALDI Nord,Rendsburger Landstr. 240,24113, Kiel-Hassee
ALDI Nord,Stormarnstr. 29,24113, Kiel
ALDI Nord,Heider Str. 2b,25761, Büsum
ALDI Nord,Fritz-Thiedemann-Ring 40,25746, Heide
ALDI Nord,Höhenweg 2,23774, Heiligenhafen
ALDI Nord,Tollbrettkoppel 4,23774, Heiligenhafen
ALDI Nord,Ostring 232,24148, Kiel-Ellerbek
ALDI Nord,Augustenstr. 30a-32,24143, Kiel-Gaarden-Ost
ALDI Nord,Mühlendamm 1,24113, Kiel
ALDI Nord,Philipp-Reis-Weg 4,24148, Kiel-Wellingdorf
ALDI Nord,Hauptstr. 5b,25782, Tellingstedt
ALDI Nord,Schönkirchener Str. 80b,24149, Kiel
ALDI Nord,Hamburger Str. 143,25746, Heide
ALDI Nord,Am Busbahnhof 20,24784, Westerrönfeld
ALDI Nord,Langer Rehm 10,24149, Kiel
ALDI Nord,Kurt-Schumacher-Platz 4,24109, Kiel-Mettenhof
ALDI Nord,Eichkamp 24,24116, Kiel-Schreventeich
ALDI Nord,Droysenstr. 5,24105, Kiel-Brunswik
ALDI Nord,Preußerstr. 1-9,24105, Kiel-Brunswik
ALDI Nord,Kieler Str. 21,24783, Osterrönfeld
ALDI Nord,Am Ruthenstrom 2,25746, Wesseln
ALDI Nord,Kreishafenstraße2/Alte Kieler L-Str. 30,24768, Rendsburg
ALDI Nord,Konrad-Adenauer-Str. 3,24768, Rendsburg
ALDI Nord,Torfmoorkamp 10,24106, Kiel-Wik
ALDI Nord,Steekberg 1,24107, Kiel-Suchsdorf
ALDI Nord,Prinz-Heinrich-Str. 20,24106, Kiel-Wik
ALDI Nord,Bahnhofstr. 20,25764, Wesselburen
ALDI Nord,Hollerstr. 74,24782, Büdelsdorf
ALDI Nord,Disshorn 4,24787, Fockbek
ALDI Nord,Schleswiger Chaussee 45,24768, Rendsburg
ALDI Nord,Tobringer 2,24226, Heikendorf
ALDI Nord,Kuhlenkamp 1a,24217, Schönberg
ALDI Nord,Friedrichstädter Str. 57a,24768, Rendsburg
ALDI Nord,Ehlers Kamp 8,23769, Fehmarn
ALDI Nord,Friedrichsruher Weg 4,24161, Altenholz-Stift
ALDI Nord,Bullbrücke 1,24235, Laboe
ALDI Nord,Friedrichsorter Str. 2,24159, Kiel-Friedrichsort
ALDI Nord,Heidkoppel 2,24803, Erfde
ALDI Nord,Erdbeerfeld 2,24161, Altenholz-Klausdorf
ALDI Nord,Alte Bahnhofstr. 23,23769, Fehmarn
ALDI Nord,Ravensberg 4c,24214, Gettorf
ALDI Nord,Friedrichstädter Chaussee 36,25832, Tönning
ALDI Nord,Industriestr. 1,24848, Kropp
ALDI Nord,Rendsburger Str. 119,24340, Eckernförde
ALDI Nord,Van-Wouwer-Str. 1,25840, Friedrichstadt
ALDI Nord,Nordergeest 4a,25826, St. Peter-Ording
ALDI Nord,Ostlandstr. 99,24340, Eckernförde
ALDI Nord,Mühlenberg 18a,24857, Fahrdorf
ALDI Nord,Georg-Pfingsten-Weg 5,24837, Schleswig
ALDI Nord,Hans-Jürgen-Klinker-Str. 1,24837, Schleswig
ALDI Nord,Flensburger Str. 172-174,24837, Schleswig
ALDI Nord,Ostenfelder Str. 70,25813, Husum
ALDI Nord,Langacker 8,24887, Silberstedt
ALDI Nord,Nordhusumer Str. 90,25813, Husum
ALDI Nord,Flensburger Chaussee 52,25813, Husum
ALDI Nord,Hans-Christophersen-Allee 2,24860, Böklund
ALDI Nord,Südertoft 2,24392, Süderbrarup
ALDI Nord,Glücksburger Str. 1,24376, Kappeln
ALDI Nord,Westermarkt 2,25884, Viöl
ALDI Nord,Mehlbydiek 8,24376, Kappeln
ALDI Nord,Dorfstr. 15,24963, Tarp
ALDI Nord,Hans-Redlefsen-Str. 8,24986, Satrup
ALDI Nord,Husumer Str. 79,25821, Bredstedt
ALDI Nord,Meiereistr. 10,24972, Steinbergkirche
ALDI Nord,Dorfstr. 4,25842, Langenhorn
ALDI Nord,Schleswiger Str. 130,24941, Flensburg
ALDI Nord,Holzkrugweg 2,24941, Flensburg
ALDI Nord,Friesische Str. 156,24937, Flensburg-Friesischer Berg
ALDI Nord,Wiesharder Markt 14a,24983, Handewitt
ALDI Nord,Engelsbyer Str. 33,24943, Flensburg-Engelsby
ALDI Nord,Birkland,24999, Wees
ALDI Nord,Hauptstr. 96,24980, Schafflund
ALDI Nord,Werftstr. 29,24939, Flensburg
ALDI Nord,Marktallee 1,24955, Harrislee
ALDI Nord,Friedheim 8,24944, Flensburg
ALDI Nord,Apenrader Str. 111,24939, Flensburg
ALDI Nord,Dorfstr. 226,25920, Risum-Lindholm
ALDI Nord,Rudolf-Diesel-Str. 1a,25917, Leck
ALDI Nord,Hauptstr. 75,25899, Niebüll
ALDI Nord,Hauptstr. 6A,25923, Süderlügum
ALDI Nord,Keitumer Landstr. 21,25980, Sylt
ALDI Nord,An der Zehnt 4,36466, Dermbach
ALDI Nord,J.-C.-v.-Weiß-Str. 5,36448, Schweina
ALDI Nord,Josefstr. 3,36088, Hünfeld
ALDI Nord,Clara-Zetkin-Str. 9,36433, Bad Salzungen
ALDI Nord,Eisenacher Weg 5,36132, Eiterfeld
ALDI Nord,Ulsterstr. 6,36269, Philippsthal
ALDI Nord,Im langen Roth 3,36266, Heringen
ALDI Nord,Heinrich-von-Stephan-Str. 2c,36251, Bad Hersfeld
ALDI Nord,Stockäcker 4,36275, Kirchheim
ALDI Nord,Homberger Str. 142,36251, Bad Hersfeld
ALDI Nord,Grünberger Str. 82,36304, Alsfeld
ALDI Nord,An der Au 14,36304, Alsfeld
ALDI Nord,Bismarckstr. 10,36179, Bebra
ALDI Nord,Niederrheinische Str. 40,34626, Neukirchen
ALDI Nord,Borngasse 8,36199, Rotenburg/Fulda
ALDI Nord,An der Mühle 1,35466, Rabenau
ALDI Nord,Homberger Str. 15,35287, Amöneburg
ALDI Nord,Am Kaufpark 1,35279, Neustadt
ALDI Nord,Hachborner Str. 2b,35085, Hachborn
ALDI Nord,Ernst-Ihle-Str. 10,34613, Ziegenhain
ALDI Nord,Herrenwaldstr. 6b,35260, Stadtallendorf
ALDI Nord,Wierastr. 3,34613, Treysa
ALDI Nord,In der Werraaue 1,37281, Wanfried
ALDI Nord,Im Boden 2-4,35112, Fronhausen
ALDI Nord,Landstr. 123,37287, Wehretal
ALDI Nord,Frankfurter Str. 7,35274, Kirchhain
ALDI Nord,Dünzebacher Str. 2c,37269, Eschwege
ALDI Nord,Herborner Str. 1a,35096, Niederweimar/Lahn
ALDI Nord,August-Vilmar-Str. 22,34576, Homberg
ALDI Nord,Niederhoner Str. 58a,37269, Eschwege
ALDI Nord,Marburger Str. 100,35043, Marburg-Cappel
ALDI Nord,Gewerbestr. 4,35644, Erda
ALDI Nord,Erlenring 9,35037, Marburg
ALDI Nord,Tom-Mutters-Str. 9,35041, Marburg-Wehrda
ALDI Nord,Bahnhofstr. 4,34212, Melsungen
ALDI Nord,Gellenweg 12-14,34582, Borken (Hessen)
ALDI Nord,Kirchbergstr. 6,35075, Gladenbach
ALDI Nord,Leipziger Str. 116,37235, Hessisch Lichtenau
ALDI Nord,An der B 255 Nr. 3,35756, Mittenaar
ALDI Nord,Werrastr. 6,37242, Bad Sooden-Allendorf
ALDI Nord,Wittgensteiner Str. 1a,35094, Lahntal/Sterzhausen
ALDI Nord,Am Bewegungsbad 10,35080, Bad Endbach
ALDI Nord,Zum Haintor 3,34587, Felsberg
ALDI Nord,Ellnröder Str. 27,35285, Gemünden
ALDI Nord,Konrad-Adenauer-Str. 25,35745, Herborn
ALDI Nord,Am Untertor 8,35083, Wetter
ALDI Nord,Birkunger Str. 27,37327, Leinefelde
ALDI Nord,Am Hospital 21,34560, Fritzlar
ALDI Nord,Gladenbacher Str. 38,35232, Dautphe
ALDI Nord,Rolfesstr. 3,35683, Dillenburg
ALDI Nord,Zur Mühle 10,34295, Edermünde
ALDI Nord,Kaufpark Steffenberg 2,35239, Niedereisenhausen
ALDI Nord,Bahnhof 3,34537, Bad Wildungen
ALDI Nord,Brüsseler Str. 1a,37308, Heilbad Heiligenstadt
ALDI Nord,Kasseler Str. 34,35683, Dillenburg
ALDI Nord,Laubenweg 6,37213, Witzenhausen
ALDI Nord,Im Feldhof 10,34260, Kaufungen
ALDI Nord,Am Seewasem 3,35216, Biedenkopf
ALDI Nord,Lohwiese 5,35708, Haiger
ALDI Nord,Faustmühlenweg 30,34253, Lohfelden
ALDI Nord,Ostring 40-44,34277, Fuldabrück
ALDI Nord,Friedrich-Ebert-Allee 3,34225, Baunatal-Altenritte
ALDI Nord,Hauptstr. 99,35236, Breidenbach
ALDI Nord,Mattenbergstr. 62,34132, Kassel-Oberzwehren
ALDI Nord,Leipziger Str. 124,34123, Kassel-Bettenhausen
ALDI Nord,Zur Schönbuche 2,35716, Ewersbach
ALDI Nord,Röddenauer Str. 20,35066, Frankenberg
ALDI Nord,Glockenbruchweg 84,34134, Kassel
ALDI Nord,Hannoversche Str. 13,34266, Niestetal
ALDI Nord,Ringstr. 11,35108, Allendorf/Eder
ALDI Nord,Kasseler Str. 96,34308, Bad Emstal
ALDI Nord,Mauerstr. 11,34117, Kassel-Mitte
ALDI Nord,Fuldatalstr. 14,34125, Kassel-Wesertor
ALDI Nord,Wittrockstr. 3,34121, Kassel
ALDI Nord,Pfingstweide 2,34270, Schauenburg
ALDI Nord,Ziegelei 3,34233, Fuldatal
ALDI Nord,Philippinenhöfer Weg 33,34127, Kassel
ALDI Nord,Wolfhager Str. 274,34130, Kassel-Harleshausen
ALDI Nord,Zur Feilenfabrik 2,37115, Duderstadt
ALDI Nord,Quedlinburger Str. 8,34346, Hann.Münden
ALDI Nord,Zum Feldlager 119,34246, Vellmar-Niedervellmar
ALDI Nord,Marktstr. 43/44 Aldi Passage,37441, Bad Sachsa
ALDI Nord,Göttinger Str. 27,34346, Hann.Münden
ALDI Nord,Niederwerberstr. 6,34513, Sachsenhausen
ALDI Nord,Heckershäuser Str. 27,34292, Ahnatal
ALDI Nord,Reinhäuser Landstr. 177,37083, Göttingen-Geismar
ALDI Nord,Rischenweg 15,37124, Rosdorf
ALDI Nord,Alfred-Delp-Weg 5,37085, Göttingen-Geismar
ALDI Nord,Schützeberger Str. 91B,34466, Wolfhagen
ALDI Nord,Vor Brakens Höhe 2,34289, Zierenberg
ALDI Nord,Leinestr. 49,37073, Göttingen
ALDI Nord,Auf dem Mühlanger,34376, Immenhausen
ALDI Nord,Lutterstr. 1,37431, Bad Lauterberg
ALDI Nord,Am Kauf Park 2,37079, Göttingen
ALDI Nord,Görlitzer Str. 1,34379, Calden
ALDI Nord,Weender Landstr. 59,37075, Göttingen
ALDI Nord,Industriestr. 9,37079, Göttingen-Grone
ALDI Nord,Ludwig-Erhard-Str. 2,37434, Gieboldehausen
ALDI Nord,Werner-von-Siemens-Str. 5,37077, Göttingen
ALDI Nord,Strother Str. 37,34497, Korbach
ALDI Nord,Medebacher Landstr. 14-20,34497, Korbach
ALDI Nord,Bahnhofstr. 2,37412, Herzberg am Harz
ALDI Nord,Göttinger Str. 23,37120, Bovenden
ALDI Nord,Arolser Str. 19d,34471, Volkmarsen
ALDI Nord,Am Buchholzplatz 8,38700, Braunlage
ALDI Nord,Garnisons-Galerie 4,34369, Hofgeismar
ALDI Nord,Bahnhofstr. 96,34454, Bad Arolsen
ALDI Nord,Albrechtshäuser Weg 1+3,37191, Katlenburg
ALDI Nord,Schnappelberg 8,38889, Blankenburg
ALDI Nord,Herzberger Str. 59,37520, Osterode
ALDI Nord,Göttinger Str. 18,37181, Hardegsen
ALDI Nord,Lerchenbreite 32,38889, Blankenburg-Oesig
ALDI Nord,Lindenstr. 26,37520, Osterode
ALDI Nord,Papenheimer Str. 65-67,34414, Warburg
ALDI Nord,Nordhäuser Weg 3,37154, Northeim
ALDI Nord,An der Salzrinne 2,39418, Staßfurt
ALDI Nord,Mühlental 42,38855, Wernigerode
ALDI Nord,Löderburger Str. 97a,39418, Staßfurt
ALDI Nord,Theodor-Fontane-Str. 34,38855, Wernigerode
ALDI Nord,Wiesenstr. 26,37170, Uslar
ALDI Nord,Teichhütter Str. 2a,37539, Bad Grund
ALDI Nord,Emmerkertor Str. 28,34434, Borgentreich
ALDI Nord,Bahnstr. 7,34431, Marsberg-Niedermarsberg
ALDI Nord,Kasseler Tor 40/Bundesstr. 7,34414, Warburg/Scherfede-Scherfede
ALDI Nord,Goslarsche Str. 69A,38678, Clausthal-Zellerfeld
ALDI Nord,Magdeburger Str. 47,38820, Halberstadt-Wehrstedt
ALDI Nord,Ziegeleistr. 16,39240, Calbe
ALDI Nord,Wolfsburger Str. 1,38820, Halberstadt
ALDI Nord,Am Busbahnhof 1,39435, Egeln
ALDI Nord,Magdeburger Str. 20,39397, Gröningen
ALDI Nord,Blankenauer Str. 1a,37688, Beverungen
ALDI Nord,Schlewecker Str. 2,38667, Bad Harzburg
ALDI Nord,Rosslauer Str. 29,39261, Zerbst
ALDI Nord,Grimsehlstr. 40,37574, Einbeck
ALDI Nord,Hansestraße,37574, Einbeck
ALDI Nord,Liebigstr. 6,38640, Goslar-Georgenberg
ALDI Nord,Hildesheimer Str. 29,38640, Goslar-Georgenberg
ALDI Nord,Am Sportplatz 4,34439, Willebadessen
ALDI Nord,Zinsdorfer Weg 31,33181, Bad Wünnenberg
ALDI Nord,Neue Str. 37,37581, Bad Gandersheim
ALDI Nord,Braunschweigerstr. 36,38723, Seesen
ALDI Nord,Carl-Zeiss-Str. 4,38644, Goslar
ALDI Nord,Bahnhofstr. 18A,38835, Osterwieck
ALDI Nord,Wiedelaher Str. 10a,38690, Vienenburg
ALDI Nord,Lange Str. 62,38685, Langelsheim
ALDI Nord,Schillerstr. 11,39218, Schönebeck
ALDI Nord,Magdeburger Str. 238,39218, Schönebeck
ALDI Nord,Torfbruchstr. 2b,33165, Lichtenau
ALDI Nord,Am Sudheimer Weg 5,33034, Brakel
ALDI Nord,Lüneburger Str. 4,39387, Oschersleben
ALDI Nord,Pfennigbreite 38,37671, Höxter
ALDI Nord,Küsterweg 1,37671, Höxter
ALDI Nord,Bahnhofstr. 46,39171, Sülzetal
ALDI Nord,Fürstenberger Str. 26,33142, Büren
ALDI Nord,Bucher Weg 10,39164, Wanzleben
ALDI Nord,Hermann-Müller-Str. 2,38315, Schladen
ALDI Nord,Am Siedlerplatz 18,33014, Bad Driburg
ALDI Nord,Salbker Chaussee 67-71,39116, Magdeburg-Reform
ALDI Nord,Kopernikusstr. 13,37603, Holzminden
ALDI Nord,Im Kleinen Maser 3,31195, Lamspringe
ALDI Nord,Deenser Str. 26,32676, Stadtoldendorf
ALDI Nord,Carlstr. 2,31073, Delligsen
ALDI Nord,Bergstr. 27,39116, Magdeburg-Sudenburg
ALDI Nord,Schönebecker Str. 6,39104, Magdeburg-Buckau
ALDI Nord,Ackerstr. 2,39112, Magdeburg
ALDI Nord,Sperrenberger Str. 1,33178, Borchen
ALDI Nord,Hinter dem Salze 11,38259, Salzgitter
ALDI Nord,Friedrich-Ebert-Str. 73,39114, Magdeburg-Cracau
ALDI Nord,Breslauer Str. 11-15,38259, Salzgitter
ALDI Nord,Große Diesdorfer Str. 41,39110, Magdeburg-Stadtfeld West
ALDI Nord,Warslebener Str. 6,39393, Hötensleben
ALDI Nord,Hüttenstr. 67,33184, Altenbeken
ALDI Nord,Alersfelde 28,33039, Nieheim
ALDI Nord,Pohlweg 110,33100, Paderborn
ALDI Nord,Hardehauser Weg 2,33100, Paderborn
ALDI Nord,Heyrothsberger Str. 62,39175, Biederitz-Heyrothsberge
ALDI Nord,Rogätzer Str. 27,39106, Magdeburg-Alte Neustadt
ALDI Nord,Olvenstedter Scheid 52,39130, Magdeburg-Neu Olvenstedt
ALDI Nord,Burger Str. 23b,39291, Möckern
ALDI Nord,August-Wegener-Str. 13,31061, Alfeld
ALDI Nord,Wewersches Bruch 100,33106, Paderborn-Wewer
ALDI Nord,Borchener Str. 25,33098, Paderborn
ALDI Nord,Neue Wiese 13,31061, Alfeld
ALDI Nord,Ovelgünner Str. 34,39365, Eilsleben
ALDI Nord,Hötensleber Str. 22,38364, Schöningen
ALDI Nord,Senefelder Str. 13,33100, Paderborn
ALDI Nord,Am Wallgraben 14,33154, Salzkotten
ALDI Nord,Olvenstedter Graseweg 37,39128, Magdeburg
ALDI Nord,Rathenaustr. 9,33102, Paderborn
ALDI Nord,Hanns-Eisler-Platz 11,39128, Magdeburg-Kannenstieg
ALDI Nord,Neue Str. 1d,38170, Schöppenstedt
ALDI Nord,Ingolstädter Weg 13,33102, Paderborn
ALDI Nord,Irxleber Str. 7,39326, Hohenwarsleben
ALDI Nord,Wewerstr. 27,33106, Paderborn-Elsen
ALDI Nord,Bodenburger Str. 9a,31162, Bad Salzdetfurth
ALDI Nord,Heinrich-Nordhoff-Str. 3,38271, Baddeckenstedt
ALDI Nord,Hatzfelder Str. 22-24,33104, Paderborn
ALDI Nord,Anton-Spilker-Str. 33,32839, Steinheim
ALDI Nord,Detmolder Str. 221-225,33175, Bad Lippspringe
ALDI Nord,Breiteweg 51,39179, Barleben
ALDI Nord,Wendessener Str. 11a,38300, Wolfenbüttel-Linden
ALDI Nord,Ernst-Reuter-Str. 6,37619, Bodenwerder
ALDI Nord,Weisgutstr. 20,33106, Paderborn-Sande-Sande
ALDI Nord,Schweigerstr. 7,38300, Wolfenbüttel-Juliusstadt
ALDI Nord,Watenstedter Weg 8,38229, Salzgitter-Salder
ALDI Nord,Grauhofstr. 1,38304, Wolfenbüttel-Auguststadt
ALDI Nord,Leibnizstr. 2,38228, Salzgitter
ALDI Nord,Magdeburger Berg 5,38350, Helmstedt
ALDI Nord,Schlosserstr. 1,38229, Salzgitter-Lebenstedt
ALDI Nord,Kampstr. 49,32805, Horn-Bad Meinberg
ALDI Nord,Siemensstr. 39,32676, Lügde
ALDI Nord,In der Schratwanne 36,31141, Hildesheim-Itzum
ALDI Nord,Bethelner Landstr. 24,31028, Gronau
ALDI Nord,Brenkenkamp 10,33129, Delbrück
ALDI Nord,Schäferwiese 8a,38239, Salzgitter-Thiede
ALDI Nord,Emmerstedter Str. 12,38350, Helmstedt
ALDI Nord,Schmuckenberger Weg 2a,32825, Blomberg
ALDI Nord,Zibbeklebener Str. 7,39288, Burg
ALDI Nord,Rogätzer Str. 33,39326, Wolmirstedt
ALDI Nord,Robert-Bosch-Str. 101,31139, Hildesheim-Neuhof
ALDI Nord,An der Kalkröse 2,31020, Salzhemmendorf
ALDI Nord,Stöckheimer Markt 15,38124, Braunschweig
ALDI Nord,Theodor-Storm-Str. 20,31139, Hildesheim-Ochtersum
ALDI Nord,Auf der Schanze 31,31812, Bad Pyrmont
ALDI Nord,Westfalenstr. 14,33161, Hövelhof
ALDI Nord,Am Bahnhof 28,38268, Lengede-Broistedt
ALDI Nord,Gravelottestr. 1,31134, Hildesheim
ALDI Nord,Rottorfer Str. 4a,38154, Königslutter
ALDI Nord,Alte Heerstr. 8,31135, Hildesheim-Einum
ALDI Nord,Jenastieg 16,38124, Braunschweig-Heidberg
ALDI Nord,Remmighauser Str. 109a,32760, Detmold-Remmighausen
ALDI Nord,Magdeburger Str. 81,39340, Haldensleben
ALDI Nord,Sehlder Str. 19,31008, Elze
ALDI Nord,Drispenstedter Str. 4,31135, Hildesheim
ALDI Nord,Im Moorbusche 4,38162, Cremlingen
ALDI Nord,Neckarstr. 1,38120, Braunschweig-Weststadt
ALDI Nord,Runde Wiese 6,31137, Hildesheim
ALDI Nord,Ernst - Morsch - Str. 9,31137, Hildesheim
ALDI Nord,Berliner Platz 1D,38102, Braunschweig
ALDI Nord,Alverdisser Str. 7,32683, Barntrup
ALDI Nord,Marktstr. 4,31185, Söhlde
ALDI Nord,Elbestr. 22,38120, Braunschweig-Weststadt
ALDI Nord,Lange Maße 5,31171, Nordstemmen
ALDI Nord,Kastanienallee 21/22,38102, Braunschweig
ALDI Nord,Madamenweg 48,38118, Braunschweig
ALDI Nord,Wilhelmstr. 98,38100, Braunschweig-Innenstadt
ALDI Nord,Arminstr. 27,32756, Detmold
ALDI Nord,Wilhelm-Suder-Str. 1,39356, Weferlingen
ALDI Nord,Rosenstr. 8,32832, Augustdorf
ALDI Nord,Hannoversche Str. 59,38114, Braunschweig
ALDI Nord,Hamburger Str. 279,38114, Braunschweig
ALDI Nord,Werkstr. 17,31789, Hameln-Klein Berkel
ALDI Nord,Westerwieher Str. 44-48,33397, Rietberg
ALDI Nord,Klingenbergstr. 20,32758, Detmold
ALDI Nord,Benteler Str. 32,33449, Langenberg
ALDI Nord,Celler Str. 81,38114, Braunschweig
ALDI Nord,Bodelschwinghstr. 8,38159, Vechelde
ALDI Nord,Ziegelkamp 57,38104, Braunschweig-Volkmarode
ALDI Nord,Bevenroder Str. 149,38108, Braunschweig-Querum
ALDI Nord,Hastenbecker Weg 46,31785, Hameln
ALDI Nord,Oerlinghauser Str. 109,32758, Detmold
ALDI Nord,Holter Str. 137-147,33758, Schloß Holte
ALDI Nord,Eichstr. 18-20,31241, Ilsede
ALDI Nord,Bienroder Weg 53,38108, Braunschweig-Kralenriede
ALDI Nord,Osterbergstr. 15,38112, Braunschweig
ALDI Nord,Berliner Str. 4a,38165, Lehre
ALDI Nord,Fischbecker Landstr. 86,31787, Hameln
ALDI Nord,Westfalenweg 8,33415, Verl
ALDI Nord,Lemgoer Str. 2a,32694, Dörentrup
ALDI Nord,Meierkamp 2,31249, Hohenhameln-Ohlum
ALDI Nord,Bruchweg 3b,32699, Extertal
ALDI Nord,Moorberg 5,31157, Sarstedt
ALDI Nord,Lange Str. 136-140,32791, Lage
ALDI Nord,Lemgoer Str. 94,32657, Lemgo-Brake
ALDI Nord,Am Beckhof 80,33689, Bielefeld-Sennestadt
ALDI Nord,Am Kalkofen 7,33813, Oerlinghausen
ALDI Nord,Büssingstr. 1,38176, Wendeburg
ALDI Nord,Steinweg 66,32657, Lemgo
ALDI Nord,Plantage 86f,38444, Wolfsburg-Hattorf
ALDI Nord,Ilseder Str. 58,31226, Peine
ALDI Nord,Hauptstr. 77,33378, Rheda-Wiedenbrück
ALDI Nord,Osttangente 6,31832, Springe
ALDI Nord,Hansestr. 1,33689, Bielefeld-Sennestadt
ALDI Nord,Süntelstr. 42,31848, Bad Münder
ALDI Nord,Hauptstr. 260c,33818, Leopoldshöhe-Bechterdissen
ALDI Nord,Herzebrocker Str. 20,33378, Rheda-Wiedenbrück-Rheda
ALDI Nord,Osnabrücker Landstr. 1,33335, Gütersloh
ALDI Nord,Kampstr. 20/22,33332, Gütersloh
ALDI Nord,Vöhrumer Str. 36-40,31228, Peine
ALDI Nord,Hans-Böckler- Str. 32,33334, Gütersloh
ALDI Nord,Hehlinger Str. 21,38446, Wolfsburg-Nordsteimke
ALDI Nord,Bergzower Str. 6,39307, Genthin
ALDI Nord,Caroline-Herschel-Str. 1,31228, Peine
ALDI Nord,Johann-Koch-Str. 2,30982, Pattensen
ALDI Nord,Bürgermeister Brinkmann Weg 4,33818, Leopoldshöhe
ALDI Nord,An der Bascheriede 4,38458, Velpke
ALDI Nord,Mörser Str. 53,38442, Wolfsburg-Ehmen
ALDI Nord,Str. d. Jugend 19,39517, Tangerhütte
ALDI Nord,Suhler Str. 6,38444, Wolfsburg-Westhagen
ALDI Nord,Windelsbleicher Str. 239a,33659, Bielefeld-Senne
ALDI Nord,Hildesheimer Str. 350,30880, Laatzen-Rethen
ALDI Nord,Bahnhofstr. 15,38527, Meine
ALDI Nord,Welseder Str. 6,31840, Hessisch Oldendorf
ALDI Nord,Oerlinghauser Str. 10,33699, Bielefeld-Stieghorst
ALDI Nord,Bachstr. 9,31319, Sehnde
ALDI Nord,Brockhäger Str. 24,33330, Gütersloh
ALDI Nord,Niendorfer Str. 2a,39646, Oebisfelde
ALDI Nord,Porschestr. 102,38440, Wolfsburg
ALDI Nord,Fassensteg 4,32689, Kalletal-Hohenhausen
ALDI Nord,Clarholzer Str. 30,33442, Herzebrock-Herzebrock
ALDI Nord,Isselhorster Str. 416,33334, Gütersloh-Isselhorst
ALDI Nord,Briloner Str. 3,33647, Bielefeld-Brackwede
ALDI Nord,Mühlenkamp 15,38442, Wolfsburg-Fallersleben
ALDI Nord,Oldentruper Str. 266,33719, Bielefeld-Heepen
ALDI Nord,Hermesstr. 3,31275, Lehrte
ALDI Nord,Hauptstr. 53,33647, Bielefeld-Brackwede
ALDI Nord,Uferstr. 18,32108, Bad Salzuflen
ALDI Nord,Gütersloher Str. 243,33649, Bielefeld-Brackwede
ALDI Nord,Wöhrbergweg 5,31234, Edemissen
ALDI Nord,Amtmann-Bullrich-Str. 23,33719, Bielefeld-Heepen-Heepen
ALDI Nord,Degerser Str. 34,30974, Wennigsen
ALDI Nord,Jembker Str. 1,38448, Wolfsburg
ALDI Nord,An der Tonkuhle 2,33617, Bielefeld-Gadderbaum
ALDI Nord,Braasstr. 1c,31737, Rinteln
ALDI Nord,Carl-Severing-Str. 85,33649, Bielefeld-Brackwede
ALDI Nord,Am Bexterholz 2,32107, Bad Salzuflen-Lockhausen
ALDI Nord,Alfred-Bentz-Str. 2,30966, Hemmingen
ALDI Nord,Hildesheimer Str. 401,30519, Hannover
ALDI Nord,Werner-Bock-Str. 38,33602, Bielefeld
ALDI Nord,Wülferoder Str. 51,30539, Hannover
ALDI Nord,Beelener Str. 86,33442, Herzebrock-Clarholz-Clarholz
ALDI Nord,Reuteranger 4,38550, Isenbüttel
ALDI Nord,Alte Schulstr. 30,38448, Wolfsburg-Wendschott
ALDI Nord,Herforder Str. 93+95,32105, Bad Salzuflen
ALDI Nord,Große-Kurfürsten-Str. 82,33615, Bielefeld
ALDI Nord,Iltener Str. 11-15,31275, Lehrte
ALDI Nord,Rabenhof 78,33609, Bielefeld-Heepen
ALDI Nord,Egestorfer Warte 1,30890, Barsinghausen
ALDI Nord,Beckhausstr. 64,33611, Bielefeld
ALDI Nord,Laischeweg 2,38554, Weyhausen
ALDI Nord,Ohefeldweg 15,30559, Hannover-Anderten
ALDI Nord,Große Tonkuhle 3,31737, Rinteln
ALDI Nord,Zum Mineralbad 1,31867, Lauenau
ALDI Nord,Tillystr. 30,30459, Hannover-Oberricklingen
ALDI Nord,Braker Str. 34,33729, Bielefeld-Heepen
ALDI Nord,Everloher Str. 1,30989, Gehrden
ALDI Nord,Ronnenberger Str. 20,30952, Ronnenberg-Empelde
ALDI Nord,Bahnhofstr. 25,33803, Steinhagen
ALDI Nord,Reihekamp 12,30890, Barsinghausen-Kirchdorf
ALDI Nord,Anderter Str. 101M,30559, Hannover
ALDI Nord,Lindemannallee 21,30173, Hannover-Bult
ALDI Nord,Lockhauser Str. 113,32052, Herford
ALDI Nord,Adam-Riese-Str. 2,38518, Gifhorn
ALDI Nord,Mozartstr. 14-16,30173, Hannover
ALDI Nord,Braunschweiger Str. 106,38518, Gifhorn
ALDI Nord,Babenhauser Str. 20,33613, Bielefeld-Schildesche
ALDI Nord,Meyrastr. 1,32602, Vlotho
ALDI Nord,Stendaler Str. 89,39638, Gardelegen
ALDI Nord,Prozessionsweg 43,33428, Harsewinkel
ALDI Nord,Bardowicker Str. 10,30449, Hannover-Linden-Mitte
ALDI Nord,Buchholzer Str. 40,30629, Hannover-Misburg-Nord
ALDI Nord,Waltgeristr. 93,32049, Herford
ALDI Nord,Davenstedter Str. 234-240,30455, Hannover-Davenstedt
ALDI Nord,Westring 64,32051, Herford
ALDI Nord,Rundestr. 6,30161, Hannover-Mitte
ALDI Nord,Gifhorner Str. 8,38536, Meinersen
ALDI Nord,Bürgerstr. 2-3,30161, Hannover-List
ALDI Nord,Hamburger Str. 71,38518, Gifhorn
ALDI Nord,Burgdorfer Str. 23,31311, Uetze
ALDI Nord,Kirschallee 11,39590, Tangermünde
ALDI Nord,Ostlandring 6-8,31303, Burgdorf
ALDI Nord,Wöhlerstr. 48,30163, Hannover-List
ALDI Nord,Am Bahndamm 17,30453, Hannover-Ahlem
ALDI Nord,Alter Kamp 8,32120, Hiddenhausen-Sundern
ALDI Nord,Adolf-Emmelmann-Str. 5,30659, Hannover
ALDI Nord,Beckendorfstr. 3,33739, Bielefeld
ALDI Nord,Neumarktstr. 47,31683, Obernkirchen-Gelldorf
ALDI Nord,Piepmühle 5,31542, Bad Nenndorf-Waltringhausen
ALDI Nord,Künsebecker Weg 1,33790, Halle
ALDI Nord,Krendelstr. 4,30916, Isernhagen
ALDI Nord,Kreuzbreite 19,31675, Bückeburg
ALDI Nord,Weserstr. 17,32545, Bad Oeynhausen
ALDI Nord,Vahrenwalder Str. 252,30179, Hannover-Vahrenheide
ALDI Nord,Engerstr. 61,33824, Werther
ALDI Nord,Hannoversche Str. 77,30926, Seelze
ALDI Nord,Am Fuhrenkampe 14,30419, Hannover (Burg)-Burg
ALDI Nord,Zur Stadtgärtnerei 1,30657, Hannover-Bothfeld
ALDI Nord,Fähranger 10,32457, Porta Westfalica-Hausberge
ALDI Nord,Jahnstr. 28,31655, Stadthagen-Krebshagen
ALDI Nord,Ringstr. 32,32130, Enger
ALDI Nord,Werrestr. 15,32549, Bad Oeynhausen-Eidinghausen
ALDI Nord,Erich-Ollenhauer-Str. 13,30851, Langenhagen
ALDI Nord,Albert-Schweitzer-Str. 37,32584, Löhne-Gohfeld
ALDI Nord,Heerener Str. 53,39576, Stendal
ALDI Nord,Bahnhofstr. 26,31655, Stadthagen
ALDI Nord,Gewerbestr. 3,31698, Lindhorst
ALDI Nord,Desbrocksriede 2a,30855, Langenhagen
ALDI Nord,Planetenring 33,30823, Garbsen-Auf der Horst
ALDI Nord,Dr.-Kurt-Schumacher-Str. 16,39576, Stendal
ALDI Nord,Mühlenburger Str. 5-7,32139, Spenge
ALDI Nord,Am Pferdemarkt 9a,30853, Langenhagen
ALDI Nord,Gneisenaustr. 4,32423, Minden
ALDI Nord,Braunschweiger Str. 50,38465, Brome
ALDI Nord,Lübbecker Staße 159A,32584, Löhne-Mennighüffen
ALDI Nord,Mindener Str. 123,32429, Minden
ALDI Nord,Arneburger Str. 30,39576, Stendal
ALDI Nord,Wirusstr. 10,33775, Versmold
ALDI Nord,In der Mark 90,32278, Kirchlengern
ALDI Nord,Haßkampstr. 94,32257, Bünde
ALDI Nord,Siemensstr. 1-3,30827, Garbsen-Berenbostel
ALDI Nord,Bahnhofstr. 19,33829, Borgholzhausen
ALDI Nord,In der Meineworth 25,30938, Großburgwedel
ALDI Nord,Dünner Str. 4,32257, Bünde-Spradow
ALDI Nord,Nienburger Str. 36,31515, Wunstorf
ALDI Nord,Gesellenweg 21a,32427, Minden
ALDI Nord,Poppauerstr. 1,38486, Klötze
ALDI Nord,In den Ellern 5,31515, Wunstorf
ALDI Nord,Hauptstr. 223,30826, Garbsen
ALDI Nord,Stiftsallee 128,32425, Minden
ALDI Nord,Döllnitzer Str. 7A,39629, Bismark
ALDI Nord,Bergmannstr. 1,31558, Hagenburg
ALDI Nord,Bruchstr. 193,32289, Rödinghausen
ALDI Nord,Industriestr. 1,32469, Petershagen
ALDI Nord,Burgweg 2,30900, Mellendorf
ALDI Nord,Rudolf-Diesel-Ring 34,31535, Neustadt
ALDI Nord,Erika-Najork-Str. 2,31535, Neustadt
ALDI Nord,Strubbergstr. 9,32312, Lübbecke
ALDI Nord,Leeser Str. 33,31547, Rehburg-Loccum-Loccum
ALDI Nord,Stendaler Chaussee 35,39606, Osterburg
ALDI Nord,Gerhard-Wetzel-Str. 11,32339, Espelkamp
ALDI Nord,Burgstr. 4,31600, Uchte
ALDI Nord,Eisenbahnstr. 14,32369, Rahden
ALDI Nord,Pritzwalker Str. 66,39539, Havelberg
ALDI Nord,Ziegelkampstr. 30,31582, Nienburg
ALDI Nord,Bahnhofstr. 25A,39619, Arendsee
ALDI Nord,Arendseer Str. 49,39615, Hansestadt Seehausen (Altmark)
ALDI Nord,Verdener Landstr. 39a,31582, Nienburg
ALDI Nord,Lemker Nordfeld 4,31608, Marklohe
ALDI Nord,Stahlschmidtsbrücke 15,42499, Hückeswagen
ALDI Nord,Bahnhofsplatz 24,42499, Hückeswagen
ALDI Nord,Erlenbacher Str. 1,42477, Radevormwald
ALDI Nord,Höferhof 14,42929, Wermelskirchen
ALDI Nord,Am Eichholz 2,42897, Remscheid
ALDI Nord,Thomas-Mann-Str. 39,42929, Wermelskirchen
ALDI Nord,Kölner Str. 38,42897, Remscheid-Lennep
ALDI Nord,Burger Str. 85a,42859, Remscheid
ALDI Nord,Hohenhagener Str. 45,42855, Remscheid
ALDI Nord,Kirchhofstr. 32-40,42853, Remscheid
ALDI Nord,Kippdorfstr. 4,42857, Remscheid
ALDI Nord,Kreuzbergstr. 14,42899, Remscheid
ALDI Nord,Hammesberger Str. 24,42855, Remscheid
ALDI Nord,Am Kraftwerk 13,42369, Wuppertal
ALDI Nord,Schützenstr. 64,42659, Solingen-Solingen-Mitte
ALDI Nord,Barmer Str. 77,58332, Schwelm
ALDI Nord,Neuenhofer Str. 99,42657, Solingen
ALDI Nord,Unterkirchen 24,42349, Wuppertal
ALDI Nord,Rübenstr. 60,42289, Wuppertal
ALDI Nord,Oberbergische Str. 180,42285, Wuppertal
ALDI Nord,Dahler Str. 72,42389, Wuppertal-Langerfeld
ALDI Nord,Küllenhahner Str. 67,42349, Wuppertal
ALDI Nord,Beethovenstr. 131,42655, Solingen-Solingen-Mitte
ALDI Nord,Löhdorfer Str. 25-27,42699, Solingen
ALDI Nord,Schlagbaumerstr. 126,42653, Solingen
ALDI Nord,Weiherstr. 7,42277, Wuppertal
ALDI Nord,Bredde 36,42275, Wuppertal
ALDI Nord,Unterdörnen 80,42283, Wuppertal-Barmen
ALDI Nord,Friedrich-Engels-Allee 257,42285, Wuppertal
ALDI Nord,Klingelholl 110,42281, Wuppertal
ALDI Nord,Ronsdorfer Str. 2,42119, Wuppertal
ALDI Nord,Wittbräucker Str. 372,44267, Dortmund
ALDI Nord,Weyerstr. 306,42719, Solingen-Wald
ALDI Nord,Rathausplatz 10,45549, Sprockhövel
ALDI Nord,Neuenteich 91,42103, Wuppertal
ALDI Nord,Schützenstr. 27,42281, Wuppertal
ALDI Nord,Steinbecker Meile 6,42117, Wuppertal
ALDI Nord,Wittbräucker Str. 53a,44287, Dortmund-Aplerbeck
ALDI Nord,Märkische Str. 277,42281, Wuppertal
ALDI Nord,Rodenbergstr. 23,44287, Dortmund-Aplerbeck
ALDI Nord,Rutenbecker Weg 3,42327, Wuppertal
ALDI Nord,Weinberg 107,42109, Wuppertal
ALDI Nord,Westring 320,42329, Wuppertal
ALDI Nord,Schleefstr. 13-19,44287, Dortmund
ALDI Nord,Briller Str. 181,42105, Wuppertal
ALDI Nord,Bremmenstr. 7,44319, Dortmund-Wickede
ALDI Nord,Benninghofer Str. 99,44269, Dortmund-Benninghofen
ALDI Nord,Kaiserstr. 33,42327, Wuppertal-Vohwinkel
ALDI Nord,Landstr. 1,42781, Haan
ALDI Nord,Benrather Str. 14,42115, Wuppertal
ALDI Nord,Düsseldorfer Str. 49,42781, Haan
ALDI Nord,Freie-Vogel-Str. 9,44263, Dortmund
ALDI Nord,Gildenstr. 65,44263, Dortmund
ALDI Nord,Hagener Str. 148,44225, Dortmund-Kleinholthausen
ALDI Nord,Kruckeler Str. 266,44227, Dortmund-Kruckel
ALDI Nord,Bahnhofstr. 7,45549, Sprockhövel
ALDI Nord,Oesterstr. 120,44309, Dortmund-Brackel
ALDI Nord,Luisenglück 30,44225, Dortmund-Hombruch
ALDI Nord,Körner Hellweg 20,44143, Dortmund
ALDI Nord,Märkische Str. 86-88,44141, Dortmund
ALDI Nord,Am Rosenhügel 40-42,42553, Velbert-Neviges
ALDI Nord,Kuskestr. 4,44328, Dortmund
ALDI Nord,Flurstr. 20,40822, Mettmann
ALDI Nord,Parkstr. 2,42489, Wülfrath
ALDI Nord,Bornstr. 160,44145, Dortmund
ALDI Nord,Schützenstr. 144-146,44147, Dortmund
ALDI Nord,Wülfrather Str. 25,42553, Velbert
ALDI Nord,Altenderner Str. 18,44329, Dortmund-Scharnhorst
ALDI Nord,Wulfshofstr. 5,44149, Dortmund
ALDI Nord,Lüdinghauser Str. 18,44339, Dortmund
ALDI Nord,Schulte-Heuthaus-Str. 56,44379, Dortmund-Marten
ALDI Nord,Unter Str. 56/58,44892, Bochum-Langendreer
ALDI Nord,Steinesweg 6,40822, Mettmann
ALDI Nord,Bebelstr. 163a,44532, Lünen
ALDI Nord,Eickener Str. 48,45525, Hattingen
ALDI Nord,Friedrichstr. 305,42551, Velbert
ALDI Nord,Lütgendortmunder Hellweg 206,44894, Bochum-Langendreer
ALDI Nord,Aspeystr. 75,44369, Dortmund-Wischlingen
ALDI Nord,Rauendahlstr. 2,45529, Hattingen
ALDI Nord,Markstr. 139,44803, Bochum-Wiemelhausen
ALDI Nord,Frohlinder Str. 12,44379, Dortmund
ALDI Nord,Werner Hellweg 502,44894, Bochum
ALDI Nord,Nierenhofer Str. 76,45257, Essen-Byfang
ALDI Nord,Markstr. 416,44795, Bochum-Weitmar
ALDI Nord,Heiligenhauser Str. 60,42549, Velbert
ALDI Nord,Evinger Str. 583-587,44339, Dortmund-Brechten
ALDI Nord,Viktoriastr. 63,44532, Lünen
ALDI Nord,Am Buschberg 50,42549, Velbert
ALDI Nord,Lindengraben 14,44803, Bochum-Altenbochum
ALDI Nord,Provinzialstr. 417,44388, Dortmund
ALDI Nord,Bodelschwingher Str. 142,44357, Dortmund-Westerfilde
ALDI Nord,Cappenberger Str. 98,44534, Lünen
ALDI Nord,Borker Str. 86-90,44534, Lünen
ALDI Nord,Kupferdreher Str. 127,45257, Essen-Kupferdreh
ALDI Nord,An der Landwehr 22,44795, Bochum-Weitmar
ALDI Nord,Dr.-C.-Otto-Str. 182,44879, Bochum-Dahlhausen
ALDI Nord,Castroper Str. 206,44791, Bochum-Innenstadt
ALDI Nord,Alte Hauptstr. 111/115,45289, Essen-Burgaltendorf
ALDI Nord,Mengeder Str. 11,44536, Lünen-Brambauer
ALDI Nord,Bessemer Str. 85,44793, Bochum-Innenstadt
ALDI Nord,Blumenstr. 7,44791, Bochum-Innenstadt
ALDI Nord,Siegburgstr. 20,44359, Dortmund-Mengede
ALDI Nord,Amtmann-Ibing-Str. 9,44805, Bochum-Gerthe
ALDI Nord,Höseler Str. 65,42579, Heiligenhaus
ALDI Nord,Höntroper Str. 67,44869, Bochum
ALDI Nord,Dahlhauserstr. 177-179,45279, Essen-Horst
ALDI Nord,Nockwinkel 98-100,45277, Essen
ALDI Nord,Lilienweg 2,48361, Beelen
ALDI Nord,Zum Schacht 1,45731, Waltrop
ALDI Nord,Dickebankstr. 59,44866, Bochum-Wattenscheid
ALDI Nord,Mont-Cenis-Str. 351,44627, Herne-Holthausen
ALDI Nord,Ruhrau 37,45279, Essen-Horst
ALDI Nord,Am Landwehrbach 7,44575, Castrop-Rauxel-Behringhausen
ALDI Nord,Am Schwarzbach 8,45731, Waltrop
ALDI Nord,Ruhrtalstr. 99,45239, Essen-Werden
ALDI Nord,Riemker Str. 13,44809, Bochum-Hofstede
ALDI Nord,Hansastr. 41,44866, Bochum-Wattenscheid
ALDI Nord,Montebruchstr. 19,45219, Essen
ALDI Nord,Eisenbahnstr. 16,45134, Essen-Rellinghausen
ALDI Nord,Riemker Str. 102,44625, Herne
ALDI Nord,Ickerner Markt 2,44581, Castrop-Rauxel-Ickern
ALDI Nord,Hölkeskampring 213,44625, Herne-Sodingen
ALDI Nord,Wartburgstr. 69a,44579, Castrop-Rauxel-Habinghorst
ALDI Nord,Günnigfelder Str. 56-58,44866, Bochum
ALDI Nord,Steeler Str. 466,45138, Essen-Huttrop
ALDI Nord,Am Bocklerbaum 2,45307, Essen-Kray
ALDI Nord,Korthover Weg 57-59,45307, Essen-Kray
ALDI Nord,Schürmannstr. 43b,45136, Essen-Bergerhausen
ALDI Nord,Raiffeisenstr. 4,48317, Drensteinfurt
ALDI Nord,Heinrich-Held-Str. 39,45133, Essen
ALDI Nord,Am Dördelmannshof 6,45886, Gelsenkirchen
ALDI Nord,Krayer Str. 50,44866, Bochum-Leithe
ALDI Nord,Osttor 24,48324, Sendenhorst
ALDI Nord,Roonstr. 23,44628, Herne
ALDI Nord,Lambertstr. 2a,44581, Castrop-Rauxel-Henrichenburg
ALDI Nord,Cranger Str. 26,44629, Herne
ALDI Nord,Dorstenerstr. 263-265,44652, Herne
ALDI Nord,Steeler Str. 187,45138, Essen-Huttrop
ALDI Nord,Mörgekenweg,45309, Essen-Kray
ALDI Nord,Plutostr. 4,44651, Herne
ALDI Nord,Rüttenscheider Str. 62-64,45130, Essen
ALDI Nord,Hubertstr. 20,45139, Essen-Frillendorf
ALDI Nord,Dessauer Str. 61,45886, Gelsenkirchen
ALDI Nord,Wanner Str. 186,45888, Gelsenkirchen
ALDI Nord,Natorpstr. 26-30,45139, Essen-Ostviertel
ALDI Nord,Fulerumer Str. 221-223,45149, Essen-Fulerum
ALDI Nord,Papestr. 42,45147, Essen-Holsterhausen
ALDI Nord,Huestr. 89,45309, Essen-Schonnebeck
ALDI Nord,Industriestr. 5,48231, Warendorf-Freckenhorst
ALDI Nord,Schachtstr. 4,45711, Datteln
ALDI Nord,Am Waldschlößchen 30,45663, Recklinghausen
ALDI Nord,Kepler Str. 88-92,45147, Essen-Holsterhausen
ALDI Nord,Ahstraße,45879, Gelsenkirchen-Altstadt
ALDI Nord,Katzenbruchstr. 78,45141, Essen-Nordviertel
ALDI Nord,Schederhofstr. 125,45145, Essen-Holsterhausen
ALDI Nord,Twentmannstr. 7-11,45141, Essen-Stoppenberg
ALDI Nord,Schulstr. 47,45665, Recklinghausen-Suderwich
ALDI Nord,Resser Str. 29,44653, Herne
ALDI Nord,Salentinstr. 160,45661, Recklinghausen
ALDI Nord,Pommernstr. 17g,45889, Gelsenkirchen-Bismarck
ALDI Nord,Altendorfer Str. 226,45143, Essen-Altendorf
ALDI Nord,Katernberger Str. 48-50,45327, Essen-Katernberg
ALDI Nord,Rudolf-Diesel-Str. 3,45711, Datteln
ALDI Nord,Sassenberger Str. 57,48231, Warendorf
ALDI Nord,Feilenstr. 3,45141, Essen-Nordviertel
ALDI Nord,Bülowstr. 80,45711, Datteln
ALDI Nord,Lierfeldstr. 5,45326, Essen
ALDI Nord,Robert-Linnemann-Str. 8,48336, Sassenberg
ALDI Nord,Grothusstr. 21,45881, Gelsenkirchen-Schalke
ALDI Nord,Werkstättenstr. 7,45659, Recklinghausen-Hillerheide
ALDI Nord,August-Wessing-Damm 86,48231, Warendorf
ALDI Nord,Stimbergstr. 138,45739, Oer-Erkenschwick-Klein-Erkenschwick
ALDI Nord,Hubertusstr. 68,45657, Recklinghausen
ALDI Nord,Friedrich-Ebert-Str. 106,45659, Recklinghausen-Stuckenbusch
ALDI Nord,Kurt-Schumacher-Str. 192,45881, Gelsenkirchen-Schalke-Nord
ALDI Nord,Wilhelm-Nieswandt-Allee 198,45326, Essen
ALDI Nord,Wolfbanksring 30,45355, Essen-Bochold
ALDI Nord,Ewaldstr. 182,45699, Herten
ALDI Nord,Aktienstr. 42,45359, Essen
ALDI Nord,Oerweg 50,45657, Recklinghausen
ALDI Nord,Alverskirchener Str. 24,48351, Everswinkel
ALDI Nord,Zum alten Schacht 4,45699, Herten-Disteln
ALDI Nord,Alte Bottroper Str. 98,45356, Essen-Bergeborbeck
ALDI Nord,Heistr. 109,45891, Gelsenkirchen-Buer
ALDI Nord,Hertener Str. 53,45892, Gelsenkirchen-Resse
ALDI Nord,Alte Landstr. 3,45329, Essen-Karnap
ALDI Nord,Frintroper Str. 422,45359, Essen Frintrop-Frintrop
ALDI Nord,Donnerstr. 228-240,45359, Essen-Dellwig
ALDI Nord,Emil-Zimmermann-Allee 20,45897, Gelsenkirchen-Buer
ALDI Nord,Scherlebecker Str. 256,45701, Herten-Scherlebeck
ALDI Nord,Braukämper Str. 107,45899, Gelsenkirchen-Beckhausen
ALDI Nord,Roßheidestr. 87,45968, Gladbeck-Brauck
ALDI Nord,Auf dem Hochstück 14,45701, Herten-Langenbochum
ALDI Nord,Horster Str. 41,45897, Gelsenkirchen-Buer
ALDI Nord,Zum Bahnhof 4,45701, Herten-Westerholt
ALDI Nord,Münsterstr. 40-42,48167, Münster-Wolbeck
ALDI Nord,Buschgrundstr. 33,45894, Gelsenkirchen-Buer
ALDI Nord,Polsumer Str. 133,45896, Gelsenkirchen-Hassel
ALDI Nord,Teutoburger Str. 2,49201, Dissen
ALDI Nord,Westfalendamm 1,49214, Bad Rothenfelde
ALDI Nord,Horster Str. 55b,45964, Gladbeck
ALDI Nord,Buersche Str. 83,45964, Gladbeck-Zweckel
ALDI Nord,Bahnhofstr. 119,45770, Marl-Sinsen-Lenkerbeck
ALDI Nord,Bergiusstr. 8,48165, Münster
ALDI Nord,Westfalenstr. 218-224,48165, Münster
ALDI Nord,Albersloher Weg 550,48167, Münster-Gremmendorf
ALDI Nord,Schultenstr. 10,45966, Gladbeck-Schultendorf
ALDI Nord,Grüner Weg 1,49196, Bad Laer
ALDI Nord,Orkotten 11-13,48291, Telgte
ALDI Nord,Nachtigallenstr. 87,49324, Melle
ALDI Nord,Marler Stern 1,45768, Marl
ALDI Nord,Grete-Schött-Ring 17,48308, Senden
ALDI Nord,Zechenstr. 47,45772, Marl-Brassert
ALDI Nord,Robert-Bosch-Str. 21,48153, Münster-Berg Fidel
ALDI Nord,Münsterstr. 32,49176, Hilter
ALDI Nord,Weststr. 9,49324, Melle
ALDI Nord,Hammer Str. 109,45772, Marl-Hamm
ALDI Nord,Friedrich-Ebert-Str. 143,48153, Münster
ALDI Nord,Wischhausstr. 57,48346, Ostbevern
ALDI Nord,Recklinghäuser Str. 79-81,45721, Haltern am See
ALDI Nord,Weseler Str. 651,48163, Münster-Mecklenbeck
ALDI Nord,Auf dem Haarkamp 2,49219, Glandorf
ALDI Nord,Lohausstr. 17,45721, Haltern
ALDI Nord,Bohlweg 66-68,48147, Münster
ALDI Nord,Dieckstr. 79,48145, Münster
ALDI Nord,Catharina-Müller-Str. 6,48149, Münster
ALDI Nord,Nevinghoff 12-16,48147, Münster
ALDI Nord,Alleestr. 17,46282, Dorsten-Altstadt
ALDI Nord,Hamannplatz 29a,48157, Münster-Coerde
ALDI Nord,Weseler Str. 10-12,48249, Dülmen
ALDI Nord,Fuchsbreite 19-23,49186, Bad Iburg
ALDI Nord,Zechenstr. 1,46284, Dorsten-Hervest
ALDI Nord,Hüttenweg 5,48249, Dülmen
ALDI Nord,Dieckmannstr. 114,48161, Münster-Gievenbeck
ALDI Nord,Münsterstr. 151,48249, Dülmen
ALDI Nord,Klosterstr. 107,46282, Dorsten-Hardt
ALDI Nord,Idenbrockplatz 27/28,48159, Münster-Kinderhaus
ALDI Nord,Borkener Str. 170,46284, Dorsten-Holsterhausen
ALDI Nord,Lengericher Str. 31,49536, Lienen
ALDI Nord,Wulfener Markt 350,46286, Dorsten
ALDI Nord,Alte Seilerei 2,49124, Georgsmarienhütte-Oesede
ALDI Nord,Mindener Str. 81,49143, Bissendorf
ALDI Nord,Appelhülsener Str. 24,48301, Nottuln
ALDI Nord,Malberger Str. 1,49124, Georgsmarienhütte
ALDI Nord,Lerchenstr. 27,49152, Bad Essen
ALDI Nord,Hüttenstr. 16,49170, Hagen
ALDI Nord,Blickallee 40,48329, Havixbeck
ALDI Nord,Hannoversche Str. 90,49084, Osnabrück-Fledder
ALDI Nord,Am Wulfter Turm 2b,49082, Osnabrück-Nahne
ALDI Nord,Erler Str. 28,46286, Dorsten
ALDI Nord,In den Rietbroken 39,49525, Lengerich
ALDI Nord,Tecklenburger Straße 2/4,49549, Ladbergen
ALDI Nord,Heiligenweg 2,49084, Osnabrück-Schinkel
ALDI Nord,Kardinal-von-Galen-Str. 6,48734, Reken
ALDI Nord,Kardinal-von-Galen-Str. 4,48268, Greven
ALDI Nord,Petersburger Wall 9,49074, Osnabrück-Innenstadt
ALDI Nord,Tecklenburger Str. 12,49525, Lengerich
ALDI Nord,Lütke Berg 3,48341, Altenberge
ALDI Nord,Osnabrücker Str. 4a,49163, Bohmte
ALDI Nord,An der Feuerwache 16,49205, Hasbergen
ALDI Nord,Bohmter Str. 64,49074, Osnabrück-Gartlage
ALDI Nord,Saerbecker Str. 128,48268, Greven
ALDI Nord,Martinistr. 93,49080, Osnabrück
ALDI Nord,Bremer Str. 76,49191, Belm
ALDI Nord,Otto-Vesper-Str. 1,49078, Osnabrück-Weststadt
ALDI Nord,Darfelder Str. 36,48727, Billerbeck
ALDI Nord,Mönkedieckstr. 3-9,49088, Osnabrück-Dodesheide
ALDI Nord,Hansestr. 6,48653, Coesfeld
ALDI Nord,Felix-Fraling-Str. 16,48356, Nordwalde
ALDI Nord,Pagenstecherstr. 144,49090, Osnabrück-Hafen
ALDI Nord,Leinenweberstr. 19,46348, Raesfeld
ALDI Nord,Borkener Str. 73,48653, Coesfeld
ALDI Nord,Jahnstr. 2,49504, Lotte
ALDI Nord,Emsdettener Landstr. 35,48268, Greven
ALDI Nord,Industriestr. 4,48369, Saerbeck
ALDI Nord,Osnabrücker Str. 13-15,49134, Wallenhorst
ALDI Nord,Alte Gärtnerei 4,46342, Velen
ALDI Nord,Heidener Str. 65,46325, Borken
ALDI Nord,Hauptstr. 39,48720, Rosendahl
ALDI Nord,Ibbenbürener Str. 36,49479, Ibbenbüren
ALDI Nord,Burgstr. 18b,49448, Lemförde
ALDI Nord,Otto-Hahn-Str. 18,46325, Borken
ALDI Nord,Nina-Winkel-Str. 2,46325, Borken
ALDI Nord,Im Hagenkamp 1-5,48282, Emsdetten
ALDI Nord,Hansastr. 5,49134, Wallenhorst
ALDI Nord,Warnsveldallee 2,48612, Horstmar
ALDI Nord,Gantenstr. 8,48565, Steinfurt
ALDI Nord,Heerstr. 1,49492, Westerkappeln
ALDI Nord,Borghorster Str. 165,48282, Emsdetten
ALDI Nord,Meiersfeld 18,49419, Wagenfeld
ALDI Nord,Fabrikstr. 46,48712, Gescher
ALDI Nord,Am Heidenturm 1,49477, Ibbenbüren
ALDI Nord,Heinrich-Niemeyer-Str. 66,48477, Hörstel
ALDI Nord,Friedrich-Castelle-Str. 7,48739, Legden
ALDI Nord,Rheiner Str. 68,49477, Ibbenbüren-Bockraden
ALDI Nord,Amtsstr. 31,48624, Schöppingen
ALDI Nord,Recker Str. 5,49497, Mettingen
ALDI Nord,Meyers Tannen 8,49565, Bramsche
ALDI Nord,Bahnhofstr. 43,48565, Steinfurt
ALDI Nord,Püsselbürener Damm 335,49479, Ibbenbüren-Püsselbüren
ALDI Nord,Lindenstr. 31,49565, Bramsche
ALDI Nord,Dille 57,48432, Rheine
ALDI Nord,Breul 91,48703, Stadtlohn
ALDI Nord,Dürerstr. 11,48477, Hörstel
ALDI Nord,Pfarrer-Becker-Str. 7,46354, Suedlohn
ALDI Nord,Wiesenstr. 5,49401, Damme-Clemens-August-Dorf
ALDI Nord,Schützenweg 1,48703, Stadtlohn
ALDI Nord,Nienburger Str. 38,49453, Rehden
ALDI Nord,Verfarths Hof 2,49509, Recke
ALDI Nord,Bramscher Str. 7,49586, Neuenkirchen
ALDI Nord,Gnoiener Platz 10,48493, Wettringen
ALDI Nord,Coesfelder Str. 68,48683, Ahaus
ALDI Nord,Im Stroot 35,48619, Heek
ALDI Nord,Pfarrer-Bergmannshoff-Platz 4,48431, Rheine
ALDI Nord,Bahnhofstr. 19,48485, Neuenkirchen
ALDI Nord,Windmühlenstr. 3,48429, Rheine
ALDI Nord,Holdorfer Str. 11,49434, Neuenkirchen-Vörden-Neuenkirchen
ALDI Nord,Schöppinger Str. 12,48629, Metelen
ALDI Nord,Mollerstr. 20,49356, Diepholz
ALDI Nord,Fuistingstr. 66,48683, Ahaus
ALDI Nord,Nienbergstr. 100,48431, Rheine-Dutum
ALDI Nord,Salzbergener Str. 72-86,48431, Rheine
ALDI Nord,Friedrich-Ebert-Ring 184,48429, Rheine-Schotthock
ALDI Nord,Grosse Str. 74,49439, Steinfeld
ALDI Nord,Bunte Str. 30,48496, Hopsten
ALDI Nord,Bahnhofstr. 37,48607, Ochtrup
ALDI Nord,Up de Hacke 19,48691, Vreden
ALDI Nord,Wüllener Str. 55a,48691, Vreden
ALDI Nord,Laurenzstr. 41,48607, Ochtrup
ALDI Nord,Bernard-Krone-Str. 5,48480, Spelle
ALDI Nord,Auf der Sunhaar 25,48599, Gronau
ALDI Nord,Am Gillenbrink 2,48499, Salzbergen
ALDI Nord,Bramscher Str. 46-48,49593, Bersenbrück
ALDI Nord,Haaksbergener Str. 24,48683, Ahaus
ALDI Nord,Ochtruper Str. 143,48599, Gronau
ALDI Nord,Alfons-Schulte-Str. 3,49577, Ankum
ALDI Nord,Lindenstr. 113,49393, Lohne
ALDI Nord,Gildehauser Str. 85,48599, Gronau
ALDI Nord,Königstr. 58,48599, Gronau
ALDI Nord,Graf-Egbert-Str. 29,48465, Schüttorf
ALDI Nord,Heinrich-Böll-Str. 3,48455, Bad Bentheim
ALDI Nord,Quakenbrücker Str. 6,49413, Dinklage
ALDI Nord,Diepholzer Str. 1,49377, Vechta
ALDI Nord,Parkstr. 23,49584, Fürstenau
ALDI Nord,Beestener Str. 6,49832, Freren
ALDI Nord,Falkenweg 6a,49377, Vechta
ALDI Nord,In der Maate 6,48488, Emsbüren
ALDI Nord,Vechtaer Str. 1,49424, Goldenstedt
ALDI Nord,Friedrichstr. 24,49610, Quakenbrück-Neustadt
ALDI Nord,Bremer Str. 4,49610, Quakenbrück
ALDI Nord,Haupstr. 63,49626, Berge
ALDI Nord,Luetemannskamp 4,49838, Lengerich
ALDI Nord,Lange Str. 97,49632, Essen
ALDI Nord,Rechterfelder Str. 30,49429, Visbek
ALDI Nord,Am Laxtener Esch 7,49811, Lingen-Laxten
ALDI Nord,Rheiner Str. 110,49809, Lingen-Darme
ALDI Nord,Friedrichstr. 15,49809, Lingen-Laxten
ALDI Nord,Westfalenstr. 15,48529, Nordhorn
ALDI Nord,Friedrich-Ebert-Str. 80,48529, Nordhorn
ALDI Nord,Lohner Str. 1,49835, Wietmarschen
ALDI Nord,Friedrich-Ebert-Str. 9,48529, Nordhorn
ALDI Nord,Wietmarscher Str. 8,48531, Nordhorn
ALDI Nord,Am Mühlencenter 10,49685, Emstek
ALDI Nord,Meppener Str. 131,49808, Lingen-Altenlingen
ALDI Nord,Kistemakerstr. 6,48529, Nordhorn-Bookholt
ALDI Nord,Angelbecker Str. 1,49624, Löningen
ALDI Nord,Löninger Str. 10,49770, Herzlake
ALDI Nord,Emsteker Str. 30/32a,49661, Cloppenburg
ALDI Nord,Warthestr. 14-18,49661, Cloppenburg
ALDI Nord,Lähdener Str. 2,49740, Haselünne
ALDI Nord,Meppener Str. 22b,49744, Geeste
ALDI Nord,Alter Schützenplatz 1,49696, Molbergen
ALDI Nord,Veldhausener Str. 65-69,49828, Neuenhaus
ALDI Nord,Gölenkamper Str. 5,49843, Uelsen
ALDI Nord,Fürstenbergstr. 15,49716, Meppen-Kuhweide
ALDI Nord,Hasebrinkstr. 11,49716, Meppen-Neustadt
ALDI Nord,Grabbestr. 2,49716, Meppen-Esterfeld
ALDI Nord,Nikolausdorfer Str. 3,49681, Garrel
ALDI Nord,Harrenstätter Str. 5,49757, Werlte
ALDI Nord,Overbergstr. 18,49767, Twist
ALDI Nord,Knippers Kohlenhof 5,49751, Sögel
ALDI Nord,Mühlenstr. 1,49824, Emlichheim
ALDI Nord,Lange Str. 73-77,49733, Haren
ALDI Nord,Rütenbrocker Str. 24,49733, Haren
ALDI Nord,Kreuzstr. 6-8,49762, Lathen-Kathen-Frackel
ALDI Nord,Ludwig-Koch-Str. 4,57334, Bad Laasphe
ALDI Nord,Hagener Str. 13,57234, Wilnsdorf
ALDI Nord,Kälberhof 21,57250, Netphen-Deuz
ALDI Nord,Leimbachstr. 185,57074, Siegen
ALDI Nord,Poststr. 59,57319, Bad Berleburg
ALDI Nord,Marienborner Str. 259,57074, Siegen
ALDI Nord,Mühlenweg 18,57339, Erndtebrück
ALDI Nord,Vopeliusstr. 2-4,59964, Medebach
ALDI Nord,Hagener Str. 9,57072, Siegen
ALDI Nord,Känerbergstr. 16,57076, Siegen-Weidenau
ALDI Nord,Im Grunde 5,57250, Netphen-Dreis-Tiefenbach
ALDI Nord,Alte Schulstr. 2,57223, Kreuztal
ALDI Nord,Neue Mitte 3,59955, Winterberg
ALDI Nord,Marburger Str. 388,57223, Kreuztal-Kredenbach
ALDI Nord,Hagener Str. 193,57223, Kreuztal-Bockenbach
ALDI Nord,Bahnhofstr. 42a,57392, Schmallenberg
ALDI Nord,Alter Bahnhof 26,57392, Bad Fredeburg
ALDI Nord,Herrntroper Str. 76,57399, Kirchhundem
ALDI Nord,Hauptstr. 15-19,57482, Wenden
ALDI Nord,Hundemstr. 44,57368, Lennestadt-Altenhundem
ALDI Nord,Westfälische Str. 94,57462, Olpe
ALDI Nord,Kölner Str. 86c,57368, Grevenbrück
ALDI Nord,Fruges Str. 2,59939, Olsberg
ALDI Nord,Mühlenweg 7,59929, Brilon
ALDI Nord,In der Hützenau 2,57489, Drolshagen
ALDI Nord,Bamenohler Str. 26,57413, Finnentrop
ALDI Nord,Am Zollstock 51,57439, Attendorn
ALDI Nord,Tölckestr. 6,59889, Eslohe
ALDI Nord,Henneweide 30,51702, Bergneustadt-Hackenberg
ALDI Nord,Kölner Str. 2-14,51702, Bergneustadt
ALDI Nord,Le-Puy-Str. 24,59872, Meschede
ALDI Nord,Im schwarzen Bruch 14,59872, Meschede
ALDI Nord,Krummenohler Str. 2,51645, Gummersbach
ALDI Nord,Beckestr. 57,51647, Gummersbach-Reininghausen
ALDI Nord,Herscheider Str. 14-16,58840, Plettenberg
ALDI Nord,Alte Kreisstr. 15,59581, Warstein-Suttrop
ALDI Nord,Lindenstr. 18,58540, Meinerzhagen
ALDI Nord,Gummersbacher Str. 137,51709, Marienheide
ALDI Nord,Lippstädter Str. 1-3,59602, Rüthen
ALDI Nord,Röhre 32,59846, Sundern
ALDI Nord,Lennestr. 59,58840, Plettenberg
ALDI Nord,Gelpestr. 49,51647, Gummersbach
ALDI Nord,Widayweg 4,59823, Arnsberg
ALDI Nord,Friedrich-Ebert-Str. 294-296,58566, Kierspe
ALDI Nord,Zum Schützenhof 51,59821, Arnsberg
ALDI Nord,Fritz-Josephs-Str. 4a,59581, Warstein-Sichtigvor
ALDI Nord,Heinrichstr. 6,58791, Werdohl
ALDI Nord,Herscheider Landstr. 91,58515, Lüdenscheid-Hellersen
ALDI Nord,Bräuckenstr. 83,58511, Lüdenscheid
ALDI Nord,Wannestr. 2,59823, Arnsberg
ALDI Nord,Hönnetalstr. 34-36,58802, Balve
ALDI Nord,Kölner Str. 90,58509, Lüdenscheid
ALDI Nord,Altenaer Str. 29,58762, Altena
ALDI Nord,Hohe Steinert 5,58509, Lüdenscheid
ALDI Nord,Lindenweg 5,59590, Geseke
ALDI Nord,Bahnhofsstr. 28,58553, Halver
ALDI Nord,Berlingser Weg 8,59519, Möhnesee
ALDI Nord,Eichendorffstr. 2,59759, Arnsberg
ALDI Nord,Wemberweg 2,59597, Erwitte
ALDI Nord,Bahnhofstr. 60,58762, Altena
ALDI Nord,Hülscheider Str. 31,58579, Schalksmühle
ALDI Nord,Hälverstr. 51,58579, Schalksmühle-Reeswinkel
ALDI Nord,Im Ohl 16b,59757, Arnsberg
ALDI Nord,Bahnhofstr. 4-8,58675, Hemer
ALDI Nord,Heinrich-Böll-Str. 3,58710, Menden-Lendringsen
ALDI Nord,Kaiser-Otto-Weg 7,59494, Soest
ALDI Nord,Planckstr. 10,59557, Lippstadt
ALDI Nord,Schützenstr. 65,59505, Bad Sassendorf
ALDI Nord,Riga-Ring 11,59494, Soest
ALDI Nord,Im Wiesengrund 14,58636, Iserlohn-Wermingsen
ALDI Nord,An der Windmühle 2,59469, Ense-Parsit
ALDI Nord,Otto-Hahn-Str. 17,59557, Lippstadt
ALDI Nord,Am Mondschein 29,59557, Lippstadt
ALDI Nord,Boleweg 14,59494, Soest
ALDI Nord,Untergrüner Str. 210,58644, Iserlohn
ALDI Nord,Baarstr. 47-49,58636, Iserlohn
ALDI Nord,Marktstr. 5,59555, Lippstadt
ALDI Nord,Windmühlenstr. 28,58339, Breckerfeld
ALDI Nord,Untere Promenade 12,58706, Menden
ALDI Nord,Bergenring 1,59494, Soest
ALDI Nord,An Pater und Nonne 3a,58642, Iserlohn-Letmathe
ALDI Nord,Christian-Liebrecht-Str. 3a,58739, Wickede
ALDI Nord,Sümmerner Str. 91,58640, Iserlohn
ALDI Nord,Stuckenacker 5,58708, Menden
ALDI Nord,Cappeler Stiftsallee 72,59555, Lippstadt
ALDI Nord,Bahnstr. 11,58119, Hagen-Hohenlimburg
ALDI Nord,Esserstr. 15,58119, Hagen-Hohenlimburg
ALDI Nord,Refflingser Str. 2,58640, Iserlohn
ALDI Nord,Bruayplatz 2,58730, Fröndenberg
ALDI Nord,Wulf-Hefe-Str. 2,59457, Werl
ALDI Nord,Am Bahnhof 5,59510, Lippetal
ALDI Nord,Eilper Str. 69,58095, Hagen-Eilpe
ALDI Nord,Wasserloses Tal 29,58093, Hagen
ALDI Nord,Belgische Str. 2,59457, Werl
ALDI Nord,Hagener Str. 2,58256, Ennepetal-Voerde
ALDI Nord,Milsper Str. 222,58256, Ennepetal
ALDI Nord,Wehringhauser Str. 81-85,58089, Hagen
ALDI Nord,Zollstr. 1,58089, Hagen-Ischeland
ALDI Nord,Ladestr. 34,59514, Welver
ALDI Nord,Boeler Str. 115,58097, Hagen-Ischeland
ALDI Nord,Mühlenfeldstr. 3,59329, Wadersloh
ALDI Nord,Zwischen den Wegen 4,58239, Schwerte-Geisecke
ALDI Nord,Enneper Str. 146a,58135, Hagen
ALDI Nord,Hagener Str. 220,58285, Gevelsberg
ALDI Nord,Kölner Str. 317,58256, Ennepetal
ALDI Nord,Prinzenstr. 27,58332, Schwelm
ALDI Nord,Margot-Röttger-Rath-Str. 3,58239, Schwerte
ALDI Nord,Schwerter Str. 192,58099, Hagen
ALDI Nord,Haßlinghauser Str. 21,58285, Gevelsberg
ALDI Nord,Metzer Str. 78,58332, Schwelm
ALDI Nord,Ophauser Str. 36,58089, Hagen-Vorhalle
ALDI Nord,Schöllinger Feld 1,58300, Wetter
ALDI Nord,Stiftsstr. 11,58313, Herdecke
ALDI Nord,Schöntaler Str. 44b,58300, Wetter-Alt-Wetter
ALDI Nord,Stehfenstr. 8,59439, Holzwickede
ALDI Nord,Weberstr. 3,59423, Unna
ALDI Nord,Kamener Str. 13,59425, Unna
ALDI Nord,Marmelinghöfener Weg 3,59199, Boenen
ALDI Nord,Lippweg 16,59269, Beckum
ALDI Nord,Werler Str. 244,59063, Hamm-Berge
ALDI Nord,Bommerfelder Ring 108,58452, Witten-Bommern
ALDI Nord,Moritz-Bacharach-Str. 7,59071, Hamm-Werries
ALDI Nord,Hemsack 6,59174, Kamen-Kamen-Mitte
ALDI Nord,Cheruskerstr. 14,59269, Beckum
ALDI Nord,Grünstr. 102,59063, Hamm
ALDI Nord,Lünener Str. 225,59174, Kamen-Kamen-Mitte
ALDI Nord,Arthur-Imhausen Str. 26,58453, Witten
ALDI Nord,Kamener Str. 148,59077, Hamm
ALDI Nord,Dortmunder Str. 99,58453, Witten-Annen
ALDI Nord,Lohauserholzstr. 4b,59067, Hamm-Hamm-Westen
ALDI Nord,Herbeder Str. 10-12,58455, Witten
ALDI Nord,Lindenstr. 11,59302, Oelde
ALDI Nord,Geschwister-Scholl-Str. 2,59192, Bergkamen-Overberge
ALDI Nord,Dortmunder Str. 253,59077, Hamm
ALDI Nord,Hellweg 46a,58455, Witten-Heven
ALDI Nord,Kleine Amtsstr. 9,59073, Hamm-Heessen
ALDI Nord,Haselnussweg 2,59269, Beckum-Neubeckum
ALDI Nord,Kleiwellenfeld 27,59229, Ahlen
ALDI Nord,Rünther Str. 151,59192, Bergkamen
ALDI Nord,Jahnstr. 90c,59192, Bergkamen-Oberaden
ALDI Nord,Am Dahlhof 2,59075, Hamm
ALDI Nord,Ostbredenstr. 77,59229, Ahlen
ALDI Nord,Klöcknerstr. 3,59368, Werne
ALDI Nord,Ostenfelder Str. 5-7,59320, Ennigerloh
ALDI Nord,Am Bahnhof 6,59368, Werne
ALDI Nord,Münsterstr. 29,59387, Ascheberg
ALDI Nord,Alte Zechenbahn 17,59379, Selm
ALDI Nord,An der Post 2,59394, Nordkirchen
ALDI Nord,Lüdinghauser Str. 7,59387, Ascheberg
ALDI Nord,Marktplatz 3,59399, Olfen
ALDI Nord,Geschwister-Scholl - Str. 26,59348, Lüdinghausen
ALDI Nord,Dülmener Str. 28,59348, Lüdinghausen
ALDI Nord,Coburger Str. 76,98673, Eisfeld
ALDI Nord,Coburger Str. 26,98646, Hildburghausen-Wallrabs
ALDI Nord,Sonneberger Str. 246,98724, Neuhaus/Rennw.
ALDI Nord,Suhler Str. 32-42,98553, Schleusingen
ALDI Nord,Würzburger Str. 35,98529, Suhl
ALDI Nord,Leipziger Str. 82,98617, Meiningen
ALDI Nord,Industriestr. 4-6,98544, Zella
ALDI Nord,Joh.-Fr.-Böttger-Str. 17,98693, Ilmenau
ALDI Nord,Ziolkowskistr. 25,98693, Ilmenau
ALDI Nord,Bahnhofstr. 16,98587, Steinbach-Hallenberg
ALDI Nord,Kasseler Str. 42,98574, Schmalkalden
ALDI Nord,Stadtilmer Str. 100,99310, Arnstadt
ALDI Nord,August-Bebel-Str. 12,99444, Blankenhain
ALDI Nord,Ichtershäuser Str. 47-49,99310, Arnstadt
ALDI Nord,Alte Ziegelei 1,99885, Ohrdruf
ALDI Nord,Am Drosselberg 47,99097, Erfurt
ALDI Nord,Ohrdrufer Str. 10,99880, Waltershausen
ALDI Nord,Jean-Sibelius-Str. 24,99427, Weimar
ALDI Nord,Friedensstr. 1,99423, Weimar
ALDI Nord,Hermsdorfer Str. 4,99099, Erfurt-Daberstedt
ALDI Nord,Augustmauer 4,99084, Erfurt-Altstadt
ALDI Nord,Marcel-Paul-Str. 156a,99427, Weimar
ALDI Nord,Coburger Platz 2,99867, Gotha
ALDI Nord,Schlachthofstr. 23,99085, Erfurt-Johannesvorstadt
ALDI Nord,Oststr. 54-56,99867, Gotha
ALDI Nord,Berliner Platz 4,99091, Erfurt-Berliner Platz
ALDI Nord,Scheidemantelweg 9,99091, Erfurt-Gispersleben
ALDI Nord,Am Weimarer Berg 1,99510, Apolda
ALDI Nord,Am Rotberg 50,99848, Wutha-Farnroda
ALDI Nord,Altstadtstr. 2-4,99817, Eisenach
ALDI Nord,An der Karlskuppe 9,99817, Eisenach
ALDI Nord,Erfurter Str. 46,99610, Sömmerda
ALDI Nord,Goethestr. 7,99947, Bad Langensalza
ALDI Nord,Weimarische Str. 1A,99625, Kölleda
ALDI Nord,Nordhäuser Str. 77,99718, Greußen
ALDI Nord,Kreuzgraben 5,99974, Mühlhausen
ALDI Nord,Oststr. 2,99994, Schlotheim
ALDI Nord,Am langen Rasen 4,99974, Mühlhausen
ALDI Nord,Erfurter Str. 12a,99706, Sondershausen
ALDI Nord,Uthleber Weg 21,99734, Nordhausen
ALDI Nord,Wilhelm-Raabe-Str. 1,99734, Nordhausen
ALDI Nord,Stolberger Str. 134,99734, Nordhausen
