Name,Street,Zip Code,Address
Penny,Elsterstr. 49,8626, Adorf
Penny,Elsterstr. 49,8626, Adorf
Penny,Lessingstr. 34,8626, Adorf
Penny,Lessingstr. 34,8626, Adorf
Penny,Lobensteiner Str. 14,7927, Hirschberg
Penny,Lobensteiner Str. 14,7927, Hirschberg
Penny,Auerbacher Str. 85,8248, Klingenthal
Penny,Auerbacher Str. 85,8248, Klingenthal
Penny,Willy-Brandt-Ring 17,8606, Oelsnitz/Vogtl.
Penny,Willy-Brandt-Ring 17,8606, Oelsnitz/Vogtl.
Penny,Am Alten Hügel 5a,7356, Bad Lobenstein
Penny,Am Alten Hügel 5a,7356, Bad Lobenstein
Penny,Leibnizstr. 4,8527, Plauen
Penny,Leibnizstr. 4,8527, Plauen
Penny,Duererstr. 14,8527, Plauen
Penny,Duererstr. 14,8527, Plauen
Penny,Rosa-Luxemburg-Platz 5,8523, Plauen-Neundorf
Penny,Rosa-Luxemburg-Platz 5,8523, Plauen-Neundorf
Penny,Karlstr. 7,8527, Plauen
Penny,Karlstr. 7,8527, Plauen
Penny,Hangweg 9,8223, Falkenstein
Penny,Hangweg 9,8223, Falkenstein
Penny,Schneeberger Str. 13B,8309, Eibenstock
Penny,Schneeberger Str. 13B,8309, Eibenstock
Penny,Eibenstocker Str. 28A,8304, Schoenheide
Penny,Eibenstocker Str. 28A,8304, Schoenheide
Penny,Talstr. 117,8359, Breitenbrunn
Penny,Talstr. 117,8359, Breitenbrunn
Penny,Neue Wildenauer Str. 1,8237, Steinberg/Ot Rothenkirchen
Penny,Neue Wildenauer Str. 1,8237, Steinberg/Ot Rothenkirchen
Penny,Könitzer Str. 1a,7338, Kaulsdorf
Penny,Könitzer Str. 1a,7338, Kaulsdorf
Penny,Am Eichelteich 1,7318, Saalfeld
Penny,Am Eichelteich 1,7318, Saalfeld
Penny,Alte Bahnhofstr. 2a,8340, Schwarzenberg/Grünstädtel
Penny,Alte Bahnhofstr. 2a,8340, Schwarzenberg/Grünstädtel
Penny,Dr.-Kuelz-Str. 6,8468, Reichenbach Im Vogtland
Penny,Dr.-Kuelz-Str. 6,8468, Reichenbach Im Vogtland
Penny,Oberwiesenthaler Str. 15,9471, Bärenstein
Penny,Oberwiesenthaler Str. 15,9471, Bärenstein
Penny,Neustadtring 4,7973, Greiz
Penny,Neustadtring 4,7973, Greiz
Penny,Bockauer Talstr. 2-6,8280, Aue-Bad Schlema
Penny,Bockauer Talstr. 2-6,8280, Aue-Bad Schlema
Penny,Silberstr. 46,9481, Scheibenberg
Penny,Silberstr. 46,9481, Scheibenberg
Penny,Rudoldtaedter Str. 9,7422, Bad Blankenburg
Penny,Rudoldtaedter Str. 9,7422, Bad Blankenburg
Penny,Seminarstr. 45,8289, Schneeberg
Penny,Seminarstr. 45,8289, Schneeberg
Penny,August-Bebel-Str. 172,8344, Gruenhain-Beierfeld
Penny,August-Bebel-Str. 172,8344, Gruenhain-Beierfeld
Penny,Greizer Str. 2,7957, Langenwetzendorf
Penny,Greizer Str. 2,7957, Langenwetzendorf
Penny,Bahnhofstr. 28,8107, Kirchberg
Penny,Bahnhofstr. 28,8107, Kirchberg
Penny,Gewerbegebiet 1,9471, Koenigswalde
Penny,Gewerbegebiet 1,9471, Koenigswalde
Penny,Ludwig-Jahn-Str. 2,7806, Neustadt An Der Orla
Penny,Ludwig-Jahn-Str. 2,7806, Neustadt An Der Orla
Penny,Große Kirchgasse 67,9456, Annaberg-Buchholz
Penny,Große Kirchgasse 67,9456, Annaberg-Buchholz
Penny,Bahnhofstr. 9a,8115, Lichtentanne
Penny,Bahnhofstr. 9a,8115, Lichtentanne
Penny,Am Steinberg 17A,7987, Teichwolframsdorf
Penny,Am Steinberg 17A,7987, Teichwolframsdorf
Penny,Werdauer Str. 73,8427, Fraureuth
Penny,Werdauer Str. 73,8427, Fraureuth
Penny,Stiftstr. 1,8118, Hartenstein
Penny,Stiftstr. 1,8118, Hartenstein
Penny,Oskar-Arnold-Str. 3,8056, Zwickau
Penny,Oskar-Arnold-Str. 3,8056, Zwickau
Penny,Reichenbacher Str. 50,8056, Zwickau
Penny,Reichenbacher Str. 50,8056, Zwickau
Penny,Gewerbegebiet Nord Nr. 2,9456, Mildenau
Penny,Gewerbegebiet Nord Nr. 2,9456, Mildenau
Penny,Hoelderlinstr. 10,8056, Zwickau
Penny,Hoelderlinstr. 10,8056, Zwickau
Penny,Crimmitschauer Str. 135,8412, Werdau Ot Langenhessen
Penny,Crimmitschauer Str. 135,8412, Werdau Ot Langenhessen
Penny,Ölwiesenweg 1a-j,7768, Kahla
Penny,Ölwiesenweg 1a-j,7768, Kahla
Penny,Poststr. 6,7570, Wünschendorf
Penny,Poststr. 6,7570, Wünschendorf
Penny,St. Jacober Nebenstr. 1a,8132, Mülsen
Penny,St. Jacober Nebenstr. 1a,8132, Mülsen
Penny,Chemnitzer Str. 63,9419, Thum
Penny,Chemnitzer Str. 63,9419, Thum
Penny,Rosenweg 5,9429, Wolkenstein
Penny,Rosenweg 5,9429, Wolkenstein
Penny,Neue Str. 2,9394, Hohndorf
Penny,Neue Str. 2,9394, Hohndorf
Penny,Rudolf-Breitscheid-Str. 15D,9350, Lichtenstein (Sachs) Callenberg
Penny,Rudolf-Breitscheid-Str. 15D,9350, Lichtenstein (Sachs) Callenberg
Penny,Aeussere Annaberger Str. 15,9496, Marienberg
Penny,Aeussere Annaberger Str. 15,9496, Marienberg
Penny,Liebschwitzer Str. 131,7551, Gera
Penny,Liebschwitzer Str. 131,7551, Gera
Penny,Wiesestr. 212,7551, Gera
Penny,Wiesestr. 212,7551, Gera
Penny,Schulstr. 10b,9356, St. Egidien
Penny,Schulstr. 10b,9356, St. Egidien
Penny,Stollberger Str. 1,9353, Oberlungwitz
Penny,Stollberger Str. 1,9353, Oberlungwitz
Penny,Hauptstr. 28,9221, Neukirchen/Erzgeb.
Penny,Hauptstr. 28,9221, Neukirchen/Erzgeb.
Penny,Lampertstr. 5,8371, Glauchau
Penny,Lampertstr. 5,8371, Glauchau
Penny,Rudolf-Breitscheid-Str. 5,9526, Olbernhau
Penny,Rudolf-Breitscheid-Str. 5,9526, Olbernhau
Penny,Am Marktplatz 3,9221, Neukirchen /Erzgeb.
Penny,Am Marktplatz 3,9221, Neukirchen /Erzgeb.
Penny,Wolgograder Allee 207,9123, Chemnitz
Penny,Wolgograder Allee 207,9123, Chemnitz
Penny,Chemnitzer Str. 161A,9224, Chemnitz (Sachs)
Penny,Chemnitzer Str. 161A,9224, Chemnitz (Sachs)
Penny,Am Graebel 1,9405, Zschopau
Penny,Am Graebel 1,9405, Zschopau
Penny,Stollberger Str. 176,9122, Chemnitz/Stelzendorf
Penny,Stollberger Str. 176,9122, Chemnitz/Stelzendorf
Penny,Neuhausener Str. 10,9548, Seiffen
Penny,Neuhausener Str. 10,9548, Seiffen
Penny,Zwickauer Str. 444-450,9117, Chemnitz (Sachs)
Penny,Zwickauer Str. 444-450,9117, Chemnitz (Sachs)
Penny,Altenburger Str. 13A,4639, Goeßnitz
Penny,Altenburger Str. 13A,4639, Goeßnitz
Penny,Altenburger Str. 70,8396, Waldenburg
Penny,Altenburger Str. 70,8396, Waldenburg
Penny,Bernsdorfer Str. 70,9126, Chemnitz (Sachs) Bernsdorf
Penny,Bernsdorfer Str. 70,9126, Chemnitz (Sachs) Bernsdorf
Penny,Clausstr. 75-81,9126, Chemnitz (Sachs)
Penny,Clausstr. 75-81,9126, Chemnitz (Sachs)
Penny,Limbacher Str. 114,9116, Chemnitz (Sachs)
Penny,Limbacher Str. 114,9116, Chemnitz (Sachs)
Penny,Burgstaedter Str. 9,9212, Limbach-Oberfrohna
Penny,Burgstaedter Str. 9,9212, Limbach-Oberfrohna
Penny,Reichsstr. 58,9112, Chemnitz
Penny,Reichsstr. 58,9112, Chemnitz
Penny,Lange Wiese 2,7613, Crossen
Penny,Lange Wiese 2,7613, Crossen
Penny,Heinrich-Schuetz-Str. 62,9130, Chemnitz (Sachs)
Penny,Heinrich-Schuetz-Str. 62,9130, Chemnitz (Sachs)
Penny,Frankenberger Str. 46,9131, Chemnitz (Sachs)
Penny,Frankenberger Str. 46,9131, Chemnitz (Sachs)
Penny,Leipziger Str. 23A,9232, Hartmannsdorf
Penny,Leipziger Str. 23A,9232, Hartmannsdorf
Penny,Großwaltersdorfer Str. 18,9575, Eppendorf
Penny,Großwaltersdorfer Str. 18,9575, Eppendorf
Penny,Seeberstr. 1,9557, Flöha
Penny,Seeberstr. 1,9557, Flöha
Penny,Mittweidaer Str. 56,9249, Taura B Burgstaedt
Penny,Mittweidaer Str. 56,9249, Taura B Burgstaedt
Penny,Muensaer Str. 8,4600, Altenburg
Penny,Muensaer Str. 8,4600, Altenburg
Penny,Hauptstr. 62,9619, Mulda
Penny,Hauptstr. 62,9619, Mulda
Penny,Freiberger Str. 22,9669, Frankenberg
Penny,Freiberger Str. 22,9669, Frankenberg
Penny,Leipziger Str. 17,6712, Kretzschau-Grana
Penny,Leipziger Str. 17,6712, Kretzschau-Grana
Penny,Neue Str. 1,6729, Elsteraue / Ot Tröglitz
Penny,Neue Str. 1,6729, Elsteraue / Ot Tröglitz
Penny,Freiberger Str. 32,9623, Frauenstein
Penny,Freiberger Str. 32,9623, Frauenstein
Penny,Hauptstr. 23A,9618, Brand-Erbisdorf
Penny,Hauptstr. 23A,9618, Brand-Erbisdorf
Penny,Bahnhofplatz 4,1778, Geising
Penny,Bahnhofplatz 4,1778, Geising
Penny,Olbernhauer Str. 70,9599, Freiberg
Penny,Olbernhauer Str. 70,9599, Freiberg
Penny,Goethestr. 3A,6682, Teuchern
Penny,Goethestr. 3A,6682, Teuchern
Penny,Leipziger Str. 33,9599, Freiberg
Penny,Leipziger Str. 33,9599, Freiberg
Penny,Halsbruecker Str. 18,9599, Freiberg
Penny,Halsbruecker Str. 18,9599, Freiberg
Penny,Brueckenstr. 22,9306, Rochlitz
Penny,Brueckenstr. 22,9306, Rochlitz
Penny,Schmiedeberger Markt 1,1744, Dippoldiswalde
Penny,Schmiedeberger Markt 1,1744, Dippoldiswalde
Penny,Friedrich-Ebert-Str. 28,4539, Groitzsch
Penny,Friedrich-Ebert-Str. 28,4539, Groitzsch
Penny,Siedlungsweg 70,1774, Klingenberg
Penny,Siedlungsweg 70,1774, Klingenberg
Penny,Untere Dorfstr. 21b,9600, Halsbrücke / Ot Niederschöna
Penny,Untere Dorfstr. 21b,9600, Halsbrücke / Ot Niederschöna
Penny,Merseburger Str. 5,6667, Weissenfels
Penny,Merseburger Str. 5,6667, Weissenfels
Penny,Steinstr. 3,4736, Waldheim
Penny,Steinstr. 3,4736, Waldheim
Penny,Erich-Weinert-Str. 5B,4651, Bad Lausick
Penny,Erich-Weinert-Str. 5B,4651, Bad Lausick
Penny,Etzdorfer Str. 4,4741, Rosswein
Penny,Etzdorfer Str. 4,4741, Rosswein
Penny,Jahnstr. 34,4564, Böhlen
Penny,Jahnstr. 34,4564, Böhlen
Penny,Pirnaer Str. 11a,1816, Bad Gottleuba
Penny,Pirnaer Str. 11a,1816, Bad Gottleuba
Penny,Fabrikstr. 3,1683, Nossen
Penny,Fabrikstr. 3,1683, Nossen
Penny,Mastener Str. 1,4720, Döbeln
Penny,Mastener Str. 1,4720, Döbeln
Penny,Rosa-Luxemburg-Str. 12,4703, Leisnig
Penny,Rosa-Luxemburg-Str. 12,4703, Leisnig
Penny,Schillerstr. 38,4720, Doebeln
Penny,Schillerstr. 38,4720, Doebeln
Penny,Erlenweg 5,6642, Nebra/Unstrut
Penny,Erlenweg 5,6642, Nebra/Unstrut
Penny,Am Stadion 2,6242, Braunsbedra
Penny,Am Stadion 2,6242, Braunsbedra
Penny,Kreischaer Str. 2B,1728, Possendorf
Penny,Kreischaer Str. 2B,1728, Possendorf
Penny,Badische Str. 3a,4720, Döbeln
Penny,Badische Str. 3a,4720, Döbeln
Penny,Bahnhofstr. 30,1705, Freital
Penny,Bahnhofstr. 30,1705, Freital
Penny,Rehbacher Str. 7,4249, Leipzig
Penny,Rehbacher Str. 7,4249, Leipzig
Penny,Dresdner Str. 8,1809, Dohna
Penny,Dresdner Str. 8,1809, Dohna
Penny,Str. Des Friedens 20,4668, Grimma
Penny,Str. Des Friedens 20,4668, Grimma
Penny,Zehistaer Str. 64,1796, Pirna
Penny,Zehistaer Str. 64,1796, Pirna
Penny,Deutsche Einheit 2,4288, Leipzig Ot Liebertwolkwitz
Penny,Deutsche Einheit 2,4288, Leipzig Ot Liebertwolkwitz
Penny,Großsteinberger Str. 25,4683, Naunhof
Penny,Großsteinberger Str. 25,4683, Naunhof
Penny,Ratzelstr. 166,4209, Leipzig/Gruenau-Nord
Penny,Ratzelstr. 166,4209, Leipzig/Gruenau-Nord
Penny,Zwickauer Str. 125,4279, Leipzig
Penny,Zwickauer Str. 125,4279, Leipzig
Penny,Spitzwegstr. 50,1219, Dresden/Leubnitz-Neuostra
Penny,Spitzwegstr. 50,1219, Dresden/Leubnitz-Neuostra
Penny,Merianplatz 3,1169, Dresden
Penny,Merianplatz 3,1169, Dresden
Penny,Jacob-Winter-Platz 13,1239, Dresden-Reick
Penny,Jacob-Winter-Platz 13,1239, Dresden-Reick
Penny,Jupiterstr. 44,4205, Leipzig/Gruenau-Nord
Penny,Jupiterstr. 44,4205, Leipzig/Gruenau-Nord
Penny,Nulandtstr. 1A,6217, Merseburg (Saale)
Penny,Nulandtstr. 1A,6217, Merseburg (Saale)
Penny,Zschochersche Str. 82b,4229, Leipzig
Penny,Zschochersche Str. 82b,4229, Leipzig
Penny,Cottaer Str. 18,1159, Dresden
Penny,Cottaer Str. 18,1159, Dresden
Penny,Bodenbacher Str. 81b,1277, Dresden
Penny,Bodenbacher Str. 81b,1277, Dresden
Penny,Oeltzschnerstr. 85,6217, Merseburg (Saale)
Penny,Oeltzschnerstr. 85,6217, Merseburg (Saale)
Penny,Kirchstr. 13,4749, Ostrau
Penny,Kirchstr. 13,4749, Ostrau
Penny,Hugo-Koch-Str. 4,4668, Grimma
Penny,Hugo-Koch-Str. 4,4668, Grimma
Penny,Bienerstr. 7,4179, Leipzig/Neulindenau
Penny,Bienerstr. 7,4179, Leipzig/Neulindenau
Penny,Kirchweg 17,1796, Pirna
Penny,Kirchweg 17,1796, Pirna
Penny,Marienberger Str. 36,1279, Dresden
Penny,Marienberger Str. 36,1279, Dresden
Penny,Bahnhofstr. 78,4687, Trebsen/Mulde
Penny,Bahnhofstr. 78,4687, Trebsen/Mulde
Penny,Zweinaundorfer Str. 198,4316, Leipzig/Baalsdorf
Penny,Zweinaundorfer Str. 198,4316, Leipzig/Baalsdorf
Penny,Franz-Mehring-Str 16b,4769, Muegeln
Penny,Franz-Mehring-Str 16b,4769, Muegeln
Penny,Basteistr. 35,1814, Bad Schandau
Penny,Basteistr. 35,1814, Bad Schandau
Penny,Taeubchenweg 71,4317, Leipzig
Penny,Taeubchenweg 71,4317, Leipzig
Penny,Durer Str. 119,1307, Dresden/Johannstadt
Penny,Durer Str. 119,1307, Dresden/Johannstadt
Penny,Ritterstr. 23-25,4109, Leipzig
Penny,Ritterstr. 23-25,4109, Leipzig
Penny,Georg-Schwarz-Str. 131,4179, Leipzig/Leutzsch
Penny,Georg-Schwarz-Str. 131,4179, Leipzig/Leutzsch
Penny,Jessener Str. 2,1623, Lommatzsch
Penny,Jessener Str. 2,1623, Lommatzsch
Penny,Am Bahnhof 23,6246, Bad Lauchstädt
Penny,Am Bahnhof 23,6246, Bad Lauchstädt
Penny,Waldbaurstr. 4-6,4347, Leipzig
Penny,Waldbaurstr. 4-6,4347, Leipzig
Penny,Permoserstr. 50,4328, Leipzig/Sellerhausen-Stuenz
Penny,Permoserstr. 50,4328, Leipzig/Sellerhausen-Stuenz
Penny,Poserstr. 2,4347, Leipzig
Penny,Poserstr. 2,4347, Leipzig
Penny,Georg-Schumann-Str. 50,4155, Leipzig
Penny,Georg-Schumann-Str. 50,4155, Leipzig
Penny,Pfortenplatz 16,6542, Allstedt
Penny,Pfortenplatz 16,6542, Allstedt
Penny,Wurzener Str. 1,4821, Brandis
Penny,Wurzener Str. 1,4821, Brandis
Penny,Waldkerbelstr. 12,4329, Leipzig
Penny,Waldkerbelstr. 12,4329, Leipzig
Penny,Panitzscher Str. 1,4451, Borsdorf
Penny,Panitzscher Str. 1,4451, Borsdorf
Penny,Rosa-Luxemburg-Str. 3,1662, Meissen
Penny,Rosa-Luxemburg-Str. 3,1662, Meissen
Penny,Goldene Hufe 1,4329, Leipzig
Penny,Goldene Hufe 1,4329, Leipzig
Penny,Dresdner Str. 21,1689, Weinboehla
Penny,Dresdner Str. 21,1689, Weinboehla
Penny,Leipziger Str. 49,4828, Bennewitz
Penny,Leipziger Str. 49,4828, Bennewitz
Penny,Frankenhäuser Str. 23,6537, Kelbra
Penny,Frankenhäuser Str. 23,6537, Kelbra
Penny,Striesaer Weg 2,4758, Oschatz
Penny,Striesaer Weg 2,4758, Oschatz
Penny,Marienstr. 3,4808, Wurzen
Penny,Marienstr. 3,4808, Wurzen
Penny,Albert-Heise-Str. 58,6179, Teutschenthal
Penny,Albert-Heise-Str. 58,6179, Teutschenthal
Penny,Schillerstr. 40A,1855, Sebnitz
Penny,Schillerstr. 40A,1855, Sebnitz
Penny,Pirnaer Landstr. 1A,1833, Stolpen
Penny,Pirnaer Landstr. 1A,1833, Stolpen
Penny,Hauptstr. 24,4519, Rackwitz
Penny,Hauptstr. 24,4519, Rackwitz
Penny,Hallesche Str. 30,6536, Suedharz/Rossla
Penny,Hallesche Str. 30,6536, Suedharz/Rossla
Penny,Köchstedter Weg 8,6179, Teutschenthal/Langenbogen
Penny,Köchstedter Weg 8,6179, Teutschenthal/Langenbogen
Penny,Chemnitzer Str. 20,1587, Riesa/Weida
Penny,Chemnitzer Str. 20,1587, Riesa/Weida
Penny,Richard-Paulick-Str. 30-31,6124, Halle
Penny,Richard-Paulick-Str. 30-31,6124, Halle
Penny,Willy-Brandt-Str. 57,6110, Halle (Saale)
Penny,Willy-Brandt-Str. 57,6110, Halle (Saale)
Penny,Bahnhofstr. 98,4774, Dahlen
Penny,Bahnhofstr. 98,4774, Dahlen
Penny,Klötzerstr. 31,1587, Riesa
Penny,Klötzerstr. 31,1587, Riesa
Penny,Am Tulpenbrunnen 6,6122, Halle (Saale)
Penny,Am Tulpenbrunnen 6,6122, Halle (Saale)
Penny,Lise-Meitner-Str. 19A,6122, Halle (Saale)
Penny,Lise-Meitner-Str. 19A,6122, Halle (Saale)
Penny,Breite Str. 15,6108, Halle (Saale)
Penny,Breite Str. 15,6108, Halle (Saale)
Penny,Fritz-Hoffmann-Str. 78,6112, Halle (Saale)
Penny,Fritz-Hoffmann-Str. 78,6112, Halle (Saale)
Penny,Hegelstr. 74,6114, Halle (Saale)
Penny,Hegelstr. 74,6114, Halle (Saale)
Penny,Bahnhofstr. 1,4509, Krostitz
Penny,Bahnhofstr. 1,4509, Krostitz
Penny,Dresdner Str. 25,1458, Ottendorf-Okrilla
Penny,Dresdner Str. 25,1458, Ottendorf-Okrilla
Penny,Dessauer Str. 10,6118, Halle (Saale)
Penny,Dessauer Str. 10,6118, Halle (Saale)
Penny,Doelauer Str. 54,6120, Halle (Saale)
Penny,Doelauer Str. 54,6120, Halle (Saale)
Penny,Dessauer Str. 81,6118, Halle (Saale) Frohe Zukunft
Penny,Dessauer Str. 81,6118, Halle (Saale) Frohe Zukunft
Penny,Kranoldstr. 25,4838, Eilenburg
Penny,Kranoldstr. 25,4838, Eilenburg
Penny,Adolf-Zschiedrich-Str. 2A,1900, Großröhrsdorf
Penny,Adolf-Zschiedrich-Str. 2A,1900, Großröhrsdorf
Penny,Zoerbiger Str. 10,6188, Landsberg
Penny,Zoerbiger Str. 10,6188, Landsberg
Penny,Julius-Ringehan-Str. 35,2785, Olbersdorf
Penny,Julius-Ringehan-Str. 35,2785, Olbersdorf
Penny,Duebener Str. 41a,4509, Delitzsch
Penny,Duebener Str. 41a,4509, Delitzsch
Penny,Bahnhofstr. 46,2689, Sohland
Penny,Bahnhofstr. 46,2689, Sohland
Penny,Reichsstr. 27A,4862, Mockrehna
Penny,Reichsstr. 27A,4862, Mockrehna
Penny,Leipziger Str. 77,2763, Zittau
Penny,Leipziger Str. 77,2763, Zittau
Penny,Luisenstr. 18F,6333, Hettstedt (Sachsen-Anhalt)
Penny,Luisenstr. 18F,6333, Hettstedt (Sachsen-Anhalt)
Penny,Anhalter Str. 6b,6193, Löbejün
Penny,Anhalter Str. 6b,6193, Löbejün
Penny,Dommitzscher Str. 13,4849, Bad Düben
Penny,Dommitzscher Str. 13,4849, Bad Düben
Penny,Wittenberger Str. 3,6749, Bitterfeld
Penny,Wittenberger Str. 3,6749, Bitterfeld
Penny,Elsterwerdaer Str. 25A,1990, Ortrand
Penny,Elsterwerdaer Str. 25A,1990, Ortrand
Penny,Loebauer Str. 45,2747, Herrnhut
Penny,Loebauer Str. 45,2747, Herrnhut
Penny,Tzschirner Str. 16,2625, Bautzen
Penny,Tzschirner Str. 16,2625, Bautzen
Penny,Steinfurther Str. 12B,6766, Wolfen
Penny,Steinfurther Str. 12B,6766, Wolfen
Penny,Saaleplatz 9,6425, Alsleben
Penny,Saaleplatz 9,6425, Alsleben
Penny,Am Carolagarten 1,2625, Bautzen
Penny,Am Carolagarten 1,2625, Bautzen
Penny,Fritz-Weineck-Str. 16,6766, Wolfen
Penny,Fritz-Weineck-Str. 16,6766, Wolfen
Penny,Hoyerswerdaer Str. 136,2625, Kleinwelka
Penny,Hoyerswerdaer Str. 136,2625, Kleinwelka
Penny,Glueck-Auf-Ring 3,4928, Plessa
Penny,Glueck-Auf-Ring 3,4928, Plessa
Penny,Laubaner Str. 37,2708, Loebau
Penny,Laubaner Str. 37,2708, Loebau
Penny,Leipziger Str. 22A,4880, Dommitzsch
Penny,Leipziger Str. 22A,4880, Dommitzsch
Penny,An Den Schrebergaerten 2,2899, Ostritz
Penny,An Den Schrebergaerten 2,2899, Ostritz
Penny,Fr.-Ludwig-Jahn-Str. 21,6366, Koethen
Penny,Fr.-Ludwig-Jahn-Str. 21,6366, Koethen
Penny,Ernst-Thaelmann-Str. 45,2694, Grossdubrau
Penny,Ernst-Thaelmann-Str. 45,2694, Grossdubrau
Penny,Stassfurter Hoehe 75,6449, Aschersleben
Penny,Stassfurter Hoehe 75,6449, Aschersleben
Penny,R.-Luxemburg-Str. 68A,6773, Gräfenhainichen
Penny,R.-Luxemburg-Str. 68A,6773, Gräfenhainichen
Penny,Kemberger Str. 1B,6905, Bad Schmiedeberg
Penny,Kemberger Str. 1B,6905, Bad Schmiedeberg
Penny,Ruhlander Str. 73,1987, Schwarzheide
Penny,Ruhlander Str. 73,1987, Schwarzheide
Penny,Ernst-Thaelmann-Str. 9,2627, Weissenberg
Penny,Ernst-Thaelmann-Str. 9,2627, Weissenberg
Penny,Loebauer Str. 25,2894, Reichenbach
Penny,Loebauer Str. 25,2894, Reichenbach
Penny,Bahnhofstr. 24,6406, Bernburg
Penny,Bahnhofstr. 24,6406, Bernburg
Penny,Breite Str. 97,6406, Bernburg
Penny,Breite Str. 97,6406, Bernburg
Penny,Ernst-Thaelmann-Str. 37,6386, Osternienburg
Penny,Ernst-Thaelmann-Str. 37,6386, Osternienburg
Penny,Heidestr. 285,6849, Dessau-Rosslau/Sued
Penny,Heidestr. 285,6849, Dessau-Rosslau/Sued
Penny,Leipziger Str. 86,6901, Kemberg
Penny,Leipziger Str. 86,6901, Kemberg
Penny,Ruhlander Str. 19,1993, Schipkau
Penny,Ruhlander Str. 19,1993, Schipkau
Penny,Sandwäsche 1,2977, Schwarzkollm
Penny,Sandwäsche 1,2977, Schwarzkollm
Penny,Schlosstr. 78,6785, Oranienbaum
Penny,Schlosstr. 78,6785, Oranienbaum
Penny,Grochwitzer Str. 2A,4916, Herzberg/Elster
Penny,Grochwitzer Str. 2A,4916, Herzberg/Elster
Penny,Briesker Str. 80,1968, Senftenberg
Penny,Briesker Str. 80,1968, Senftenberg
Penny,Franzstr. 85,6842, Dessau-Roßlau
Penny,Franzstr. 85,6842, Dessau-Roßlau
Penny,Hoffmann-Von-Fallersleben-Str. 47,2977, Hoyerswerda
Penny,Hoffmann-Von-Fallersleben-Str. 47,2977, Hoyerswerda
Penny,Hauptstr. 150,6846, Dessau-Roßlau
Penny,Hauptstr. 150,6846, Dessau-Roßlau
Penny,Dessauer Landstr. 14,6385, Aken
Penny,Dessauer Landstr. 14,6385, Aken
Penny,Am Park 23,2999, Lohsa
Penny,Am Park 23,2999, Lohsa
Penny,Bahnhofstr. 79,2826, Goerlitz
Penny,Bahnhofstr. 79,2826, Goerlitz
Penny,Cottbuser Tor 1,2977, Hoyerswerda
Penny,Cottbuser Tor 1,2977, Hoyerswerda
Penny,Magdeburger Str. 81,6862, Rosslau
Penny,Magdeburger Str. 81,6862, Rosslau
Penny,Dessauer Str. 13 13,6886, Lutherstadt Wittenberg
Penny,Dessauer Str. 13 13,6886, Lutherstadt Wittenberg
Penny,Rothenburger Str. 23,2906, Niesky
Penny,Rothenburger Str. 23,2906, Niesky
Penny,Am Bahnhof 8,2906, Niesky
Penny,Am Bahnhof 8,2906, Niesky
Penny,Friedrichstr. 78,6886, Lutherstadt Wittenberg
Penny,Friedrichstr. 78,6886, Lutherstadt Wittenberg
Penny,Forsthausweg 1,2956, Rietschen
Penny,Forsthausweg 1,2956, Rietschen
Penny,Berliner Str. 60,3130, Spremberg
Penny,Berliner Str. 60,3130, Spremberg
Penny,Drebkauer Hauptstr. 5,3116, Drebkau
Penny,Drebkauer Hauptstr. 5,3116, Drebkau
Penny,Gablenzer Str. 10,2953, Bad Muskau
Penny,Gablenzer Str. 10,2953, Bad Muskau
Penny,Pestalozzistr. 5,3226, Vetschau
Penny,Pestalozzistr. 5,3226, Vetschau
Penny,Am Gewerbepark 10,3058, Cottbus/Gallinchen
Penny,Am Gewerbepark 10,3058, Cottbus/Gallinchen
Penny,Turower Str. 62,3048, Cottbus
Penny,Turower Str. 62,3048, Cottbus
Penny,Schweriner Straße 1,3046, Cottbus
Penny,Schweriner Straße 1,3046, Cottbus
Penny,Karl-Liebknecht-Str. 136,3046, Cottbus
Penny,Karl-Liebknecht-Str. 136,3046, Cottbus
Penny,Bahnhofstr. 15C,3096, Burg
Penny,Bahnhofstr. 15C,3096, Burg
Penny,Herzberger Str. 37,14913, Jüterbog
Penny,Herzberger Str. 37,14913, Jüterbog
Penny,Leipziger Str. 152,14929, Treuenbrietzen
Penny,Leipziger Str. 152,14929, Treuenbrietzen
Penny,Str. Der Einheit 7,15938, Golßen
Penny,Str. Der Einheit 7,15938, Golßen
Penny,Frankfurter Str. 104a,15907, Lübben
Penny,Frankfurter Str. 104a,15907, Lübben
Penny,Berliner Str. 20,15746, Gross Koeris
Penny,Berliner Str. 20,15746, Gross Koeris
Penny,Potsdamer Str. 86-88,14974, Ludwigsfelde (Brandenburg)
Penny,Potsdamer Str. 86-88,14974, Ludwigsfelde (Brandenburg)
Penny,Jacobstr. 2-3,14776, Brandenburg
Penny,Jacobstr. 2-3,14776, Brandenburg
Penny,Willi-Sänger-Str. 46a,14776, Brandenburg
Penny,Willi-Sänger-Str. 46a,14776, Brandenburg
Penny,Veilchenweg 2,14772, Brandenburg
Penny,Veilchenweg 2,14772, Brandenburg
Penny,Karl-Liebknecht-Str. 159a-c,15711, Koenigs Wusterhausen
Penny,Karl-Liebknecht-Str. 159a-c,15711, Koenigs Wusterhausen
Penny,Neuendorfer Str. 15,14480, Potsdam
Penny,Neuendorfer Str. 15,14480, Potsdam
Penny,Karl-Marx-Str. 170,15713, Wusterhausen Ot Niederlehme
Penny,Karl-Marx-Str. 170,15713, Wusterhausen Ot Niederlehme
Penny,Berliner Str. 98,14979, Grossbeeren
Penny,Berliner Str. 98,14979, Grossbeeren
Penny,Potsdamer Allee 102-106,14532, Stahnsdorf
Penny,Potsdamer Allee 102-106,14532, Stahnsdorf
Penny,Chausseestr. 2,15745, Wildau
Penny,Chausseestr. 2,15745, Wildau
Penny,Alexander-Klein-Str. 4,14469, Potsdam
Penny,Alexander-Klein-Str. 4,14469, Potsdam
Penny,Rudolf-Breitscheid-Str. 2,15848, Beeskow
Penny,Rudolf-Breitscheid-Str. 2,15848, Beeskow
Penny,Zehlendorfer Damm 118,14532, Kleinmachnow
Penny,Zehlendorfer Damm 118,14532, Kleinmachnow
Penny,Lichterfelder Allee 7,14513, Teltow
Penny,Lichterfelder Allee 7,14513, Teltow
Penny,Osdorfer Str. 98,12207, Berlin/Lichterfelde
Penny,Osdorfer Str. 98,12207, Berlin/Lichterfelde
Penny,Goethestr. 64-66,12305, Berlin-Lichtenrade
Penny,Goethestr. 64-66,12305, Berlin-Lichtenrade
Penny,Potsdamer Chaussee 102,14476, Gross Glienicke
Penny,Potsdamer Chaussee 102,14476, Gross Glienicke
Penny,Marienfelder Chaussee 6,12349, Berlin/Buckow
Penny,Marienfelder Chaussee 6,12349, Berlin/Buckow
Penny,Kamenzer Damm 86,12249, Berlin-Lankwitz-Lankwitz
Penny,Kamenzer Damm 86,12249, Berlin-Lankwitz-Lankwitz
Penny,Hortensienstr. 28,12203, Berlin/Lichterfelde
Penny,Hortensienstr. 28,12203, Berlin/Lichterfelde
Penny,Mariendorfer Damm 153-157,12107, Berlin/Mariendorf
Penny,Mariendorfer Damm 153-157,12107, Berlin/Mariendorf
Penny,Steglitzer Damm 18-22,12167, Berlin/Steglitz
Penny,Steglitzer Damm 18-22,12167, Berlin/Steglitz
Penny,Rudower Str. 136-138,12351, Berlin/Buckow
Penny,Rudower Str. 136-138,12351, Berlin/Buckow
Penny,Dardanellenweg 50,12109, Berlin-Mariendorf
Penny,Dardanellenweg 50,12109, Berlin-Mariendorf
Penny,Eisenhutweg 93,12487, Berlin
Penny,Eisenhutweg 93,12487, Berlin
Penny,Nordpassage 1,15890, Eisenhüttenstadt
Penny,Nordpassage 1,15890, Eisenhüttenstadt
Penny,Britzer Damm 73,12347, Berlin/Britz
Penny,Britzer Damm 73,12347, Berlin/Britz
Penny,Glienicker Str. 60,12557, Berlin/Koepenick
Penny,Glienicker Str. 60,12557, Berlin/Koepenick
Penny,Wendenschlossstr. 154-174,12559, Berlin/Koepenick
Penny,Wendenschlossstr. 154-174,12559, Berlin/Koepenick
Penny,Dominicusstr. 37,10827, Berlin/Schöneberg
Penny,Dominicusstr. 37,10827, Berlin/Schöneberg
Penny,Emser Str. 1-2,12051, Berlin/Neukoelln
Penny,Emser Str. 1-2,12051, Berlin/Neukoelln
Penny,Neuzittauer Str. 41,15537, Erkner
Penny,Neuzittauer Str. 41,15537, Erkner
Penny,Tempelhofer Damm 24-30,12101, Berlin/Tempelhof
Penny,Tempelhofer Damm 24-30,12101, Berlin/Tempelhof
Penny,Grunewaldstr. 36-37,10823, Berlin/Schoeneberg
Penny,Grunewaldstr. 36-37,10823, Berlin/Schoeneberg
Penny,Richardstr. 52,12055, Berlin-Neukölln
Penny,Richardstr. 52,12055, Berlin-Neukölln
Penny,Wilhelminenhofstr. 89a,12459, Berlin-Oberschöneweide
Penny,Wilhelminenhofstr. 89a,12459, Berlin-Oberschöneweide
Penny,Heerstr. 378-382,13593, Berlin/Spandau
Penny,Heerstr. 378-382,13593, Berlin/Spandau
Penny,Kurfuerstendamm 156,10709, Berlin/Wilmersdorf
Penny,Kurfuerstendamm 156,10709, Berlin/Wilmersdorf
Penny,Flughafenstr. 45-47,12053, Berlin-Neukölln
Penny,Flughafenstr. 45-47,12053, Berlin-Neukölln
Penny,Pichelsdorfer Str. 63,13595, Berlin/Spandau
Penny,Pichelsdorfer Str. 63,13595, Berlin/Spandau
Penny,Winterfeldtstr. 74,10781, Berlin/Schöneberg
Penny,Winterfeldtstr. 74,10781, Berlin/Schöneberg
Penny,Bahnhofst. 129-161,14624, Dallgow-Döberitz
Penny,Bahnhofst. 129-161,14624, Dallgow-Döberitz
Penny,Kottbusser Damm 66,10967, Berlin/Neukoelln
Penny,Kottbusser Damm 66,10967, Berlin/Neukoelln
Penny,Mahlsdorfer Str. 97e,12555, Berlin/Köpenick
Penny,Mahlsdorfer Str. 97e,12555, Berlin/Köpenick
Penny,Leibnitzstr. 23,10625, Berlin/Charlottenburg
Penny,Leibnitzstr. 23,10625, Berlin/Charlottenburg
Penny,Brunsbuetteler Damm 196,13581, Berlin/Spandau
Penny,Brunsbuetteler Damm 196,13581, Berlin/Spandau
Penny,Wilmersdorfer Str. 32-33,10585, Berlin/Charlottenburg
Penny,Wilmersdorfer Str. 32-33,10585, Berlin/Charlottenburg
Penny,Klausenerplatz 7,14059, Berlin/Charlottenburg
Penny,Klausenerplatz 7,14059, Berlin/Charlottenburg
Penny,Reichenberger Str. 57,10999, Berlin
Penny,Reichenberger Str. 57,10999, Berlin
Penny,Eisenbahnstr. 37,15517, Fuerstenwalde
Penny,Eisenbahnstr. 37,15517, Fuerstenwalde
Penny,Treskowallee 112,10318, Berlin
Penny,Treskowallee 112,10318, Berlin
Penny,Friedrichstr. 67-70,10117, Berlin / Mitte-Mitte
Penny,Friedrichstr. 67-70,10117, Berlin / Mitte-Mitte
Penny,Pappelallee 90,14656, Brieselang/Zeestow
Penny,Pappelallee 90,14656, Brieselang/Zeestow
Penny,Am Kiesteich 61-63,13589, Berlin/Spandau
Penny,Am Kiesteich 61-63,13589, Berlin/Spandau
Penny,Turmstr. 68-69,10551, Berlin/Tiergarten
Penny,Turmstr. 68-69,10551, Berlin/Tiergarten
Penny,Askanierring 40,13585, Berlin/Spandau
Penny,Askanierring 40,13585, Berlin/Spandau
Penny,Am Ostbahnhof 9,10243, Berlin-Friedrichshain
Penny,Am Ostbahnhof 9,10243, Berlin-Friedrichshain
Penny,Alt Moabit 9,10557, Berlin/Tiergarten
Penny,Alt Moabit 9,10557, Berlin/Tiergarten
Penny,Volkradstr. 32,10319, Berlin / Friedrichsfelde-Friedrichsfelde
Penny,Volkradstr. 32,10319, Berlin / Friedrichsfelde-Friedrichsfelde
Penny,Boxhagener Str. 80,10245, Berlin
Penny,Boxhagener Str. 80,10245, Berlin
Penny,Fehrbelliner Str. 29,13585, Berlin-Spandau
Penny,Fehrbelliner Str. 29,13585, Berlin-Spandau
Penny,Stephanstr. 30,10559, Berlin/Tiergarten
Penny,Stephanstr. 30,10559, Berlin/Tiergarten
Penny,Weitlingstr. 9,10317, Berlin
Penny,Weitlingstr. 9,10317, Berlin
Penny,Rauchstr. 19,13587, Berlin/Spandau
Penny,Rauchstr. 19,13587, Berlin/Spandau
Penny,H.Blankenstein-Str. 40,10249, Berlin/Prenzlauer Berg
Penny,H.Blankenstein-Str. 40,10249, Berlin/Prenzlauer Berg
Penny,Seddiner Str. 8,10315, Berlin
Penny,Seddiner Str. 8,10315, Berlin
Penny,Alt-Kaulsdorf 2,12621, Berlin/Kaulsdorf
Penny,Alt-Kaulsdorf 2,12621, Berlin/Kaulsdorf
Penny,Dammstr. 24,14641, Nauen
Penny,Dammstr. 24,14641, Nauen
Penny,Gerichtstr. 4,13347, Berlin/Gesundbrunnen
Penny,Gerichtstr. 4,13347, Berlin/Gesundbrunnen
Penny,Kulmseestr. 9,12683, Berlin-Biesdorf
Penny,Kulmseestr. 9,12683, Berlin-Biesdorf
Penny,Brunnenstr. 75,13355, Berlin
Penny,Brunnenstr. 75,13355, Berlin
Penny,Muellerstr. 40,13353, Berlin/Wedding
Penny,Muellerstr. 40,13353, Berlin/Wedding
Penny,Alt-Mahlsdorf 48-49,12623, Berlin/Mahlsdorf
Penny,Alt-Mahlsdorf 48-49,12623, Berlin/Mahlsdorf
Penny,Reinickendorfer Str. 83,13347, Berlin/Wedding
Penny,Reinickendorfer Str. 83,13347, Berlin/Wedding
Penny,Prenzlauer Allee 181,10405, Berlin/Prenzlauer Berg
Penny,Prenzlauer Allee 181,10405, Berlin/Prenzlauer Berg
Penny,Grellstr. 75,10409, Berlin / Prenzlauer Berg-Prenzlauer Berg
Penny,Grellstr. 75,10409, Berlin / Prenzlauer Berg-Prenzlauer Berg
Penny,Hellersdorfer Str. 77-83,12619, Berlin
Penny,Hellersdorfer Str. 77-83,12619, Berlin
Penny,Prinzenallee 55-56,13359, Berlin/Wedding
Penny,Prinzenallee 55-56,13359, Berlin/Wedding
Penny,Wisbyer Str. 38,13189, Berlin/Pankow
Penny,Wisbyer Str. 38,13189, Berlin/Pankow
Penny,Pankower Allee 47-49,13409, Berlin-Reinickendorf-Reinickendorf
Penny,Pankower Allee 47-49,13409, Berlin-Reinickendorf-Reinickendorf
Penny,Berliner Str. 99,13189, Berlin/Pankow
Penny,Berliner Str. 99,13189, Berlin/Pankow
Penny,Neue Grottkauer Str. 3,12619, Berlin
Penny,Neue Grottkauer Str. 3,12619, Berlin
Penny,Residenzstr. 11,13409, Berlin/Reinickendorf
Penny,Residenzstr. 11,13409, Berlin/Reinickendorf
Penny,Scheibenbergstr. 20,12685, Berlin/Marzahn
Penny,Scheibenbergstr. 20,12685, Berlin/Marzahn
Penny,Cottbuser Platz 2,12627, Berlin
Penny,Cottbuser Platz 2,12627, Berlin
Penny,Alexej-Leonow-Str. 2a-d,15236, Frankfurt (Oder)
Penny,Alexej-Leonow-Str. 2a-d,15236, Frankfurt (Oder)
Penny,Hohensaatener Str. 18,12679, Berlin
Penny,Hohensaatener Str. 18,12679, Berlin
Penny,Hermann-Hesse-Str. 6,13156, Berlin-Pankow
Penny,Hermann-Hesse-Str. 6,13156, Berlin-Pankow
Penny,Hermsdorfer Str. 73,13437, Berlin/Wittenau
Penny,Hermsdorfer Str. 73,13437, Berlin/Wittenau
Penny,Stienitzstr. 15,15366, Hoppegarten/Hoenow
Penny,Stienitzstr. 15,15366, Hoppegarten/Hoenow
Penny,Welsestr. 56-58,13057, Berlin-Hohenschönhausen
Penny,Welsestr. 56-58,13057, Berlin-Hohenschönhausen
Penny,Mierwerder Weg 100,15370, Petershagen/Eggersdorf
Penny,Mierwerder Weg 100,15370, Petershagen/Eggersdorf
Penny,Oberweißbacher Str. 2-4,12687, Berlin / Marzahn-Marzahn
Penny,Oberweißbacher Str. 2-4,12687, Berlin / Marzahn-Marzahn
Penny,Dannenwalder Weg 159,13439, Berlin/Märkisches Viertel
Penny,Dannenwalder Weg 159,13439, Berlin/Märkisches Viertel
Penny,Ruppiner Chaussee 243,13503, Berlin
Penny,Ruppiner Chaussee 243,13503, Berlin
Penny,Oranienburger Str. 116,13437, Berlin/Wittenau
Penny,Oranienburger Str. 116,13437, Berlin/Wittenau
Penny,Rostocker Str. 1,13059, Berlin/Neu-Hohenschoenhausen
Penny,Rostocker Str. 1,13059, Berlin/Neu-Hohenschoenhausen
Penny,Berliner Str. 77A,16761, Hennigsdorf
Penny,Berliner Str. 77A,16761, Hennigsdorf
Penny,Schoenerlinder Str. 60/65,13127, Berlin/Buchholz
Penny,Schoenerlinder Str. 60/65,13127, Berlin/Buchholz
Penny,Rosa-Luxemburg-Str. 121,16727, Velten
Penny,Rosa-Luxemburg-Str. 121,16727, Velten
Penny,Prenzlauer Chaussee 116,16348, Wandlitz
Penny,Prenzlauer Chaussee 116,16348, Wandlitz
Penny,Breite Str. 6,16359, Biesenthal
Penny,Breite Str. 6,16359, Biesenthal
Penny,Artur-Becker-Str. 8,16816, Neuruppin
Penny,Artur-Becker-Str. 8,16816, Neuruppin
Penny,Kyritzer Str. 7,19322, Wittenberge
Penny,Kyritzer Str. 7,19322, Wittenberge
Penny,Lichterfelder Str. 10,16227, Eberswalde
Penny,Lichterfelder Str. 10,16227, Eberswalde
Penny,Ritterstr. 66/Karlstraße,19348, Perleberg
Penny,Ritterstr. 66/Karlstraße,19348, Perleberg
Penny,Lindenstr. 4-6,19348, Perleberg
Penny,Lindenstr. 4-6,19348, Perleberg
Penny,Templiner Str. 14a,16775, Gransee
Penny,Templiner Str. 14a,16775, Gransee
Penny,Roggenfelder Str. 1C,19303, Dömitz
Penny,Roggenfelder Str. 1C,19303, Dömitz
Penny,Str. Des Friedens 10a,19357, Karstaedt
Penny,Str. Des Friedens 10a,19357, Karstaedt
Penny,Bergstr. 22,16928, Pritzwalk
Penny,Bergstr. 22,16928, Pritzwalk
Penny,Doemitzer Str. 42,19294, Eldena
Penny,Doemitzer Str. 42,19294, Eldena
Penny,Grundmühlenweg 5,16278, Angermünde
Penny,Grundmühlenweg 5,16278, Angermünde
Penny,Robert-Koch-Str. 15,17268, Templin
Penny,Robert-Koch-Str. 15,17268, Templin
Penny,Ludwigsluster Chaussee 2,19300, Grabow
Penny,Ludwigsluster Chaussee 2,19300, Grabow
Penny,Sumter Str. 1a,19273, Amt Neuhaus
Penny,Sumter Str. 1a,19273, Amt Neuhaus
Penny,Hamburger Tor 1,19288, Ludwigslust
Penny,Hamburger Tor 1,19288, Ludwigslust
Penny,Plauer Str. 31,16945, Meyenburg
Penny,Plauer Str. 31,16945, Meyenburg
Penny,Bahnhofstr. 4,19306, Neustadt-Glewe
Penny,Bahnhofstr. 4,19306, Neustadt-Glewe
Penny,Ellerholzwiesen 7,19258, Boizenburg
Penny,Ellerholzwiesen 7,19258, Boizenburg
Penny,Berliner Str. 5,19260, Vellahn
Penny,Berliner Str. 5,19260, Vellahn
Penny,Mirower Str. 21A,17207, Röbel
Penny,Mirower Str. 21A,17207, Röbel
Penny,W.-I.-Leninstr. 23,19370, Parchim
Penny,W.-I.-Leninstr. 23,19370, Parchim
Penny,Wilhelm-Stolte-Str. 141,17235, Neustrelitz
Penny,Wilhelm-Stolte-Str. 141,17235, Neustrelitz
Penny,Am Eichberg 5,19370, Parchim
Penny,Am Eichberg 5,19370, Parchim
Penny,Moellner Str. 51A,19230, Hagenow
Penny,Moellner Str. 51A,19230, Hagenow
Penny,Rostocker Str. 7A,17213, Malchow
Penny,Rostocker Str. 7A,17213, Malchow
Penny,Buergermeister-Ahrens-Ring 13,19243, Wittenburg
Penny,Buergermeister-Ahrens-Ring 13,19243, Wittenburg
Penny,Am Bahnhof 5,19246, Zarrentin
Penny,Am Bahnhof 5,19246, Zarrentin
Penny,Dietrich-Bonhoeffer-Str. 18,17192, Waren
Penny,Dietrich-Bonhoeffer-Str. 18,17192, Waren
Penny,Parchimerstr. 64,19089, Crivitz
Penny,Parchimerstr. 64,19089, Crivitz
Penny,Stettiner Chaussee 34,17328, Penkun
Penny,Stettiner Chaussee 34,17328, Penkun
Penny,Magdeburger Str. 11a,19063, Schwerin
Penny,Magdeburger Str. 11a,19063, Schwerin
Penny,Buergelstr. 1a,19063, Schwerin
Penny,Buergelstr. 1a,19063, Schwerin
Penny,Friedrich-Engels-Str. 1-2,19061, Schwerin
Penny,Friedrich-Engels-Str. 1-2,19061, Schwerin
Penny,Wittenburger Str. 75,19053, Schwerin
Penny,Wittenburger Str. 75,19053, Schwerin
Penny,Rahlstedter Str. 27,19057, Schwerin/Lankow
Penny,Rahlstedter Str. 27,19057, Schwerin/Lankow
Penny,Gadebuscher Str. 22,19209, Lützow
Penny,Gadebuscher Str. 22,19209, Lützow
Penny,Rathausstr. 40,32120, Hiddenhausen-Eilshausen
Penny,Rathausstr. 40,32120, Hiddenhausen-Eilshausen
Penny,Rehnaer Str. 2,19205, Gadebusch
Penny,Rehnaer Str. 2,19205, Gadebusch
Penny,Schäferkamp 12,19406, Sternberg
Penny,Schäferkamp 12,19406, Sternberg
Penny,Ernst-Thaelmann-Str. 27,19412, Brüel
Penny,Ernst-Thaelmann-Str. 27,19412, Brüel
Penny,Schweriner Str. 37,19217, Rehna
Penny,Schweriner Str. 37,19217, Rehna
Penny,Heinrich-Heine-Str. 40-43,17139, Malchin
Penny,Heinrich-Heine-Str. 40-43,17139, Malchin
Penny,Lindenallee 17,18273, Güstrow
Penny,Lindenallee 17,18273, Güstrow
Penny,Am Forsthof 1b,18246, Bützow
Penny,Am Forsthof 1b,18246, Bützow
Penny,Chausseestr. 41-43,17373, Ueckermünde
Penny,Chausseestr. 41-43,17373, Ueckermünde
Penny,Otto-Lilienthal-Allee 1,18299, Laage-Kronskamp
Penny,Otto-Lilienthal-Allee 1,18299, Laage-Kronskamp
Penny,Friedländer Str. 26,17389, Anklam
Penny,Friedländer Str. 26,17389, Anklam
Penny,Anklamer Str. 36-37,17126, Jarmen
Penny,Anklamer Str. 36-37,17126, Jarmen
Penny,Rostocker Str. 2a,18195, Tessin
Penny,Rostocker Str. 2a,18195, Tessin
Penny,Sandkrug 4b,18059, Papendorf
Penny,Sandkrug 4b,18059, Papendorf
Penny,Rostocker Str. 116,18236, Kröpelin
Penny,Rostocker Str. 116,18236, Kröpelin
Penny,Nobelstr. 51,18059, Rostock/Suedstadt
Penny,Nobelstr. 51,18059, Rostock/Suedstadt
Penny,Hermannstr. 34a,18055, Rostock
Penny,Hermannstr. 34a,18055, Rostock
Penny,Ottostr. 6,18055, Rostock/Kroepliner Tor (Vorstadt)
Penny,Ottostr. 6,18055, Rostock/Kroepliner Tor (Vorstadt)
Penny,Walter-Stoecker-Str. 2,18069, Rostock/Reutershagen
Penny,Walter-Stoecker-Str. 2,18069, Rostock/Reutershagen
Penny,Am Muehlenfliess 5,18209, Bad Doberan
Penny,Am Muehlenfliess 5,18209, Bad Doberan
Penny,Hinrichsdorfer Str. 7B,18146, Rostock/Toitenwinkel
Penny,Hinrichsdorfer Str. 7B,18146, Rostock/Toitenwinkel
Penny,Henrik-Ibsen-Str. 29,18106, Rostock
Penny,Henrik-Ibsen-Str. 29,18106, Rostock
Penny,Kopenhagener Str. 1,18107, Rostock
Penny,Kopenhagener Str. 1,18107, Rostock
Penny,Kolumbusring 58,18106, Rostock
Penny,Kolumbusring 58,18106, Rostock
Penny,Neue Reihe 94,18225, Kühlungsborn
Penny,Neue Reihe 94,18225, Kühlungsborn
Penny,Warnowallee 26,18107, Rostock/Luetten Klein
Penny,Warnowallee 26,18107, Rostock/Luetten Klein
Penny,Turkuerstr. 57,18107, Rostock/Luetten Klein
Penny,Turkuerstr. 57,18107, Rostock/Luetten Klein
Penny,Albrecht-Tischbein-Str. 50,18109, Rostock/Gross Klein
Penny,Albrecht-Tischbein-Str. 50,18109, Rostock/Gross Klein
Penny,Buetzower Str. 13,18109, Rostock/Lichtenhagen
Penny,Buetzower Str. 13,18109, Rostock/Lichtenhagen
Penny,Rosengrund 1-2,18182, Roevershagen
Penny,Rosengrund 1-2,18182, Roevershagen
Penny,Lomonossowallee 57,17491, Greifswald
Penny,Lomonossowallee 57,17491, Greifswald
Penny,Ernst-Thaelmann-Ring 14,17491, Greifswald/Schoenwalde
Penny,Ernst-Thaelmann-Ring 14,17491, Greifswald/Schoenwalde
Penny,Lange Str. 28,18181, Graal-Mueritz
Penny,Lange Str. 28,18181, Graal-Mueritz
Penny,Hauptstr. 16,17449, Karlshagen
Penny,Hauptstr. 16,17449, Karlshagen
Penny,Am Zuckergraben 1,18439, Stralsund
Penny,Am Zuckergraben 1,18439, Stralsund
Penny,Heinrich-Heine-Ring 76,18435, Stralsund/Knieper
Penny,Heinrich-Heine-Ring 76,18435, Stralsund/Knieper
Penny,Strandstr. 24,18375, Ostseebad Prerow
Penny,Strandstr. 24,18375, Ostseebad Prerow
Penny,Str. Der Dsf 4,18528, Bergen Auf Ruegen
Penny,Str. Der Dsf 4,18528, Bergen Auf Ruegen
Penny,Villeparisisplatz 1,29339, Wathlingen
Penny,Villeparisisplatz 1,29339, Wathlingen
Penny,Bahnhofstr. 9,29336, Nienhagen
Penny,Bahnhofstr. 9,29336, Nienhagen
Penny,Storchenweg 2,29342, Wienhausen
Penny,Storchenweg 2,29342, Wienhausen
Penny,Hannoversche Heerstr. 30,29221, Celle
Penny,Hannoversche Heerstr. 30,29221, Celle
Penny,Heese 2,29225, Celle Neustadt
Penny,Heese 2,29225, Celle Neustadt
Penny,Bergstr. 26,29221, Celle
Penny,Bergstr. 26,29221, Celle
Penny,Harburgerstr. 77,29223, Celle
Penny,Harburgerstr. 77,29223, Celle
Penny,Zur Hasselklink 1A,29229, Celle/Gross Hehlen
Penny,Zur Hasselklink 1A,29229, Celle/Gross Hehlen
Penny,Celler Str. 8,29348, Eschede
Penny,Celler Str. 8,29348, Eschede
Penny,Celler Str. 8,29690, Schwarmstedt
Penny,Celler Str. 8,29690, Schwarmstedt
Penny,Vor Dem Neuperver Tor 15d,29410, Salzwedel
Penny,Vor Dem Neuperver Tor 15d,29410, Salzwedel
Penny,Celler Str. 14,29320, Hermannsburg
Penny,Celler Str. 14,29320, Hermannsburg
Penny,Marktstr. 1,29556, Suderburg
Penny,Marktstr. 1,29556, Suderburg
Penny,Bahnhofstr. 46,27324, Eystrup
Penny,Bahnhofstr. 46,27324, Eystrup
Penny,Springstr. 49,29471, Gartow
Penny,Springstr. 49,29471, Gartow
Penny,Von-Stolzenberg-Str. 10,29664, Walsrode
Penny,Von-Stolzenberg-Str. 10,29664, Walsrode
Penny,Zum Schützenwald 22,29633, Munster
Penny,Zum Schützenwald 22,29633, Munster
Penny,Celler Str. 6,29614, Soltau
Penny,Celler Str. 6,29614, Soltau
Penny,Werder 2,29451, Dannenberg
Penny,Werder 2,29451, Dannenberg
Penny,Fritz-Reuter-Weg 16,29549, Bad Bevensen
Penny,Fritz-Reuter-Weg 16,29549, Bad Bevensen
Penny,Hauptstr. 90,27308, Kirchlinteln
Penny,Hauptstr. 90,27308, Kirchlinteln
Penny,Toepingerstr. 10,29646, Bispingen
Penny,Toepingerstr. 10,29646, Bispingen
Penny,Poststr. 2A,29553, Bienenbüttel
Penny,Poststr. 2A,29553, Bienenbüttel
Penny,Lerchenweg 2,21385, Amelinghausen
Penny,Lerchenweg 2,21385, Amelinghausen
Penny,Bremer Str. 18-20,27299, Langwedel / Etelsen
Penny,Bremer Str. 18-20,27299, Langwedel / Etelsen
Penny,Bahnhofstr. 18-22,29640, Schneverdingen
Penny,Bahnhofstr. 18-22,29640, Schneverdingen
Penny,Rotenburgerstr. 2,29640, Schneverdingen
Penny,Rotenburgerstr. 2,29640, Schneverdingen
Penny,Fritz-Lieken-Eck 8,28832, Achim
Penny,Fritz-Lieken-Eck 8,28832, Achim
Penny,Heinrich-Boell-Str. 36,21335, Lueneburg
Penny,Heinrich-Boell-Str. 36,21335, Lueneburg
Penny,Buelows Kamp 7,21337, Lueneburg/Kaltenmoor
Penny,Buelows Kamp 7,21337, Lueneburg/Kaltenmoor
Penny,St. Stephanus-Passage 7,21337, Lüneburg
Penny,St. Stephanus-Passage 7,21337, Lüneburg
Penny,Mühlenstr. 26,27356, Rotenburg
Penny,Mühlenstr. 26,27356, Rotenburg
Penny,Auf Der Hoehe 65,21339, Lueneburg
Penny,Auf Der Hoehe 65,21339, Lueneburg
Penny,Dahlenburger Landstr. 76,21337, Lueneburg/Neu Hagen
Penny,Dahlenburger Landstr. 76,21337, Lueneburg/Neu Hagen
Penny,Luenebuger Str. 27,21376, Salzhausen
Penny,Luenebuger Str. 27,21376, Salzhausen
Penny,Lüneburger Landstr. 5,21391, Reppenstedt
Penny,Lüneburger Landstr. 5,21391, Reppenstedt
Penny,Hindenburgstr. 1A,21335, Lueneburg
Penny,Hindenburgstr. 1A,21335, Lueneburg
Penny,Sonnenblumenweg 14,28876, Oyten-Bassen
Penny,Sonnenblumenweg 14,28876, Oyten-Bassen
Penny,Bahnhofstr. 1,21354, Bleckede
Penny,Bahnhofstr. 1,21354, Bleckede
Penny,Hauptstr. 90,28876, Oyten
Penny,Hauptstr. 90,28876, Oyten
Penny,Hemelinger Heerstr. 16-20,28309, Bremen
Penny,Hemelinger Heerstr. 16-20,28309, Bremen
Penny,Alfred-Faust-Str. 7,28277, Bremen/Obervieland
Penny,Alfred-Faust-Str. 7,28277, Bremen/Obervieland
Penny,Bremer Str. 16,27383, Scheessel
Penny,Bremer Str. 16,27383, Scheessel
Penny,Illmer Weg 2A,21357, Bardowick
Penny,Illmer Weg 2A,21357, Bardowick
Penny,Buntentorsteinweg 53-59,28201, Bremen
Penny,Buntentorsteinweg 53-59,28201, Bremen
Penny,Friedrich-Ebert-Str. 146-150,28201, Bremen/Suedervorstadt
Penny,Friedrich-Ebert-Str. 146-150,28201, Bremen/Suedervorstadt
Penny,Ostertorsteinweg 28-29,28203, Bremen/Ostertor
Penny,Ostertorsteinweg 28-29,28203, Bremen/Ostertor
Penny,Langemarckstr. 212-222,28199, Bremen/Neustadt
Penny,Langemarckstr. 212-222,28199, Bremen/Neustadt
Penny,Hasporter Damm 110-114,27749, Delmenhorst
Penny,Hasporter Damm 110-114,27749, Delmenhorst
Penny,Landwehrstr. 38,28217, Bremen/Utbremen
Penny,Landwehrstr. 38,28217, Bremen/Utbremen
Penny,Edisonstr. 1,28357, Bremen/Lehesterdeich
Penny,Edisonstr. 1,28357, Bremen/Lehesterdeich
Penny,Hemmstr. 158-164,28215, Bremen/Findorff
Penny,Hemmstr. 158-164,28215, Bremen/Findorff
Penny,Niedersachsenweg 3-5,21244, Holm-Seppensen
Penny,Niedersachsenweg 3-5,21244, Holm-Seppensen
Penny,Vegesacker Str. 151,28219, Bremen/Walle
Penny,Vegesacker Str. 151,28219, Bremen/Walle
Penny,Bahnhofstr. 36,21255, Tostedt
Penny,Bahnhofstr. 36,21255, Tostedt
Penny,Nutzhorner Str. 29,27753, Delmenhorst
Penny,Nutzhorner Str. 29,27753, Delmenhorst
Penny,Hauptstr. 61,21266, Jesteburg
Penny,Hauptstr. 61,21266, Jesteburg
Penny,Stedinger Str. 235,27753, Delmenhorst/Bungerhof
Penny,Stedinger Str. 235,27753, Delmenhorst/Bungerhof
Penny,Berliner Straße/Bergstr. 1a/B,21481, Lauenburg
Penny,Berliner Straße/Bergstr. 1a/B,21481, Lauenburg
Penny,Lüneburger Str. 77,21423, Winsen (Luhe)
Penny,Lüneburger Str. 77,21423, Winsen (Luhe)
Penny,Gröpelinger Heerstr. 251,28237, Bremen
Penny,Gröpelinger Heerstr. 251,28237, Bremen
Penny,Lindenstr. 2-10,21244, Buchholz In Der Nordheide
Penny,Lindenstr. 2-10,21244, Buchholz In Der Nordheide
Penny,Am Oslebshauser Bahnhof 2,28239, Bremen-Oslebshausen
Penny,Am Oslebshauser Bahnhof 2,28239, Bremen-Oslebshausen
Penny,Lüneburger Str. 36-38,21435, Stelle
Penny,Lüneburger Str. 36-38,21435, Stelle
Penny,Elbuferstr. 123,21436, Marschacht
Penny,Elbuferstr. 123,21436, Marschacht
Penny,Bahnhofstr. 17,21218, Seevetal/Hittfeld
Penny,Bahnhofstr. 17,21218, Seevetal/Hittfeld
Penny,Vitus-Platz 5,27404, Zeven
Penny,Vitus-Platz 5,27404, Zeven
Penny,Geesthachter Str. 4,21502, Geesthacht
Penny,Geesthachter Str. 4,21502, Geesthacht
Penny,Am Stinnberg 9,21279, Hollenstedt
Penny,Am Stinnberg 9,21279, Hollenstedt
Penny,Gluesinger Str. 32,21217, Seevetal/Meckelfeld
Penny,Gluesinger Str. 32,21217, Seevetal/Meckelfeld
Penny,Lauenburger Str. 14,21514, Büchen
Penny,Lauenburger Str. 14,21514, Büchen
Penny,Curslacker Heerweg 2A,21039, Hamburg/Curslack
Penny,Curslacker Heerweg 2A,21039, Hamburg/Curslack
Penny,Ernst-Bergeest-Weg 53,21077, Hamburg/Marmstorf
Penny,Ernst-Bergeest-Weg 53,21077, Hamburg/Marmstorf
Penny,Aussenmuehlenweg 10,21073, Hamburg/Harburg
Penny,Aussenmuehlenweg 10,21073, Hamburg/Harburg
Penny,Beerentalweg 35,21077, Hamburg / Eissendorf
Penny,Beerentalweg 35,21077, Hamburg / Eissendorf
Penny,Compestr. 1,21493, Schwarzenbek
Penny,Compestr. 1,21493, Schwarzenbek
Penny,Bremer Str. 90,21073, Hamburg/Harburg
Penny,Bremer Str. 90,21073, Hamburg/Harburg
Penny,Hackmackbogen/Ameisweg 4,21035, Hamburg
Penny,Hackmackbogen/Ameisweg 4,21035, Hamburg
Penny,Herrenweg 173,26135, Oldenburg/Osternburg
Penny,Herrenweg 173,26135, Oldenburg/Osternburg
Penny,Luehmannstr. 11,21075, Hamburg/Eissendorf
Penny,Luehmannstr. 11,21075, Hamburg/Eissendorf
Penny,Grachtenplatz 7,21035, Hamburg
Penny,Grachtenplatz 7,21035, Hamburg
Penny,Oberer Landweg 7,21033, Hamburg
Penny,Oberer Landweg 7,21033, Hamburg
Penny,Heimfelder Str. 6,21075, Hamburg/Heimfeld
Penny,Heimfelder Str. 6,21075, Hamburg/Heimfeld
Penny,Alte Holstenstr. 23-25,21031, Hamburg
Penny,Alte Holstenstr. 23-25,21031, Hamburg
Penny,Fleetplatz 1-7,21035, Hamburg
Penny,Fleetplatz 1-7,21035, Hamburg
Penny,Heidkamp Damm 18,28790, Schwanewede
Penny,Heidkamp Damm 18,28790, Schwanewede
Penny,Erlerring 5,21109, Hamburg
Penny,Erlerring 5,21109, Hamburg
Penny,Weberade 3-5,21031, Hamburg/Lohbruegge
Penny,Weberade 3-5,21031, Hamburg/Lohbruegge
Penny,Donnerschweerstr. 194-196,26123, Oldenburg
Penny,Donnerschweerstr. 194-196,26123, Oldenburg
Penny,Hauptstr. 28,27446, Selsingen
Penny,Hauptstr. 28,27446, Selsingen
Penny,Bahnhofstr. 19,21629, Neu Wulmstorf
Penny,Bahnhofstr. 19,21629, Neu Wulmstorf
Penny,Große Str. 34,21521, Wohltorf
Penny,Große Str. 34,21521, Wohltorf
Penny,Cuxhavener Str. 460,21149, Hamburg/Neugraben-Fischbek
Penny,Cuxhavener Str. 460,21149, Hamburg/Neugraben-Fischbek
Penny,Algermissenstr. 2,21109, Hamburg/Wilhelmsburg
Penny,Algermissenstr. 2,21109, Hamburg/Wilhelmsburg
Penny,Hermann-Koerner-Str. 53,21465, Reinbek
Penny,Hermann-Koerner-Str. 53,21465, Reinbek
Penny,Hauptstr. 48,27729, Hambergen
Penny,Hauptstr. 48,27729, Hambergen
Penny,Nadorster Str. 229,26121, Oldenburg
Penny,Nadorster Str. 229,26121, Oldenburg
Penny,Steinbeker Grenzdamm 4-6,22115, Hamburg/Billstedt
Penny,Steinbeker Grenzdamm 4-6,22115, Hamburg/Billstedt
Penny,Zeidlerstr. 21-23,21107, Hamburg/Wilhelmsburg
Penny,Zeidlerstr. 21-23,21107, Hamburg/Wilhelmsburg
Penny,Poststr. 7-9,21614, Buxtehude
Penny,Poststr. 7-9,21614, Buxtehude
Penny,Am Bahnhof Sued 7,21698, Harsefeld
Penny,Am Bahnhof Sued 7,21698, Harsefeld
Penny,Oststeinbeker Weg 2-4,22117, Hamburg
Penny,Oststeinbeker Weg 2-4,22117, Hamburg
Penny,Berliner Str. 2,21509, Glinde
Penny,Berliner Str. 2,21509, Glinde
Penny,Sieldeich 9-11,20539, Hamburg/Veddel
Penny,Sieldeich 9-11,20539, Hamburg/Veddel
Penny,Lorenzenweg 3,22111, Hamburg / Billstedt-Billstedt
Penny,Lorenzenweg 3,22111, Hamburg / Billstedt-Billstedt
Penny,Rothenburgsorter Marktplatz 1a,20539, Hamburg
Penny,Rothenburgsorter Marktplatz 1a,20539, Hamburg
Penny,Washingtonallee 87,22111, Hamburg/Horn
Penny,Washingtonallee 87,22111, Hamburg/Horn
Penny,Bauerberg 20,22111, Hamburg/Horn
Penny,Bauerberg 20,22111, Hamburg/Horn
Penny,Droopweg 25,20537, Hamburg
Penny,Droopweg 25,20537, Hamburg
Penny,Hammerlandstr. 220,20537, Hamburg/Hamm-Nord
Penny,Hammerlandstr. 220,20537, Hamburg/Hamm-Nord
Penny,Manshardtstr. 113B,22119, Hamburg/Horn
Penny,Manshardtstr. 113B,22119, Hamburg/Horn
Penny,Sievekingsallee 185,22111, Hamburg/Horn
Penny,Sievekingsallee 185,22111, Hamburg/Horn
Penny,Hauptstr. 38,22885, Barsbuettel
Penny,Hauptstr. 38,22885, Barsbuettel
Penny,Steindamm 22,20099, Hamburg/St. Georg
Penny,Steindamm 22,20099, Hamburg/St. Georg
Penny,Thielbek 8,20355, Hamburg/Neustadt
Penny,Thielbek 8,20355, Hamburg/Neustadt
Penny,Grambeker Weg 91-93,23879, Moelln Lauenburg
Penny,Grambeker Weg 91-93,23879, Moelln Lauenburg
Penny,Buergerweide 64-66,20535, Hamburg/Borgfelde
Penny,Buergerweide 64-66,20535, Hamburg/Borgfelde
Penny,Reeperbahn 108-114,20359, Hamburg/St.Pauli
Penny,Reeperbahn 108-114,20359, Hamburg/St.Pauli
Penny,Nobistor 27,22767, Hamburg
Penny,Nobistor 27,22767, Hamburg
Penny,Rodigallee 315,22043, Hamburg
Penny,Rodigallee 315,22043, Hamburg
Penny,Grabkeweg 16,22043, Hamburg/Jenfeld
Penny,Grabkeweg 16,22043, Hamburg/Jenfeld
Penny,Wasserkrueger Weg 65/71,23879, Moelln
Penny,Wasserkrueger Weg 65/71,23879, Moelln
Penny,Bahrenfelder Str. 147,22765, Hamburg/Ottensen
Penny,Bahrenfelder Str. 147,22765, Hamburg/Ottensen
Penny,Wandsbeker Chaussee 162,22089, Hamburg/Eilbek
Penny,Wandsbeker Chaussee 162,22089, Hamburg/Eilbek
Penny,Schulterblatt 49,20357, Hamburg
Penny,Schulterblatt 49,20357, Hamburg
Penny,Friedensallee 98,22763, Hamburg/Ottensen
Penny,Friedensallee 98,22763, Hamburg/Ottensen
Penny,Hamburger Str. 1,22083, Hamburg/Barmbek-Sued
Penny,Hamburger Str. 1,22083, Hamburg/Barmbek-Sued
Penny,Zum Riden 3,22946, Trittau
Penny,Zum Riden 3,22946, Trittau
Penny,Hegeneck 5-21,22149, Hamburg/Rahlstedt
Penny,Hegeneck 5-21,22149, Hamburg/Rahlstedt
Penny,Schaeferkampsallee 56,20357, Hamburg/Eimsbuettel
Penny,Schaeferkampsallee 56,20357, Hamburg/Eimsbuettel
Penny,Liliencronstr. 84-102,22149, Hamburg
Penny,Liliencronstr. 84-102,22149, Hamburg
Penny,Friedrich-Ebert-Damm 44-52,22047, Hamburg/Wandsbek
Penny,Friedrich-Ebert-Damm 44-52,22047, Hamburg/Wandsbek
Penny,Westerjork 42,21635, Jork
Penny,Westerjork 42,21635, Jork
Penny,Alter Teichweg 65,22049, Hamburg
Penny,Alter Teichweg 65,22049, Hamburg
Penny,Hufnerstr. 4c,22083, Hamburg
Penny,Hufnerstr. 4c,22083, Hamburg
Penny,Eppendorfer Weg 111,20259, Hamburg/Eimsbuettel
Penny,Eppendorfer Weg 111,20259, Hamburg/Eimsbuettel
Penny,Tilsiter Str. 2,22049, Hamburg
Penny,Tilsiter Str. 2,22049, Hamburg
Penny,Muehlenkamp 32,22303, Hamburg/Winterhude
Penny,Muehlenkamp 32,22303, Hamburg/Winterhude
Penny,Drosselstr. 1,22305, Hamburg
Penny,Drosselstr. 1,22305, Hamburg
Penny,Heussweg 52-54,20255, Hamburg/Eimsbuettel
Penny,Heussweg 52-54,20255, Hamburg/Eimsbuettel
Penny,Wandsbeker Schuetzenhof 17,22047, Hamburg/Wandsbek
Penny,Wandsbeker Schuetzenhof 17,22047, Hamburg/Wandsbek
Penny,Langenfelder Damm 29-31,20257, Hamburg/Eimsbuettel
Penny,Langenfelder Damm 29-31,20257, Hamburg/Eimsbuettel
Penny,Eppendorfer Weg 261,20251, Hamburg/Hoheluft-Ost
Penny,Eppendorfer Weg 261,20251, Hamburg/Hoheluft-Ost
Penny,Kieler Str. 236,22525, Hamburg/Eimsbuettel
Penny,Kieler Str. 236,22525, Hamburg/Eimsbuettel
Penny,Bargteheider Str. 83/87,22143, Hamburg/Rahlstedt-Rahlstedt
Penny,Bargteheider Str. 83/87,22143, Hamburg/Rahlstedt-Rahlstedt
Penny,Troplowitzstr. 7,22529, Hamburg
Penny,Troplowitzstr. 7,22529, Hamburg
Penny,Osdorfer Landstr. 118,22549, Hamburg
Penny,Osdorfer Landstr. 118,22549, Hamburg
Penny,Berner Heerweg 173-175,22159, Hamburg
Penny,Berner Heerweg 173-175,22159, Hamburg
Penny,Groemitzer Weg 42,22147, Hamburg/Rahlstedt
Penny,Groemitzer Weg 42,22147, Hamburg/Rahlstedt
Penny,Erikastr. 62,20251, Hamburg/Eppendorf
Penny,Erikastr. 62,20251, Hamburg/Eppendorf
Penny,Rugenbarg 85-87,22549, Hamburg/Osdorf
Penny,Rugenbarg 85-87,22549, Hamburg/Osdorf
Penny,Maimoorweg 46,22179, Hamburg/Bramfeld
Penny,Maimoorweg 46,22179, Hamburg/Bramfeld
Penny,Alsterdorfer Str. 63-65,22299, Hamburg/Winterhude
Penny,Alsterdorfer Str. 63-65,22299, Hamburg/Winterhude
Penny,Fuhlsbuettler Str. 428,22309, Hamburg/Ohlsdorf
Penny,Fuhlsbuettler Str. 428,22309, Hamburg/Ohlsdorf
Penny,Schwarzer Weg 2-6,22309, Hamburg/Steilshoop
Penny,Schwarzer Weg 2-6,22309, Hamburg/Steilshoop
Penny,Hindenburgstr. 54,22297, Hamburg/Winterhude
Penny,Hindenburgstr. 54,22297, Hamburg/Winterhude
Penny,Hauptstr. 66,21717, Fredenbeck
Penny,Hauptstr. 66,21717, Fredenbeck
Penny,Fuhlsbuettler Str. 599,22337, Hamburg
Penny,Fuhlsbuettler Str. 599,22337, Hamburg
Penny,Bramfelder Chaussee 291,22177, Hamburg
Penny,Bramfelder Chaussee 291,22177, Hamburg
Penny,Alte Berner Str. 10,22147, Hamburg/Rahlstedt
Penny,Alte Berner Str. 10,22147, Hamburg/Rahlstedt
Penny,Spitzbergenweg 36,22145, Hamburg
Penny,Spitzbergenweg 36,22145, Hamburg
Penny,Rissener Dorfstr. 51,22559, Hamburg/Rissen
Penny,Rissener Dorfstr. 51,22559, Hamburg/Rissen
Penny,Saseler Str. 136A,22145, Hamburg/Rahlstedt
Penny,Saseler Str. 136A,22145, Hamburg/Rahlstedt
Penny,Bahnhofstr. 50-52,22880, Wedel
Penny,Bahnhofstr. 50-52,22880, Wedel
Penny,Elbgaustr. 122,22547, Hamburg
Penny,Elbgaustr. 122,22547, Hamburg
Penny,Altonaer Chaussee 81-83,22869, Schenefeld
Penny,Altonaer Chaussee 81-83,22869, Schenefeld
Penny,Ekenknick 9,22523, Hamburg/Eidelstedt
Penny,Ekenknick 9,22523, Hamburg/Eidelstedt
Penny,Hamburger Str. 77,22952, Luetjensee
Penny,Hamburger Str. 77,22952, Luetjensee
Penny,Bramfelder Chaussee 491,22175, Hamburg
Penny,Bramfelder Chaussee 491,22175, Hamburg
Penny,Zittschower Weg 1-3,23909, Ratzeburg
Penny,Zittschower Weg 1-3,23909, Ratzeburg
Penny,Erdkampsweg 43,22335, Hamburg/Fuhlsbuettel
Penny,Erdkampsweg 43,22335, Hamburg/Fuhlsbuettel
Penny,Sieker Landstr. 118,22927, Grosshansdorf/Schmalenbeck
Penny,Sieker Landstr. 118,22927, Grosshansdorf/Schmalenbeck
Penny,Friedrich-Ebert-Allee 23,22869, Schenefeld
Penny,Friedrich-Ebert-Allee 23,22869, Schenefeld
Penny,Pinneberger Chaussee 114,22523, Hamburg/Eidelstedt
Penny,Pinneberger Chaussee 114,22523, Hamburg/Eidelstedt
Penny,Eilbergweg 16,22927, Grosshansdorf
Penny,Eilbergweg 16,22927, Grosshansdorf
Penny,Lentersweg 38-40,22339, Hamburg
Penny,Lentersweg 38-40,22339, Hamburg
Penny,Hummelsbuetteler Weg 52-66,22339, Hamburg/Hummelsbuettel
Penny,Hummelsbuetteler Weg 52-66,22339, Hamburg/Hummelsbuettel
Penny,Kraehenweg 4,22459, Hamburg/Niendorf
Penny,Kraehenweg 4,22459, Hamburg/Niendorf
Penny,Holsteiner Chaussee 274,22457, Hamburg/Schnelsen
Penny,Holsteiner Chaussee 274,22457, Hamburg/Schnelsen
Penny,Moorflagen/Nordalbinger Weg 11,22455, Hamburg/Niendorf
Penny,Moorflagen/Nordalbinger Weg 11,22455, Hamburg/Niendorf
Penny,Norbert-Schmid-Platz 3,22399, Hamburg
Penny,Norbert-Schmid-Platz 3,22399, Hamburg
Penny,"Große Str. 28-30, Klaus-Groth-Straße",22926, Ahrensburg
Penny,"Große Str. 28-30, Klaus-Groth-Straße",22926, Ahrensburg
Penny,Hollernstr. 63,21723, Hollern-Twielenfleth
Penny,Hollernstr. 63,21723, Hollern-Twielenfleth
Penny,Poppenbuettl.Hauptstr. 5,22399, Hamburg/Poppenbuettel
Penny,Poppenbuettl.Hauptstr. 5,22399, Hamburg/Poppenbuettel
Penny,Harburger Str. 121,21680, Stade
Penny,Harburger Str. 121,21680, Stade
Penny,Harsefelder Str. 44,21680, Stade
Penny,Harsefelder Str. 44,21680, Stade
Penny,Bielfeldtweg 15,21682, Stade
Penny,Bielfeldtweg 15,21682, Stade
Penny,Oldesloer Str. 44A,23919, Berkenthin
Penny,Oldesloer Str. 44A,23919, Berkenthin
Penny,Thesdorfer Weg 3,25421, Pinneberg
Penny,Thesdorfer Weg 3,25421, Pinneberg
Penny,Richard-Köhn-Str. 2,25421, Pinneberg
Penny,Richard-Köhn-Str. 2,25421, Pinneberg
Penny,Segeberger Chaussee 73-75,22850, Norderstedt/Harksheide
Penny,Segeberger Chaussee 73-75,22850, Norderstedt/Harksheide
Penny,Mittelstr. 66,22851, Norderstedt
Penny,Mittelstr. 66,22851, Norderstedt
Penny,Friedrich-Ebert-Str. 2,25421, Pinneberg
Penny,Friedrich-Ebert-Str. 2,25421, Pinneberg
Penny,Duvenstedter Damm 49,22397, Hamburg/Duvenstedt
Penny,Duvenstedter Damm 49,22397, Hamburg/Duvenstedt
Penny,Rathaus-Str. 11,22941, Bargteheide
Penny,Rathaus-Str. 11,22941, Bargteheide
Penny,Marktplatz 13-15,22844, Norderstedt
Penny,Marktplatz 13-15,22844, Norderstedt
Penny,Muehlenstr. 36,21709, Himmelpforten
Penny,Muehlenstr. 36,21709, Himmelpforten
Penny,Ulzburger Str. 308-310,22846, Norderstedt
Penny,Ulzburger Str. 308-310,22846, Norderstedt
Penny,Obstmarschenweg 304,21683, Stade-Buetzfleth
Penny,Obstmarschenweg 304,21683, Stade-Buetzfleth
Penny,Ulzburger Str. 505,22844, Norderstedt
Penny,Ulzburger Str. 505,22844, Norderstedt
Penny,Lienaus Allee 2,25436, Uetersen
Penny,Lienaus Allee 2,25436, Uetersen
Penny,Ohlenhoff 2,25436, Tornesch
Penny,Ohlenhoff 2,25436, Tornesch
Penny,Deichgraefenstr. 15/15A,26954, Nordenham
Penny,Deichgraefenstr. 15/15A,26954, Nordenham
Penny,Boschstr. 4,27574, Bremerhaven
Penny,Boschstr. 4,27574, Bremerhaven
Penny,Grashoffstr. 10,27570, Bremerhaven/Geestemuende
Penny,Grashoffstr. 10,27570, Bremerhaven/Geestemuende
Penny,Besttorstr. 4-5,23843, Bad Oldesloe
Penny,Besttorstr. 4-5,23843, Bad Oldesloe
Penny,Luebecker Str. 111,23843, Bad Oldesloe
Penny,Luebecker Str. 111,23843, Bad Oldesloe
Penny,Adenauerdamm 77,25337, Elmshorn
Penny,Adenauerdamm 77,25337, Elmshorn
Penny,Feldstr. 1,23858, Reinfeld
Penny,Feldstr. 1,23858, Reinfeld
Penny,Wismarsche Str. 152,23936, Grevesmühlen
Penny,Wismarsche Str. 152,23936, Grevesmühlen
Penny,Pernieker Str. 24,23992, Neukloster
Penny,Pernieker Str. 24,23992, Neukloster
Penny,Alte Hofstelle 1,24558, Henstedt-Ulzburg
Penny,Alte Hofstelle 1,24558, Henstedt-Ulzburg
Penny,Andersenring 30,23560, Lübeck
Penny,Andersenring 30,23560, Lübeck
Penny,Buergermeister-Smidt-Str. 154,27568, Bremerhaven/Mitte
Penny,Buergermeister-Smidt-Str. 154,27568, Bremerhaven/Mitte
Penny,Helmholtzstr. 23,23562, Luebeck/St Juergen
Penny,Helmholtzstr. 23,23562, Luebeck/St Juergen
Penny,Kronsforder Allee 44-46,23560, Luebeck/St Juergen
Penny,Kronsforder Allee 44-46,23560, Luebeck/St Juergen
Penny,Koellner Chaussee 68,25337, Elmshorn
Penny,Koellner Chaussee 68,25337, Elmshorn
Penny,Hafenstr. 207,27568, Bremerhaven/Lehe
Penny,Hafenstr. 207,27568, Bremerhaven/Lehe
Penny,Ziegelstr. 232,23556, Lübeck
Penny,Ziegelstr. 232,23556, Lübeck
Penny,Erich-Weinert-Promenade 27,23966, Wismar
Penny,Erich-Weinert-Promenade 27,23966, Wismar
Penny,Maybachstr. 2/Kantstraße,23566, Luebeck
Penny,Maybachstr. 2/Kantstraße,23566, Luebeck
Penny,Ziegelstr. 129,23556, Luebeck/Buntekuh
Penny,Ziegelstr. 129,23556, Luebeck/Buntekuh
Penny,Gutenbergstr. 9,24558, Henstedt-Ulzburg
Penny,Gutenbergstr. 9,24558, Henstedt-Ulzburg
Penny,Langener Landstr. 128-132,27580, Bremerhaven
Penny,Langener Landstr. 128-132,27580, Bremerhaven
Penny,Altes Feld 2-4,27624, Geestland
Penny,Altes Feld 2-4,27624, Geestland
Penny,An Der B 106,23966, Wismar/Karow
Penny,An Der B 106,23966, Wismar/Karow
Penny,Ziegelstr. 26,23556, Luebeck/St Lorenz Nord
Penny,Ziegelstr. 26,23556, Luebeck/St Lorenz Nord
Penny,Ziegelstr. 13,23556, Lübeck/St. Lorenz Nord
Penny,Ziegelstr. 13,23556, Lübeck/St. Lorenz Nord
Penny,Grosse Burgstr. 55,23552, Luebeck/Innenstadt
Penny,Grosse Burgstr. 55,23552, Luebeck/Innenstadt
Penny,Küsterkamp 5,25355, Barmstedt
Penny,Küsterkamp 5,25355, Barmstedt
Penny,Am Wiesengrund 8,23970, Wismar
Penny,Am Wiesengrund 8,23970, Wismar
Penny,B 105,23942, Dassow
Penny,B 105,23942, Dassow
Penny,Ahrensboeker Str. 38,23617, Stockelsdorf
Penny,Ahrensboeker Str. 38,23617, Stockelsdorf
Penny,Am Kretelmoor 42,24568, Kaltenkirchen
Penny,Am Kretelmoor 42,24568, Kaltenkirchen
Penny,Hamburger Str. 41,23816, Leezen
Penny,Hamburger Str. 41,23816, Leezen
Penny,Schulstr. 9a,24568, Kaltenkirchen
Penny,Schulstr. 9a,24568, Kaltenkirchen
Penny,Lohstr. 178,23617, Stockelsdorf
Penny,Lohstr. 178,23617, Stockelsdorf
Penny,Kielerstr. 57,24568, Kaltenkirchen
Penny,Kielerstr. 57,24568, Kaltenkirchen
Penny,Ziegelstr. 15,21737, Wischhafen
Penny,Ziegelstr. 15,21737, Wischhafen
Penny,Molenkiekergang 1,25348, Glueckstadt
Penny,Molenkiekergang 1,25348, Glueckstadt
Penny,Boltenhagener Str. 11,23948, Kluetz
Penny,Boltenhagener Str. 11,23948, Kluetz
Penny,Gneversdorfer Weg 24,23570, Luebeck/Travemuende
Penny,Gneversdorfer Weg 24,23570, Luebeck/Travemuende
Penny,Gieschenhagen 3,23795, Bad Segeberg
Penny,Gieschenhagen 3,23795, Bad Segeberg
Penny,Hamburger Ring 7-15,23683, Scharbeutz
Penny,Hamburger Ring 7-15,23683, Scharbeutz
Penny,Am Spannbrook 6,23623, Ahrensbök
Penny,Am Spannbrook 6,23623, Ahrensbök
Penny,Stader Straße/Am Alten Deich 71,21762, Otterndorf
Penny,Stader Straße/Am Alten Deich 71,21762, Otterndorf
Penny,Grosse Paaschburg 43-47,25524, Itzehoe
Penny,Grosse Paaschburg 43-47,25524, Itzehoe
Penny,Muehlenstr. 5,25554, Wilster
Penny,Muehlenstr. 5,25554, Wilster
Penny,Lindenstr. 196A,25524, Itzehoe
Penny,Lindenstr. 196A,25524, Itzehoe
Penny,Edendorfer Str. 72,25524, Itzehoe
Penny,Edendorfer Str. 72,25524, Itzehoe
Penny,Breite Str. 4,25551, Hohenlockstedt
Penny,Breite Str. 4,25551, Hohenlockstedt
Penny,Erfurter Str. 4-8,24610, Trappenkamp
Penny,Erfurter Str. 4-8,24610, Trappenkamp
Penny,Grodener Mühlenweg 22,27478, Cuxhaven/Groden
Penny,Grodener Mühlenweg 22,27478, Cuxhaven/Groden
Penny,Padenstedter Landstr. 2,24539, Neumünster/Wittorf
Penny,Padenstedter Landstr. 2,24539, Neumünster/Wittorf
Penny,Brockeswalder Chaussee 67,27474, Cuxhaven
Penny,Brockeswalder Chaussee 67,27474, Cuxhaven
Penny,Ehndorfer Str. 197,24537, Neumuenster
Penny,Ehndorfer Str. 197,24537, Neumuenster
Penny,Linienstr/Wasbeker Str. 40,24534, Neumünster
Penny,Linienstr/Wasbeker Str. 40,24534, Neumünster
Penny,Rendsburger Str. 38-44,24534, Neumuenster
Penny,Rendsburger Str. 38-44,24534, Neumuenster
Penny,Gutenbergstr. 47,24536, Neumünster
Penny,Gutenbergstr. 47,24536, Neumünster
Penny,Kieler Str. 383,24536, Neumuenster
Penny,Kieler Str. 383,24536, Neumuenster
Penny,Am Bahnhof 1-3,25560, Schenefeld
Penny,Am Bahnhof 1-3,25560, Schenefeld
Penny,Rosenstr. 34-36,23714, Malente
Penny,Rosenstr. 34-36,23714, Malente
Penny,Baederstr. 11,23738, Lensahn
Penny,Baederstr. 11,23738, Lensahn
Penny,Lohkamp 19-23,24589, Nortorf
Penny,Lohkamp 19-23,24589, Nortorf
Penny,Raiffeisenplatz 8,25704, Meldorf
Penny,Raiffeisenplatz 8,25704, Meldorf
Penny,Kieler Chaussee 1,23758, Oldenburg/Holstein
Penny,Kieler Chaussee 1,23758, Oldenburg/Holstein
Penny,Friedrichstr. 1-3,25767, Albersdorf
Penny,Friedrichstr. 1-3,25767, Albersdorf
Penny,Schoenberger Str. 3,24321, Luetjenburg
Penny,Schoenberger Str. 3,24321, Luetjenburg
Penny,Hamburger Chaussee 15,24113, Molfsee
Penny,Hamburger Chaussee 15,24113, Molfsee
Penny,Segeberger Landstr. 50,24145, Kiel
Penny,Segeberger Landstr. 50,24145, Kiel
Penny,Hafenstr. 6A,26548, Norderney
Penny,Hafenstr. 6A,26548, Norderney
Penny,Rendsburger Landstr. 244,24113, Kiel
Penny,Rendsburger Landstr. 244,24113, Kiel
Penny,Werftstr. 247,24143, Kiel
Penny,Werftstr. 247,24143, Kiel
Penny,Kurt-Schumacher-Platz 13,24109, Kiel
Penny,Kurt-Schumacher-Platz 13,24109, Kiel
Penny,Holtenauer Str. 84,24105, Kiel/Brunswik
Penny,Holtenauer Str. 84,24105, Kiel/Brunswik
Penny,Alte Kieler Landstr. 22-26,24768, Rendsburg
Penny,Alte Kieler Landstr. 22-26,24768, Rendsburg
Penny,Holtenauer Str. 234,24105, Kiel/Bluecherplatz
Penny,Holtenauer Str. 234,24105, Kiel/Bluecherplatz
Penny,Eckernfoerder Str. 48-52,24768, Rendsburg
Penny,Eckernfoerder Str. 48-52,24768, Rendsburg
Penny,Kuhlenkamp 2A,24217, Schoenberg
Penny,Kuhlenkamp 2A,24217, Schoenberg
Penny,Am Markt 10,24214, Gettorf
Penny,Am Markt 10,24214, Gettorf
Penny,Rendsburger Str. 109,24340, Eckernfoerde
Penny,Rendsburger Str. 109,24340, Eckernfoerde
Penny,Bredstedter Str. 41,25813, Husum
Penny,Bredstedter Str. 41,25813, Husum
Penny,Ziegeleiweg 2,24376, Kappeln
Penny,Ziegeleiweg 2,24376, Kappeln
Penny,Mühlenstr. 14,24986, Satrup
Penny,Mühlenstr. 14,24986, Satrup
Penny,Angelner Str. 1B,24966, Soerup
Penny,Angelner Str. 1B,24966, Soerup
Penny,Holzkrugweg 4-6,24941, Flensburg/Weiche
Penny,Holzkrugweg 4-6,24941, Flensburg/Weiche
Penny,Hochfelder Landstr. 23,24943, Flensburg
Penny,Hochfelder Landstr. 23,24943, Flensburg
Penny,Kappelner Str. 71,24943, Flensburg/Sandberg
Penny,Kappelner Str. 71,24943, Flensburg/Sandberg
Penny,Tilsiter Str. 2-4,24943, Flensburg
Penny,Tilsiter Str. 2-4,24943, Flensburg
Penny,Am Katharinenhof 30,24939, Flensburg
Penny,Am Katharinenhof 30,24939, Flensburg
Penny,Musbeker Weg 1,24955, Harrislee
Penny,Musbeker Weg 1,24955, Harrislee
Penny,Zum Stellwerk 4C,25899, Niebuell
Penny,Zum Stellwerk 4C,25899, Niebuell
Penny,Schlüchterner Str. 29,36391, Sinntal
Penny,Schlüchterner Str. 29,36391, Sinntal
Penny,Bellinger Tor 16,36396, Steinau A.D. Strasse
Penny,Bellinger Tor 16,36396, Steinau A.D. Strasse
Penny,Gartenstr. 50a,36381, Schlüchtern
Penny,Gartenstr. 50a,36381, Schlüchtern
Penny,Lengsfelder Str. 37,36469, Tiefenort
Penny,Lengsfelder Str. 37,36469, Tiefenort
Penny,An Der Flutbrücke 4,36269, Philippsthal (Werra)
Penny,An Der Flutbrücke 4,36269, Philippsthal (Werra)
Penny,Untertorstr. 38B,35410, Hungen
Penny,Untertorstr. 38B,35410, Hungen
Penny,Am Pfaffensteg 1,35325, Muecke/Merlau
Penny,Am Pfaffensteg 1,35325, Muecke/Merlau
Penny,Grünberger Str. 82,36304, Alsfeld
Penny,Grünberger Str. 82,36304, Alsfeld
Penny,Heinrich-Fourier-Str. 2,35394, Giessen
Penny,Heinrich-Fourier-Str. 2,35394, Giessen
Penny,Galerie Neustädter Tor/ Neustadt 28,35390, Giessen
Penny,Galerie Neustädter Tor/ Neustadt 28,35390, Giessen
Penny,Moettauer Str. 12a,35789, Weilmuenster
Penny,Moettauer Str. 12a,35789, Weilmuenster
Penny,"Im Westpark 2-6, Wetzlarer Straße",35435, Wettenberg/Krofdorf-Gleiberg
Penny,"Im Westpark 2-6, Wetzlarer Straße",35435, Wettenberg/Krofdorf-Gleiberg
Penny,Nauborner Str. 140,35578, Wetzlar
Penny,Nauborner Str. 140,35578, Wetzlar
Penny,Karl-Kellner-Ring 34,35576, Wetzlar
Penny,Karl-Kellner-Ring 34,35576, Wetzlar
Penny,Braunfelser Str. 33,35606, Solms-Oberndorf
Penny,Braunfelser Str. 33,35606, Solms-Oberndorf
Penny,Hessenallee 42,34613, Schwalmstadt/Ziegenhain
Penny,Hessenallee 42,34613, Schwalmstadt/Ziegenhain
Penny,Alsfelder Str. 58,35274, Kirchhain
Penny,Alsfelder Str. 58,35274, Kirchhain
Penny,Ziegenhainer Str. 8-10,34621, Frielendorf
Penny,Ziegenhainer Str. 8-10,34621, Frielendorf
Penny,L 3281/Güldenstadt 1,35792, Löhnberg
Penny,L 3281/Güldenstadt 1,35792, Löhnberg
Penny,Herborner Str. 46-52,35630, Ehringshausen
Penny,Herborner Str. 46-52,35630, Ehringshausen
Penny,Neue Kasseler Str. 26b,35039, Marburg
Penny,Neue Kasseler Str. 26b,35039, Marburg
Penny,Alte Kasseler Str. 15,34590, Wabern
Penny,Alte Kasseler Str. 15,34590, Wabern
Penny,Westerwaldstr. 23,35759, Driedorf/Mademuehlen
Penny,Westerwaldstr. 23,35759, Driedorf/Mademuehlen
Penny,Schwimmbadweg 25,34281, Gudensberg
Penny,Schwimmbadweg 25,34281, Gudensberg
Penny,Str. D. Einheit 133,37318, Uder
Penny,Str. D. Einheit 133,37318, Uder
Penny,Industriestr. 1A,35684, Dillenburg/Frohnhausen
Penny,Industriestr. 1A,35684, Dillenburg/Frohnhausen
Penny,Kasselerstr. 72,34123, Kassel/Waldau
Penny,Kasselerstr. 72,34123, Kassel/Waldau
Penny,Hainbuchenstr. 1,34225, Baunatal/Altenbauna
Penny,Hainbuchenstr. 1,34225, Baunatal/Altenbauna
Penny,Bottendorfer Str. 49,35066, Frankenberg
Penny,Bottendorfer Str. 49,35066, Frankenberg
Penny,Toepfenhofweg 4,34134, Kassel/Niederzwehren
Penny,Toepfenhofweg 4,34134, Kassel/Niederzwehren
Penny,Neue Str. 2C,37345, Bischofferode
Penny,Neue Str. 2C,37345, Bischofferode
Penny,Biedenkopfer Str. 33,35088, Battenberg
Penny,Biedenkopfer Str. 33,35088, Battenberg
Penny,Friedrich-Ebert-Str. 50,34117, Kassel/West
Penny,Friedrich-Ebert-Str. 50,34117, Kassel/West
Penny,Rolandstr. 1B,34131, Kassel/Wilhelmshoehe
Penny,Rolandstr. 1B,34131, Kassel/Wilhelmshoehe
Penny,Struthbachweg 22/Ecke Wiener Straße,34127, Kassel/Nord
Penny,Struthbachweg 22/Ecke Wiener Straße,34127, Kassel/Nord
Penny,Zur Feilenfabrik 4,37115, Duderstadt
Penny,Zur Feilenfabrik 4,37115, Duderstadt
Penny,Adenauerring 8,37115, Duderstadt
Penny,Adenauerring 8,37115, Duderstadt
Penny,Zum Hirtenkamp 2,34128, Kassel/Jungfernkopf
Penny,Zum Hirtenkamp 2,34128, Kassel/Jungfernkopf
Penny,Wilhelmshaeuserstr. 43,34346, Hann. Münden
Penny,Wilhelmshaeuserstr. 43,34346, Hann. Münden
Penny,Ziegelstr. 20,34346, Hann. Muenden
Penny,Ziegelstr. 20,34346, Hann. Muenden
Penny,Kasselerstr. 7,34317, Habichtswald
Penny,Kasselerstr. 7,34317, Habichtswald
Penny,An Der Moenchlede 1A,37441, Bad Sachsa
Penny,An Der Moenchlede 1A,37441, Bad Sachsa
Penny,Leibnizstr. 8,37083, Goettingen
Penny,Leibnizstr. 8,37083, Goettingen
Penny,Theodor-Heuss-Str. 66,37075, Goettingen/Weende
Penny,Theodor-Heuss-Str. 66,37075, Goettingen/Weende
Penny,Maschmühlenweg 64,37081, Göttingen
Penny,Maschmühlenweg 64,37081, Göttingen
Penny,Medebacher Landstr. 21,34497, Korbach
Penny,Medebacher Landstr. 21,34497, Korbach
Penny,Rotenbergstr. 27,37197, Hattorf
Penny,Rotenbergstr. 27,37197, Hattorf
Penny,Am Buchholzplatz 5,38700, Braunlage
Penny,Am Buchholzplatz 5,38700, Braunlage
Penny,Osteroder Str. 1,37191, Katlenburg
Penny,Osteroder Str. 1,37191, Katlenburg
Penny,Neue Halberstädter Str. 67c,38889, Blankenburg (Harz)
Penny,Neue Halberstädter Str. 67c,38889, Blankenburg (Harz)
Penny,In Der Güldenen Aue 1,37154, Northeim
Penny,In Der Güldenen Aue 1,37154, Northeim
Penny,An Der Holtemme 67,38855, Wernigerode
Penny,An Der Holtemme 67,38855, Wernigerode
Penny,Osterroeder Str. 1,38678, Clausthal-Zellerfeld
Penny,Osterroeder Str. 1,38678, Clausthal-Zellerfeld
Penny,Magdeburger Str. 48,38820, Halberstadt
Penny,Magdeburger Str. 48,38820, Halberstadt
Penny,Barbyer Str. 33-35,39240, Calbe
Penny,Barbyer Str. 33-35,39240, Calbe
Penny,Breite Str. 8,38667, Bad Harzburg
Penny,Breite Str. 8,38667, Bad Harzburg
Penny,Wehrdamm 10,38642, Goslar
Penny,Wehrdamm 10,38642, Goslar
Penny,Marienburger Str. 1,38642, Goslar/Juergenohl
Penny,Marienburger Str. 1,38642, Goslar/Juergenohl
Penny,Zinsdorfer Weg 22,33181, Bad Wuennenberg
Penny,Zinsdorfer Weg 22,33181, Bad Wuennenberg
Penny,Marienburger Str. 65,38642, Goslar
Penny,Marienburger Str. 65,38642, Goslar
Penny,Bornhaeuser Str. 5,38723, Seesen
Penny,Bornhaeuser Str. 5,38723, Seesen
Penny,Osterwiecker Str. 11,38690, Goslar
Penny,Osterwiecker Str. 11,38690, Goslar
Penny,Albert-Klaus-Str. 1,38836, Badersleben
Penny,Albert-Klaus-Str. 1,38836, Badersleben
Penny,Lange Str. 64,38685, Langelsheim
Penny,Lange Str. 64,38685, Langelsheim
Penny,Welsleber Str. 47a,39218, Schönebeck
Penny,Welsleber Str. 47a,39218, Schönebeck
Penny,Wulferstedter Weg 5,39387, Hornhausen
Penny,Wulferstedter Weg 5,39387, Hornhausen
Penny,Lewerstr. 6,38704, Liebenburg
Penny,Lewerstr. 6,38704, Liebenburg
Penny,A.-Zweig-Str. 4,39120, Magdeburg
Penny,A.-Zweig-Str. 4,39120, Magdeburg
Penny,Halberstaedt. Chaussee 66,39116, Magdeburg
Penny,Halberstaedt. Chaussee 66,39116, Magdeburg
Penny,Haarener Str. 60,33178, Borchen
Penny,Haarener Str. 60,33178, Borchen
Penny,Am Pfingstanger 19,38259, Salzgitter
Penny,Am Pfingstanger 19,38259, Salzgitter
Penny,An der Erzbahn 9,38259, Salzgitter
Penny,An der Erzbahn 9,38259, Salzgitter
Penny,Jerichower Str. 28/30,39114, Magdeburg
Penny,Jerichower Str. 28/30,39114, Magdeburg
Penny,Ebendorfer Str. 15-17,39108, Magdeburg
Penny,Ebendorfer Str. 15-17,39108, Magdeburg
Penny,Roggengrund 37,39130, Magdeburg/Neu Olvenstadt
Penny,Roggengrund 37,39130, Magdeburg/Neu Olvenstadt
Penny,Olvenstedter Scheid 101,39130, Magdeburg Neu Olvenstedt
Penny,Olvenstedter Scheid 101,39130, Magdeburg Neu Olvenstedt
Penny,Luebecker Str. 130D,39124, Magdeburg
Penny,Luebecker Str. 130D,39124, Magdeburg
Penny,Hötensleberstr. 50a,38364, Schöningen
Penny,Hötensleberstr. 50a,38364, Schöningen
Penny,Geseker Str. 21B,33154, Salzkotten
Penny,Geseker Str. 21B,33154, Salzkotten
Penny,Neustaedter Platz 11,39126, Magdeburg/Neustädter See
Penny,Neustaedter Platz 11,39126, Magdeburg/Neustädter See
Penny,Scheidebuschstr. 30,39126, Magdeburg-Gewerbegebiet Nord
Penny,Scheidebuschstr. 30,39126, Magdeburg-Gewerbegebiet Nord
Penny,Zur Rast 36,38271, Baddeckenstedt
Penny,Zur Rast 36,38271, Baddeckenstedt
Penny,Rühler Str. 32,37619, Bodenwerder
Penny,Rühler Str. 32,37619, Bodenwerder
Penny,Detmolder Str. 222,33175, Bad Lippspringe
Penny,Detmolder Str. 222,33175, Bad Lippspringe
Penny,Sanderstr. 66-72,33106, Paderborn
Penny,Sanderstr. 66-72,33106, Paderborn
Penny,Bielefelder Straße117/Sennebahnh,33104, Paderborn/Sennelager
Penny,Bielefelder Straße117/Sennebahnh,33104, Paderborn/Sennelager
Penny,Theodor-Heuss-Str. 57-59,38228, Salzgitter/Lebenstedt
Penny,Theodor-Heuss-Str. 57-59,38228, Salzgitter/Lebenstedt
Penny,Elzweg 61,38350, Helmstedt
Penny,Elzweg 61,38350, Helmstedt
Penny,Neisse Str. 16,38226, Salzgitter/Lebenstedt
Penny,Neisse Str. 16,38226, Salzgitter/Lebenstedt
Penny,Neumärker Str. 1a - 3,38350, Helmstedt
Penny,Neumärker Str. 1a - 3,38350, Helmstedt
Penny,Reppnersche Str. 1B,38226, Salzgitter
Penny,Reppnersche Str. 1B,38226, Salzgitter
Penny,Panscheberg 2,38239, Salzgitter/Thiede
Penny,Panscheberg 2,38239, Salzgitter/Thiede
Penny,Steintorstr. 28,31028, Gronau
Penny,Steintorstr. 28,31028, Gronau
Penny,Colbitzer Str. 7a,39326, Wolmirstedt
Penny,Colbitzer Str. 7a,39326, Wolmirstedt
Penny,Bahnhofstr. 44,31812, Bad Pyrmont
Penny,Bahnhofstr. 44,31812, Bad Pyrmont
Penny,Bahnhofstr. 19A,38173, Sickte/Obersickte
Penny,Bahnhofstr. 19A,38173, Sickte/Obersickte
Penny,Neuhaldenslebener Str. 46,39340, Haldensleben
Penny,Neuhaldenslebener Str. 46,39340, Haldensleben
Penny,Griessemer Str. 26,31812, Bad Pyrmont
Penny,Griessemer Str. 26,31812, Bad Pyrmont
Penny,"Siekgraben 54, 56",38124, Braunschweig/Stoeckheim
Penny,"Siekgraben 54, 56",38124, Braunschweig/Stoeckheim
Penny,Phoenixstr. 8,31137, Hildesheim
Penny,Phoenixstr. 8,31137, Hildesheim
Penny,Sachsenring 42,31137, Hildesheim
Penny,Sachsenring 42,31137, Hildesheim
Penny,Lippstaedter Str. 40,33397, Rietberg/Mastholte
Penny,Lippstaedter Str. 40,33397, Rietberg/Mastholte
Penny,Fabrikstr. 1C,38122, Braunschweig
Penny,Fabrikstr. 1C,38122, Braunschweig
Penny,Helmstedter Str. 17a,38368, Grasleben
Penny,Helmstedter Str. 17a,38368, Grasleben
Penny,Goslarsche Str. 21/21a,38118, Braunschweig
Penny,Goslarsche Str. 21/21a,38118, Braunschweig
Penny,Alte Heerstr. 22a,31863, Coppenbruegge
Penny,Alte Heerstr. 22a,31863, Coppenbruegge
Penny,Hagenbruecke 8/9,38100, Braunschweig/Innenstadt
Penny,Hagenbruecke 8/9,38100, Braunschweig/Innenstadt
Penny,Karlstr. 78-80,38106, Braunschweig
Penny,Karlstr. 78-80,38106, Braunschweig
Penny,Hoepperkrug 1,31855, Gross Berkel
Penny,Hoepperkrug 1,31855, Gross Berkel
Penny,Leipziger Str. 38,31789, Hameln
Penny,Leipziger Str. 38,31789, Hameln
Penny,Bodelschwinghstr. 15,38159, Vechelde
Penny,Bodelschwinghstr. 15,38159, Vechelde
Penny,Weinbergweg 34,38102, Braunschweig
Penny,Weinbergweg 34,38102, Braunschweig
Penny,Bielefelder Str. 326,32758, Detmold/Heidenoldendorf
Penny,Bielefelder Str. 326,32758, Detmold/Heidenoldendorf
Penny,Hastenbecker Weg 86,31785, Hameln
Penny,Hastenbecker Weg 86,31785, Hameln
Penny,Bahnhofstr. 31,31785, Hameln
Penny,Bahnhofstr. 31,31785, Hameln
Penny,Troppaustr. 20,38108, Braunschweig-Hondelage
Penny,Troppaustr. 20,38108, Braunschweig-Hondelage
Penny,Kerschensteiner Str. 1,31787, Hameln
Penny,Kerschensteiner Str. 1,31787, Hameln
Penny,Suentelstr. 10/12,31785, Hameln/Innenstadt
Penny,Suentelstr. 10/12,31785, Hameln/Innenstadt
Penny,Celler Heerstr. 312,38112, Braunschweig
Penny,Celler Heerstr. 312,38112, Braunschweig
Penny,Sender Str. 8,33758, Schloss Holte-Stukenbrock
Penny,Sender Str. 8,33758, Schloss Holte-Stukenbrock
Penny,Ziesenisstr. 1,31785, Hameln
Penny,Ziesenisstr. 1,31785, Hameln
Penny,Hamelner Str. 1,32694, Doerentrup
Penny,Hamelner Str. 1,32694, Doerentrup
Penny,Bahnhofstr. 54,32699, Extertal-Boesingfeld
Penny,Bahnhofstr. 54,32699, Extertal-Boesingfeld
Penny,Lemgoer Str. 41,32657, Lemgo/Brake
Penny,Lemgoer Str. 41,32657, Lemgo/Brake
Penny,Hildesheimer Str. 66,31157, Sarstedt
Penny,Hildesheimer Str. 66,31157, Sarstedt
Penny,Amtsweg 11,39359, Calvoerde
Penny,Amtsweg 11,39359, Calvoerde
Penny,Wiesenstr. 11,31226, Peine/Kernstadt-Sueed
Penny,Wiesenstr. 11,31226, Peine/Kernstadt-Sueed
Penny,Hamelner Str. 6,31832, Springe
Penny,Hamelner Str. 6,31832, Springe
Penny,Duttenstedter Str. 136,31224, Peine
Penny,Duttenstedter Str. 136,31224, Peine
Penny,An Der Zuckerfabrik 10,31832, Springe Bennigsen
Penny,An Der Zuckerfabrik 10,31832, Springe Bennigsen
Penny,Oesselser Str. 16,30880, Laatzen
Penny,Oesselser Str. 16,30880, Laatzen
Penny,Schlossstr. 20,38179, Schwuelper
Penny,Schlossstr. 20,38179, Schwuelper
Penny,Detmeroder Markt 1-3,38444, Wolfsburg
Penny,Detmeroder Markt 1-3,38444, Wolfsburg
Penny,Bahnhofstr. 19,38458, Velpke
Penny,Bahnhofstr. 19,38458, Velpke
Penny,Mörser Str. 59B,38442, Wolfsburg/Ehmen
Penny,Mörser Str. 59B,38442, Wolfsburg/Ehmen
Penny,Hauptstr. 24A,38527, Meine
Penny,Hauptstr. 24A,38527, Meine
Penny,Herrenfelderstr. 41,31228, Peine
Penny,Herrenfelderstr. 41,31228, Peine
Penny,Halberstaedter Str. 281,38444, Wolfsburg
Penny,Halberstaedter Str. 281,38444, Wolfsburg
Penny,Rabenbergstr. 30,38444, Wolfsburg/Rabenberg
Penny,Rabenbergstr. 30,38444, Wolfsburg/Rabenberg
Penny,Bismarckstr. 57,39517, Tangerhuette
Penny,Bismarckstr. 57,39517, Tangerhuette
Penny,Welseder Str. 35,31840, Hessisch Oldendorf
Penny,Welseder Str. 35,31840, Hessisch Oldendorf
Penny,Mecklenburgerstr. 1,38440, Wolfsburg
Penny,Mecklenburgerstr. 1,38440, Wolfsburg
Penny,Anemonenweg 8-10,38446, Wolfsburg/Hellwinkel
Penny,Anemonenweg 8-10,38446, Wolfsburg/Hellwinkel
Penny,Schubertweg 1,30880, Laatzen
Penny,Schubertweg 1,30880, Laatzen
Penny,Stendaler Str. 97-99,39646, Oebisfelde-Weferlingen
Penny,Stendaler Str. 97-99,39646, Oebisfelde-Weferlingen
Penny,Kleistr. 41-47,38440, Wolfsburg
Penny,Kleistr. 41-47,38440, Wolfsburg
Penny,Porschestr. 2,38440, Wolfsburg
Penny,Porschestr. 2,38440, Wolfsburg
Penny,Bielefelderstr. 10,32107, Bad Salzuflen
Penny,Bielefelderstr. 10,32107, Bad Salzuflen
Penny,Droemlingstr. 10,38448, Wolfsburg/Teichbreite
Penny,Droemlingstr. 10,38448, Wolfsburg/Teichbreite
Penny,Göttinger Str. 3,30966, Hemmingen
Penny,Göttinger Str. 3,30966, Hemmingen
Penny,Kurfuerstenstr. 20,31275, Lehrte/Sievershausen
Penny,Kurfuerstenstr. 20,31275, Lehrte/Sievershausen
Penny,Obere Tor 40,38448, Wolfsburg
Penny,Obere Tor 40,38448, Wolfsburg
Penny,Hansaplatz 22,38448, Wolfsburg
Penny,Hansaplatz 22,38448, Wolfsburg
Penny,Eggeweg 3,33617, Bielefeld
Penny,Eggeweg 3,33617, Bielefeld
Penny,Hauptstr. 11,38550, Isenbüttel
Penny,Hauptstr. 11,38550, Isenbüttel
Penny,Goettinger Landstr. 60,30966, Hemmingen
Penny,Goettinger Landstr. 60,30966, Hemmingen
Penny,Hannoversche Str. 41,31275, Lehrte/Ahlten
Penny,Hannoversche Str. 41,31275, Lehrte/Ahlten
Penny,An der Wollebahn 3,30519, Hannover
Penny,An der Wollebahn 3,30519, Hannover
Penny,Landwehrstr. 91,30519, Hannover/Doehren
Penny,Landwehrstr. 91,30519, Hannover/Doehren
Penny,Zuckerpassage 35,31275, Lehrte
Penny,Zuckerpassage 35,31275, Lehrte
Penny,Rehrener Str. 43,31749, Auetal/Rehren
Penny,Rehrener Str. 43,31749, Auetal/Rehren
Penny,Coppenbruegger Landstr. 60,31867, Lauenau
Penny,Coppenbruegger Landstr. 60,31867, Lauenau
Penny,Treckowstr. 187,30457, Hannover/Wettbergen
Penny,Treckowstr. 187,30457, Hannover/Wettbergen
Penny,Neue Str. 61,30457, Hannover/Wettbergen
Penny,Neue Str. 61,30457, Hannover/Wettbergen
Penny,Stackmannstr. 21,31275, Lehrte
Penny,Stackmannstr. 21,31275, Lehrte
Penny,Gilder Weg 39,38542, Leiferde
Penny,Gilder Weg 39,38542, Leiferde
Penny,Jöllenbecker Str. 220-222,33613, Bielefeld
Penny,Jöllenbecker Str. 220-222,33613, Bielefeld
Penny,Auf Der Papenburg 20,30459, Hannover
Penny,Auf Der Papenburg 20,30459, Hannover
Penny,Berliner Str. 23,30952, Ronnenberg/Empelde-Empelde
Penny,Berliner Str. 23,30952, Ronnenberg/Empelde-Empelde
Penny,Kreuzbergerstr. 19,33619, Bielefeld
Penny,Kreuzbergerstr. 19,33619, Bielefeld
Penny,Ricklinger Str. 99,30449, Hannover/Linden-Sued
Penny,Ricklinger Str. 99,30449, Hannover/Linden-Sued
Penny,Splittenbrede 22,33613, Bielefeld
Penny,Splittenbrede 22,33613, Bielefeld
Penny,Ostheide 13,33428, Harsewinkel
Penny,Ostheide 13,33428, Harsewinkel
Penny,Wilhelm-Hess-Str. 13,30890, Barsinghausen
Penny,Wilhelm-Hess-Str. 13,30890, Barsinghausen
Penny,Str. der Republik 2,39638, Gardelegen
Penny,Str. der Republik 2,39638, Gardelegen
Penny,Elverdisser Str. 54,32052, Herford
Penny,Elverdisser Str. 54,32052, Herford
Penny,Lehmweg 51,38518, Gifhorn
Penny,Lehmweg 51,38518, Gifhorn
Penny,Dorfstr. 1A,31711, Luhden
Penny,Dorfstr. 1A,31711, Luhden
Penny,Braunschweiger Str. 33,38518, Gifhorn
Penny,Braunschweiger Str. 33,38518, Gifhorn
Penny,Deisterstr. 41-45,30449, Hannover
Penny,Deisterstr. 41-45,30449, Hannover
Penny,Lenther Chaussee 7,30455, Hannover/Badenstedt
Penny,Lenther Chaussee 7,30455, Hannover/Badenstedt
Penny,Davenstedter Str. 109E,30453, Hannover
Penny,Davenstedter Str. 109E,30453, Hannover
Penny,Rotekreuzstr. 12,30627, Hannover/Roderbruch
Penny,Rotekreuzstr. 12,30627, Hannover/Roderbruch
Penny,Kurt-Schumacher-Str. 36,30159, Hannover/Mitte
Penny,Kurt-Schumacher-Str. 36,30159, Hannover/Mitte
Penny,Engerstr. 45,32051, Herford
Penny,Engerstr. 45,32051, Herford
Penny,Eckerstr. 1,30161, Hannover/Oststadt
Penny,Eckerstr. 1,30161, Hannover/Oststadt
Penny,Weidestr. 1,30453, Hannover/Limmer
Penny,Weidestr. 1,30453, Hannover/Limmer
Penny,Schierholzstr. 114,30655, Hannover/Misburg
Penny,Schierholzstr. 114,30655, Hannover/Misburg
Penny,Wilscher Weg 55,38518, Gifhorn
Penny,Wilscher Weg 55,38518, Gifhorn
Penny,Immenser Str. 6,31303, Burgdorf
Penny,Immenser Str. 6,31303, Burgdorf
Penny,Hinrichsring 29,30177, Hannover/List
Penny,Hinrichsring 29,30177, Hannover/List
Penny,Isernhagener Str. 103-107,30163, Hannover-Vahrenwald
Penny,Isernhagener Str. 103-107,30163, Hannover-Vahrenwald
Penny,Zum Holzplatz 2,38524, Sassenburg
Penny,Zum Holzplatz 2,38524, Sassenburg
Penny,Schulenburger Landstr. 40,30165, Hannover/Hainholz
Penny,Schulenburger Landstr. 40,30165, Hannover/Hainholz
Penny,Puritzweg 4,30659, Hannover/Bothfeld
Penny,Puritzweg 4,30659, Hannover/Bothfeld
Penny,Hauptstr. 20,31542, Bad Nenndorf
Penny,Hauptstr. 20,31542, Bad Nenndorf
Penny,Ellernstr. 1,32457, Porta Westfalica
Penny,Ellernstr. 1,32457, Porta Westfalica
Penny,Moenkeburgstr. 98,31303, Burgdorf
Penny,Moenkeburgstr. 98,31303, Burgdorf
Penny,Weserstr. 36,32547, Bad Oeynhausen
Penny,Weserstr. 36,32547, Bad Oeynhausen
Penny,Bothfelder Str. 23,30916, Isernhagen
Penny,Bothfelder Str. 23,30916, Isernhagen
Penny,Tempelhofweg 4-6/Lankwitzweg 52-54,30179, Hannover
Penny,Tempelhofweg 4-6/Lankwitzweg 52-54,30179, Hannover
Penny,Windmuehlenstr. 40,31675, Bueckeburg
Penny,Windmuehlenstr. 40,31675, Bueckeburg
Penny,Hogrefestr. 22/Eichsfelder Str. 74,30419, Hannover
Penny,Hogrefestr. 22/Eichsfelder Str. 74,30419, Hannover
Penny,Niedermuehlenstr. 5,32130, Enger
Penny,Niedermuehlenstr. 5,32130, Enger
Penny,Weissdornallee 1,31311, Uetze/Haenigsen
Penny,Weissdornallee 1,31311, Uetze/Haenigsen
Penny,Weihestr. 15-17,32584, Löhne
Penny,Weihestr. 15-17,32584, Löhne
Penny,Gifhorner Str. 6,38539, Mueden (Aller)
Penny,Gifhorner Str. 6,38539, Mueden (Aller)
Penny,Dehmer Str. 45,32549, Bad Oeynhausen
Penny,Dehmer Str. 45,32549, Bad Oeynhausen
Penny,Pillauerstr. 10,31655, Stadthagen
Penny,Pillauerstr. 10,31655, Stadthagen
Penny,Marktplatz 5,30853, Langenhagen
Penny,Marktplatz 5,30853, Langenhagen
Penny,Orionhof 8,30823, Garbsen
Penny,Orionhof 8,30823, Garbsen
Penny,Lohkamp (Raehrweg) 45-48,30855, Langenhagen/Godshorn
Penny,Lohkamp (Raehrweg) 45-48,30855, Langenhagen/Godshorn
Penny,Scharnhorststr. 45,39576, Stendal
Penny,Scharnhorststr. 45,39576, Stendal
Penny,Elsestr. 71,32278, Kirchlengern
Penny,Elsestr. 71,32278, Kirchlengern
Penny,Im Obrock 17A,32278, Kirchlengern
Penny,Im Obrock 17A,32278, Kirchlengern
Penny,Portastr. 64,32429, Minden/Innenstadt
Penny,Portastr. 64,32429, Minden/Innenstadt
Penny,Arneburger Str. 146,39576, Stendal
Penny,Arneburger Str. 146,39576, Stendal
Penny,Ringstr. 37,32427, Minden
Penny,Ringstr. 37,32427, Minden
Penny,Hannoversche Str. 1,30938, Grossburgwedel
Penny,Hannoversche Str. 1,30938, Grossburgwedel
Penny,Alte Bundesstr. 5,31303, Burgdorf-Ehlershausen
Penny,Alte Bundesstr. 5,31303, Burgdorf-Ehlershausen
Penny,Wasserbreite 25,32257, Buende
Penny,Wasserbreite 25,32257, Buende
Penny,Hagenstr. 5,38486, Klötze
Penny,Hagenstr. 5,38486, Klötze
Penny,Marienstr. 108,32425, Minden
Penny,Marienstr. 108,32425, Minden
Penny,Lahder Str. 19-21,32423, Minden
Penny,Lahder Str. 19-21,32423, Minden
Penny,Hauptstr. 63,30938, Burgwedel
Penny,Hauptstr. 63,30938, Burgwedel
Penny,Oberestr. 32,31553, Sachsenhagen
Penny,Oberestr. 32,31553, Sachsenhagen
Penny,Stiftsallee 70,32425, Minden
Penny,Stiftsallee 70,32425, Minden
Penny,Hauptstr. 3,32609, Huellhorst
Penny,Hauptstr. 3,32609, Huellhorst
Penny,An Der Bahn 7,32469, Petershagen/Lahde
Penny,An Der Bahn 7,32469, Petershagen/Lahde
Penny,Scherenbosteler Str. 65,30900, Wedemark
Penny,Scherenbosteler Str. 65,30900, Wedemark
Penny,Buender Str. 83,32289, Roedinghausen/Schwenningdorf
Penny,Buender Str. 83,32289, Roedinghausen/Schwenningdorf
Penny,Gehlenbecker Str. 2B,32312, Luebbecke
Penny,Gehlenbecker Str. 2B,32312, Luebbecke
Penny,Berliner Str. 25,32361, Preußisch Oldendorf
Penny,Berliner Str. 25,32361, Preußisch Oldendorf
Penny,Heidtorstr. 32,31547, Rehburg-Loccum
Penny,Heidtorstr. 32,31547, Rehburg-Loccum
Penny,Amedorfer Str. 31,31535, Neustadt
Penny,Amedorfer Str. 31,31535, Neustadt
Penny,Lemfoerder Str. 21,32369, Rahden
Penny,Lemfoerder Str. 21,32369, Rahden
Penny,Stolzenauer Str. 8,31595, Steyerberg
Penny,Stolzenauer Str. 8,31595, Steyerberg
Penny,Lange Str. 88,31618, Liebenau
Penny,Lange Str. 88,31618, Liebenau
Penny,Hannoversche Str. 90-92,31582, Nienburg
Penny,Hannoversche Str. 90-92,31582, Nienburg
Penny,Goethestr. 9d/Schulstr. 11,39615, Seehausen/Altmark
Penny,Goethestr. 9d/Schulstr. 11,39615, Seehausen/Altmark
Penny,An der Chaussee 2,31582, Nienburg (Weser)
Penny,An der Chaussee 2,31582, Nienburg (Weser)
Penny,Wiehagener Str. 21,42499, Hückeswagen - Wiehagen
Penny,Wiehagener Str. 21,42499, Hückeswagen - Wiehagen
Penny,Kaiserstr. 159,42477, Radevormwald
Penny,Kaiserstr. 159,42477, Radevormwald
Penny,Am Stadion 11a,42897, Remscheid - Lennep
Penny,Am Stadion 11a,42897, Remscheid - Lennep
Penny,Vogelsmühle 17b,42477, Radevormwald
Penny,Vogelsmühle 17b,42477, Radevormwald
Penny,Kreuzbergstr. 4,42899, Remscheid - Lüttringhausen
Penny,Kreuzbergstr. 4,42899, Remscheid - Lüttringhausen
Penny,Alleestr. 87a,42853, Remscheid
Penny,Alleestr. 87a,42853, Remscheid
Penny,Vieringhausen 124,42857, Remscheid - West
Penny,Vieringhausen 124,42857, Remscheid - West
Penny,Stockkamp 4,42659, Solingen - Mitte
Penny,Stockkamp 4,42659, Solingen - Mitte
Penny,In Der Krim 4,42369, Wuppertal
Penny,In Der Krim 4,42369, Wuppertal
Penny,Lüneschloßstr. 105,42657, Solingen - Höhscheid
Penny,Lüneschloßstr. 105,42657, Solingen - Höhscheid
Penny,Lohdorfer Str. 246 / Friedenstraße,42699, Solingen - Ohligs
Penny,Lohdorfer Str. 246 / Friedenstraße,42699, Solingen - Ohligs
Penny,Werth 82,42275, Wuppertal
Penny,Werth 82,42275, Wuppertal
Penny,Solinger Str. 52,40764, Langenfeld - Immigrath
Penny,Solinger Str. 52,40764, Langenfeld - Immigrath
Penny,Schloßstr. 65,42285, Wuppertal
Penny,Schloßstr. 65,42285, Wuppertal
Penny,Mittelstr. 2,42697, Solingen
Penny,Mittelstr. 2,42697, Solingen
Penny,Steinbeck 68,42119, Wuppertal
Penny,Steinbeck 68,42119, Wuppertal
Penny,Weyerstr. 117,42697, Solingen - Ohligs
Penny,Weyerstr. 117,42697, Solingen - Ohligs
Penny,Kieler Str. 34,42107, Wuppertal
Penny,Kieler Str. 34,42107, Wuppertal
Penny,Schürbankstr. 40,44287, Dortmund - Aplerbeck
Penny,Schürbankstr. 40,44287, Dortmund - Aplerbeck
Penny,Schuerufer Str. 195,44269, Dortmund - Schüren
Penny,Schuerufer Str. 195,44269, Dortmund - Schüren
Penny,Benninghofer Str. 152,44269, Dortmund - Benninghofen
Penny,Benninghofer Str. 152,44269, Dortmund - Benninghofen
Penny,Alleestr. 17,42781, Haan
Penny,Alleestr. 17,42781, Haan
Penny,Froebelstr. 13,40789, Monheim - Baumberg
Penny,Froebelstr. 13,40789, Monheim - Baumberg
Penny,Asselner Hellweg 143,44319, Dortmund - Asseln
Penny,Asselner Hellweg 143,44319, Dortmund - Asseln
Penny,Alfred-Trappen-Str. 36,44263, Dortmund - Hörde
Penny,Alfred-Trappen-Str. 36,44263, Dortmund - Hörde
Penny,Steinkuehler Weg 223,44263, Dortmund - Hörde
Penny,Steinkuehler Weg 223,44263, Dortmund - Hörde
Penny,Fritz-Erler-Str. 20,40595, Düsseldorf
Penny,Fritz-Erler-Str. 20,40595, Düsseldorf
Penny,Mittelstr. 107,40721, Hilden
Penny,Mittelstr. 107,40721, Hilden
Penny,Bochumer Str. 6,45549, Sprockhoevel
Penny,Bochumer Str. 6,45549, Sprockhoevel
Penny,Mariannenpark 11,41569, Rommerskirchen - Eckum
Penny,Mariannenpark 11,41569, Rommerskirchen - Eckum
Penny,Wilhelmstr. 137B,42489, Wülfrath
Penny,Wilhelmstr. 137B,42489, Wülfrath
Penny,Am Gatherfeld 3,40699, Erkrath - Unterfeldhaus
Penny,Am Gatherfeld 3,40699, Erkrath - Unterfeldhaus
Penny,Mallinckrodtstr. 218,44147, Dortmund - Mitte
Penny,Mallinckrodtstr. 218,44147, Dortmund - Mitte
Penny,Jubilaeumsplatz 17-19,40822, Mettmann
Penny,Jubilaeumsplatz 17-19,40822, Mettmann
Penny,Wilhelm-Zaun-Str. 64,41542, Dormagen
Penny,Wilhelm-Zaun-Str. 64,41542, Dormagen
Penny,Champagne 16,40822, Mettmann
Penny,Champagne 16,40822, Mettmann
Penny,Altenbrückstr. 15,40599, Düsseldorf
Penny,Altenbrückstr. 15,40599, Düsseldorf
Penny,Marxstr. 96/100,45527, Hattingen - Welper
Penny,Marxstr. 96/100,45527, Hattingen - Welper
Penny,Itterstr. 8-10,40589, Düsseldorf - Holthausen
Penny,Itterstr. 8-10,40589, Düsseldorf - Holthausen
Penny,Morper Allee 1,40699, Erkrath
Penny,Morper Allee 1,40699, Erkrath
Penny,Martener Str. 346-348,44379, Dortmund - Marten
Penny,Martener Str. 346-348,44379, Dortmund - Marten
Penny,Am Kleinforst 3,40627, Düsseldorf - Eller
Penny,Am Kleinforst 3,40627, Düsseldorf - Eller
Penny,Jaegerstr. 12A,44532, Lünen - Süd
Penny,Jaegerstr. 12A,44532, Lünen - Süd
Penny,Provinzialstr. 25-27,44388, Dortmund - Lütgendortmund
Penny,Provinzialstr. 25-27,44388, Dortmund - Lütgendortmund
Penny,Luetgendortmunder Str. 144,44388, Dortmund - Lütgendortmund
Penny,Luetgendortmunder Str. 144,44388, Dortmund - Lütgendortmund
Penny,Kölner Landstr. 121,40591, Düsseldorf - Wersten
Penny,Kölner Landstr. 121,40591, Düsseldorf - Wersten
Penny,Reisholzer Str. 48,40231, Düsseldorf - Lierenfeld
Penny,Reisholzer Str. 48,40231, Düsseldorf - Lierenfeld
Penny,Schloss Str. 65,42551, Velbert - Mitte
Penny,Schloss Str. 65,42551, Velbert - Mitte
Penny,Hebbelstr. 15,42549, Velbert - Mitte
Penny,Hebbelstr. 15,42549, Velbert - Mitte
Penny,Erkrather Str. 364,40231, Düsseldorf - Flingern Süd
Penny,Erkrather Str. 364,40231, Düsseldorf - Flingern Süd
Penny,Westerfilder Str. 38-40,44357, Dortmund-Westerfilde
Penny,Westerfilder Str. 38-40,44357, Dortmund-Westerfilde
Penny,Provinzialstr. 387,44388, Dortmund
Penny,Provinzialstr. 387,44388, Dortmund
Penny,Harpener Hellweg 107,44805, Bochum - Harpen
Penny,Harpener Hellweg 107,44805, Bochum - Harpen
Penny,Koelner Str. 270,40227, Düsseldorf - Oberbilk
Penny,Koelner Str. 270,40227, Düsseldorf - Oberbilk
Penny,Lichtstr. 69-71,40235, Düsseldorf - Flingern
Penny,Lichtstr. 69-71,40235, Düsseldorf - Flingern
Penny,Castroper Str. 270,44791, Bochum - Innenstadt
Penny,Castroper Str. 270,44791, Bochum - Innenstadt
Penny,Gasstr. 24,45257, Essen - Kupferdreh
Penny,Gasstr. 24,45257, Essen - Kupferdreh
Penny,Euskirchener Str. 7-11,41469, Neuss - Erfttal
Penny,Euskirchener Str. 7-11,41469, Neuss - Erfttal
Penny,Wittekindstr. 8,44536, Lünen/Brambauer
Penny,Wittekindstr. 8,44536, Lünen/Brambauer
Penny,Suitbertusstr. 89-91,40223, Düsseldorf - Bilk
Penny,Suitbertusstr. 89-91,40223, Düsseldorf - Bilk
Penny,Allee Str. 65a,44793, Bochum
Penny,Allee Str. 65a,44793, Bochum
Penny,Bilker Allee 30,40219, Düsseldorf - Bilk
Penny,Bilker Allee 30,40219, Düsseldorf - Bilk
Penny,Ginsterweg 35,44869, Bochum - Höntrop
Penny,Ginsterweg 35,44869, Bochum - Höntrop
Penny,Wiescherstr. 7,44805, Bochum - Hiltrop
Penny,Wiescherstr. 7,44805, Bochum - Hiltrop
Penny,Herner Str. 107-109B,44809, Bochum - Hamme
Penny,Herner Str. 107-109B,44809, Bochum - Hamme
Penny,Von-Ossietzky-Ring 27a,45279, Essen - Steele
Penny,Von-Ossietzky-Ring 27a,45279, Essen - Steele
Penny,Derendorfer Str. 36,40479, Düsseldorf - Pempelfort
Penny,Derendorfer Str. 36,40479, Düsseldorf - Pempelfort
Penny,Oberrather Str. 8,40472, Düsseldorf - Rath
Penny,Oberrather Str. 8,40472, Düsseldorf - Rath
Penny,Ueberruhrstr. 52C,45277, Essen - Überruhr
Penny,Ueberruhrstr. 52C,45277, Essen - Überruhr
Penny,Mont-Cenis-Str. 268,44627, Herne
Penny,Mont-Cenis-Str. 268,44627, Herne
Penny,Stadionring 4,40878, Ratingen - Zentrum
Penny,Stadionring 4,40878, Ratingen - Zentrum
Penny,Recklinghauser Str. 120,44581, Castrop-Rauxel - Ickern
Penny,Recklinghauser Str. 120,44581, Castrop-Rauxel - Ickern
Penny,Krefelder Str. 33,41460, Neuss - Innenstadt
Penny,Krefelder Str. 33,41460, Neuss - Innenstadt
Penny,Bochumer Str. 16-18,44623, Herne - Mitte
Penny,Bochumer Str. 16-18,44623, Herne - Mitte
Penny,Lange Str. 95-97,44579, Castrop-Rauxel - Habinghorst
Penny,Lange Str. 95-97,44579, Castrop-Rauxel - Habinghorst
Penny,Brembergstr. 4/Zur Beckhove,45307, Essen - Kray
Penny,Brembergstr. 4/Zur Beckhove,45307, Essen - Kray
Penny,Kalkumer Str. 136-138,40468, Düsseldorf
Penny,Kalkumer Str. 136-138,40468, Düsseldorf
Penny,Vinckestr. 4,44623, Herne - Mitte
Penny,Vinckestr. 4,44623, Herne - Mitte
Penny,Wiesenstr. 30,40549, Düsseldorf-Heerdt
Penny,Wiesenstr. 30,40549, Düsseldorf-Heerdt
Penny,Steeler Str. 354-356,45138, Essen
Penny,Steeler Str. 354-356,45138, Essen
Penny,Bielefelder Str. 130,44625, Herne - Wanne
Penny,Bielefelder Str. 130,44625, Herne - Wanne
Penny,Bismarckstr. 108,44629, Herne - Baukau
Penny,Bismarckstr. 108,44629, Herne - Baukau
Penny,Konrad-Adenauer-Platz 4,40885, Ratingen
Penny,Konrad-Adenauer-Platz 4,40885, Ratingen
Penny,Marienstr. 167,45663, Recklinghausen - Süd
Penny,Marienstr. 167,45663, Recklinghausen - Süd
Penny,Karl-Meyer-Str. 5,45884, Gelsenkirchen - Rottenhausen
Penny,Karl-Meyer-Str. 5,45884, Gelsenkirchen - Rottenhausen
Penny,Ernestinenstr. 85,45141, Essen - Stoppenberg
Penny,Ernestinenstr. 85,45141, Essen - Stoppenberg
Penny,Wanner Str. 49,45888, Gelsenkirchen - Blumke - Hüllen
Penny,Wanner Str. 49,45888, Gelsenkirchen - Blumke - Hüllen
Penny,Bahnhofsvorplatz 4,45879, Gelsenkirchen
Penny,Bahnhofsvorplatz 4,45879, Gelsenkirchen
Penny,Wiehagen 135,45884, Gelsenkirchen - Rottenhausen
Penny,Wiehagen 135,45884, Gelsenkirchen - Rottenhausen
Penny,Gemarkenstr. 114-116,45147, Essen-Holsterhausen
Penny,Gemarkenstr. 114-116,45147, Essen-Holsterhausen
Penny,Everswinkeler Str. 22,48231, Warendorf - Freckenhorst
Penny,Everswinkeler Str. 22,48231, Warendorf - Freckenhorst
Penny,Dornbuschhegge 1,45309, Essen - Schonnebeck
Penny,Dornbuschhegge 1,45309, Essen - Schonnebeck
Penny,Koelner Str. 12,45661, Recklinghausen - Süd
Penny,Koelner Str. 12,45661, Recklinghausen - Süd
Penny,Freckenhorsterstr. 79,48231, Warendorf
Penny,Freckenhorsterstr. 79,48231, Warendorf
Penny,Haedenkampstr. 6D,45143, Essen - Altendorf
Penny,Haedenkampstr. 6D,45143, Essen - Altendorf
Penny,Bismarckstr. 282-290,45889, Gelsenkirchen - Bismarck
Penny,Bismarckstr. 282-290,45889, Gelsenkirchen - Bismarck
Penny,Frohnhauser Str. 371,45144, Essen - Frohnhausen
Penny,Frohnhauser Str. 371,45144, Essen - Frohnhausen
Penny,Westfalenstr. 62-64,45661, Recklinghausen - Hochlarmark
Penny,Westfalenstr. 62-64,45661, Recklinghausen - Hochlarmark
Penny,Maubishof 46,41564, Kaarst
Penny,Maubishof 46,41564, Kaarst
Penny,Kopernikusstr. 2-6,45143, Essen - Altendorf
Penny,Kopernikusstr. 2-6,45143, Essen - Altendorf
Penny,Dr.-Rau-Allee 3-5,48231, Warendorf
Penny,Dr.-Rau-Allee 3-5,48231, Warendorf
Penny,Gladbecker Str. 401,45326, Essen - Altenessen
Penny,Gladbecker Str. 401,45326, Essen - Altenessen
Penny,Bocholder Str. 276,45356, Essen - Bochold
Penny,Bocholder Str. 276,45356, Essen - Bochold
Penny,Dortmunder Str. 162,45665, Recklinghausen - Ost
Penny,Dortmunder Str. 162,45665, Recklinghausen - Ost
Penny,Lappenbrink 53/Beethovenstraße,48336, Sassenberg
Penny,Lappenbrink 53/Beethovenstraße,48336, Sassenberg
Penny,Vogelheimer Str. 168,45329, Essen - Vogelheim
Penny,Vogelheimer Str. 168,45329, Essen - Vogelheim
Penny,Dortmunder Str. 15,45665, Recklinghausen
Penny,Dortmunder Str. 15,45665, Recklinghausen
Penny,Westring/Fr.-Ebert-Str. 8,45659, Recklinghausen - Stadtmitte
Penny,Westring/Fr.-Ebert-Str. 8,45659, Recklinghausen - Stadtmitte
Penny,Wehrstr. 6,41199, Mönchengladbach-Odenkirchen
Penny,Wehrstr. 6,41199, Mönchengladbach-Odenkirchen
Penny,Altenessener Str. 610,45329, Essen
Penny,Altenessener Str. 610,45329, Essen
Penny,Freckenhorster Str. 30,48351, Everswinkel
Penny,Freckenhorster Str. 30,48351, Everswinkel
Penny,Cranger Str. 283-285,45891, Gelsenkirchen
Penny,Cranger Str. 283-285,45891, Gelsenkirchen
Penny,Odenkirchener Str. 179-183,41236, Mönchengladbach - Rheydt
Penny,Odenkirchener Str. 179-183,41236, Mönchengladbach - Rheydt
Penny,Sittardsberger Allee 10,47249, Duisburg - Buchholz
Penny,Sittardsberger Allee 10,47249, Duisburg - Buchholz
Penny,Essener Str. 2,45899, Gelsenkirchen
Penny,Essener Str. 2,45899, Gelsenkirchen
Penny,Oberhausener Str. 92,45476, Mülheim
Penny,Oberhausener Str. 92,45476, Mülheim
Penny,Donner Str. 218-220,45357, Essen - Dellwig
Penny,Donner Str. 218-220,45357, Essen - Dellwig
Penny,Duisburger Str. 367,45478, Mülheim - Speldorf
Penny,Duisburger Str. 367,45478, Mülheim - Speldorf
Penny,Horster Str. 380,45968, Gladbeck
Penny,Horster Str. 380,45968, Gladbeck
Penny,Dahlener Str. 285,41239, Mönchengladbach-Rheydt-West
Penny,Dahlener Str. 285,41239, Mönchengladbach-Rheydt-West
Penny,Mellinghofer Str. 168-170,46047, Oberhausen - Alt Oberhausen
Penny,Mellinghofer Str. 168-170,46047, Oberhausen - Alt Oberhausen
Penny,Horster Str. 239,45897, Gelsenkirchen - Beckhausen
Penny,Horster Str. 239,45897, Gelsenkirchen - Beckhausen
Penny,Neusser Str. 307,41065, Mönchengladbach
Penny,Neusser Str. 307,41065, Mönchengladbach
Penny,Paul-Ruettchen-Str. 15,41812, Erkelenz
Penny,Paul-Ruettchen-Str. 15,41812, Erkelenz
Penny,Straßburger Str. 145,46047, Oberhausen - Schlad
Penny,Straßburger Str. 145,46047, Oberhausen - Schlad
Penny,Hermann-Albertz-Str. 113,46045, Oberhausen - Altstadt Süd
Penny,Hermann-Albertz-Str. 113,46045, Oberhausen - Altstadt Süd
Penny,Sternbuschweg 112,47057, Duisburg - Neudorf
Penny,Sternbuschweg 112,47057, Duisburg - Neudorf
Penny,Kommandantenstr. 60,47057, Duisburg - Neudorf
Penny,Kommandantenstr. 60,47057, Duisburg - Neudorf
Penny,Danziger Platz 7,47809, Krefeld
Penny,Danziger Platz 7,47809, Krefeld
Penny,Nordring 8,45894, Gelsenkirchen - Buer
Penny,Nordring 8,45894, Gelsenkirchen - Buer
Penny,Koelner Str. 527,47807, Krefeld - Fischeln
Penny,Koelner Str. 527,47807, Krefeld - Fischeln
Penny,Am Roggenkamp 188-192,48165, Münster - Hiltrup
Penny,Am Roggenkamp 188-192,48165, Münster - Hiltrup
Penny,Kaiserstr. 12/Am Markt,47229, Duisburg - Friemersheim
Penny,Kaiserstr. 12/Am Markt,47229, Duisburg - Friemersheim
Penny,Hafelsstr. 239,47809, Krefeld - Oppum
Penny,Hafelsstr. 239,47809, Krefeld - Oppum
Penny,Josef-Drauschke-Str. 97,41061, Mönchengladbach - Holt
Penny,Josef-Drauschke-Str. 97,41061, Mönchengladbach - Holt
Penny,Königstr. 13,47051, Duisburg-Altstadt
Penny,Königstr. 13,47051, Duisburg-Altstadt
Penny,Obermeidericher Str. 26,47138, Duisburg - Obermeiderich
Penny,Obermeidericher Str. 26,47138, Duisburg - Obermeiderich
Penny,Bahnhofstr. 121-123A,45770, Marl - Sinsen
Penny,Bahnhofstr. 121-123A,45770, Marl - Sinsen
Penny,Valentinstraße/Polsumer Str. 216,45896, Gelsenkirchen - Hassel
Penny,Valentinstraße/Polsumer Str. 216,45896, Gelsenkirchen - Hassel
Penny,Uerdinger Str. 121,47799, Krefeld - Cracau
Penny,Uerdinger Str. 121,47799, Krefeld - Cracau
Penny,Essenberger Straße/Javastr. 1-5,47059, Duisburg - Neuenkamp
Penny,Essenberger Straße/Javastr. 1-5,47059, Duisburg - Neuenkamp
Penny,Muerriger Str. 23-25,41068, Mönchengladbach - Venn
Penny,Muerriger Str. 23-25,41068, Mönchengladbach - Venn
Penny,Feldhauser Str. 219-223,45966, Gladbeck
Penny,Feldhauser Str. 219-223,45966, Gladbeck
Penny,Westerholter Str. 5,45768, Marl - Alt-Marl
Penny,Westerholter Str. 5,45768, Marl - Alt-Marl
Penny,Orkotten 40,48291, Telgte
Penny,Orkotten 40,48291, Telgte
Penny,Gronewalder Str. 9-11,41836, Hückelhoven - Millich
Penny,Gronewalder Str. 9-11,41836, Hückelhoven - Millich
Penny,Mecklenburger Str. 4,46149, Oberhausen
Penny,Mecklenburger Str. 4,46149, Oberhausen
Penny,Alte Rather Str. 107,47802, Krefeld - Gartenstadt
Penny,Alte Rather Str. 107,47802, Krefeld - Gartenstadt
Penny,Zechenstr. 28,45772, Marl - Bassert
Penny,Zechenstr. 28,45772, Marl - Bassert
Penny,Fussbachstr. 36,41844, Wegberg
Penny,Fussbachstr. 36,41844, Wegberg
Penny,Austraße/Werthstr. 1,47119, Duisburg - Laar
Penny,Austraße/Werthstr. 1,47119, Duisburg - Laar
Penny,Maysweg 6,47918, Tönisvorst - Sankt Tönis
Penny,Maysweg 6,47918, Tönisvorst - Sankt Tönis
Penny,Schlachthofstr. 46,47167, Duisburg - Röttgersbach
Penny,Schlachthofstr. 46,47167, Duisburg - Röttgersbach
Penny,Am Holzplatz 2a,45721, Haltern - Haltern Am See
Penny,Am Holzplatz 2a,45721, Haltern - Haltern Am See
Penny,Hansaring 46-48,48155, Münster - Hafen/Zentrum
Penny,Hansaring 46-48,48155, Münster - Hafen/Zentrum
Penny,Am Kempschen Weg 2,47804, Krefeld - Benrad - Nord
Penny,Am Kempschen Weg 2,47804, Krefeld - Benrad - Nord
Penny,Lienener Damm 25/ Ecke Orffstraße,48346, Ostbevern
Penny,Lienener Damm 25/ Ecke Orffstraße,48346, Ostbevern
Penny,Gabelstr. 53a,46147, Oberhausen - Schmachtendorf
Penny,Gabelstr. 53a,46147, Oberhausen - Schmachtendorf
Penny,Schalweg 17,45721, Haltern-Sythen
Penny,Schalweg 17,45721, Haltern-Sythen
Penny,Erkelenzer Str. 24-51,41849, Wassenberg
Penny,Erkelenzer Str. 24-51,41849, Wassenberg
Penny,Händelstr. 157,46282, Dorsten
Penny,Händelstr. 157,46282, Dorsten
Penny,Homberger Str. 115,47441, Moers
Penny,Homberger Str. 115,47441, Moers
Penny,Baumschulenweg 6,48249, Dülmen
Penny,Baumschulenweg 6,48249, Dülmen
Penny,Bahnhofstr. 25,41366, Schwalmtal - Waldniel
Penny,Bahnhofstr. 25,41366, Schwalmtal - Waldniel
Penny,Niederrheinallee 81,47506, Neukirchen-Vluyn
Penny,Niederrheinallee 81,47506, Neukirchen-Vluyn
Penny,Karl-Heinz-Klingen-Str. 70,46539, Dinslaken
Penny,Karl-Heinz-Klingen-Str. 70,46539, Dinslaken
Penny,Emilie-Horten-Platz 1,47906, Kempen
Penny,Emilie-Horten-Platz 1,47906, Kempen
Penny,Wallstr. 33-35,46535, Dinslaken
Penny,Wallstr. 33-35,46535, Dinslaken
Penny,Augustastr. 183,46537, Dinslaken - Lohberg
Penny,Augustastr. 183,46537, Dinslaken - Lohberg
Penny,Stresemannstr. 1,47906, Kempen - Neue Stadt
Penny,Stresemannstr. 1,47906, Kempen - Neue Stadt
Penny,Lobbericher Str. 36,47929, Grefrath
Penny,Lobbericher Str. 36,47929, Grefrath
Penny,Im Steinbruch 6,49124, Georgsmarienhütte
Penny,Im Steinbruch 6,49124, Georgsmarienhütte
Penny,Brüsseler Str. 1,49124, Georgsmarienhütte
Penny,Brüsseler Str. 1,49124, Georgsmarienhütte
Penny,Rheinberger Str. 81-83,47495, Rheinberg - Budberg
Penny,Rheinberger Str. 81-83,47495, Rheinberg - Budberg
Penny,Biether Str. 18,41334, Nettetal - Breyell
Penny,Biether Str. 18,41334, Nettetal - Breyell
Penny,Rathausplatz 51,46562, Voerde
Penny,Rathausplatz 51,46562, Voerde
Penny,Moerser Str. 51-59,47475, Kamp-Lintfort
Penny,Moerser Str. 51-59,47475, Kamp-Lintfort
Penny,Lembecker Str. 119,46286, Dorsten - Rhade
Penny,Lembecker Str. 119,46286, Dorsten - Rhade
Penny,Annastr. 65,47495, Rheinberg
Penny,Annastr. 65,47495, Rheinberg
Penny,Meller Str. 118,49082, Osnabrueck/Schoelerberg
Penny,Meller Str. 118,49082, Osnabrueck/Schoelerberg
Penny,Ladberger/Ringeler Str. 19,49525, Lengerich
Penny,Ladberger/Ringeler Str. 19,49525, Lengerich
Penny,Tecklenburger Str. 3,49549, Ladbergen
Penny,Tecklenburger Str. 3,49549, Ladbergen
Penny,Buersche Str. 135,49084, Osnabrück
Penny,Buersche Str. 135,49084, Osnabrück
Penny,Neue Mitte 11,48734, Reken - Groß Reken
Penny,Neue Mitte 11,48734, Reken - Groß Reken
Penny,Koelner Str. 7,41334, Nettetal - Kaldenkirchen
Penny,Koelner Str. 7,41334, Nettetal - Kaldenkirchen
Penny,Bremer Str. 47A,49084, Osnabrueck/Schinkel
Penny,Bremer Str. 47A,49084, Osnabrueck/Schinkel
Penny,Niederdorfer Str. 40,47638, Straelen/Herongen
Penny,Niederdorfer Str. 40,47638, Straelen/Herongen
Penny,Rheinallee 13,46487, Wesel - Büderich
Penny,Rheinallee 13,46487, Wesel - Büderich
Penny,Werftstr. 1-3,46483, Wesel
Penny,Werftstr. 1-3,46483, Wesel
Penny,Landwehrstr. 50-52,49504, Lotte
Penny,Landwehrstr. 50-52,49504, Lotte
Penny,Fuerstenberger Str. 8-10,47608, Geldern
Penny,Fuerstenberger Str. 8-10,47608, Geldern
Penny,Mettinger Str. 52,49479, Ibbenbüren - Laggenbeck
Penny,Mettinger Str. 52,49479, Ibbenbüren - Laggenbeck
Penny,Butenwall 93/ Nordring 45,46325, Borken
Penny,Butenwall 93/ Nordring 45,46325, Borken
Penny,Sauerbruchweg 1,48565, Steinfurt - Borghorst
Penny,Sauerbruchweg 1,48565, Steinfurt - Borghorst
Penny,Amtmann-Schipper-Str. 109,48282, Emsdetten
Penny,Amtmann-Schipper-Str. 109,48282, Emsdetten
Penny,Viktorstr. 12,46509, Xanten
Penny,Viktorstr. 12,46509, Xanten
Penny,Engter Str. 24,49565, Bramsche
Penny,Engter Str. 24,49565, Bramsche
Penny,Ochtruper Str. 49,48565, Steinfurt/Burgsteinfurt
Penny,Ochtruper Str. 49,48565, Steinfurt/Burgsteinfurt
Penny,Bahnhofstr. 43,46499, Hamminkeln - Mehrhoog
Penny,Bahnhofstr. 43,46499, Hamminkeln - Mehrhoog
Penny,Walbecker Str. 7,47623, Kevelaer
Penny,Walbecker Str. 7,47623, Kevelaer
Penny,Roonstr. 2-10,46397, Bocholt
Penny,Roonstr. 2-10,46397, Bocholt
Penny,Dinxperloer Str. 5,46399, Bocholt
Penny,Dinxperloer Str. 5,46399, Bocholt
Penny,Stadtlohner Str. 21-27,48683, Ahaus - Wülen
Penny,Stadtlohner Str. 21-27,48683, Ahaus - Wülen
Penny,Osnabruecker Str. 84,48429, Rheine - Innenstadt
Penny,Osnabruecker Str. 84,48429, Rheine - Innenstadt
Penny,Kevelaerer Str. 30-32,47652, Weeze
Penny,Kevelaerer Str. 30-32,47652, Weeze
Penny,Sporker Str. 2,46399, Bocholt - Suderwick
Penny,Sporker Str. 2,46399, Bocholt - Suderwick
Penny,Bremer Str. 13,49406, Barnstorf
Penny,Bremer Str. 13,49406, Barnstorf
Penny,Auf Der Sunhaar 30-32,48599, Gronau - Epe
Penny,Auf Der Sunhaar 30-32,48599, Gronau - Epe
Penny,Koenigsstr. 56,48599, Gronau
Penny,Koenigsstr. 56,48599, Gronau
Penny,Nierenberger Str. 26,46446, Emmerich
Penny,Nierenberger Str. 26,46446, Emmerich
Penny,Materborner Allee 11,47533, Kleve - Materborn
Penny,Materborner Allee 11,47533, Kleve - Materborn
Penny,Beeker Str. 22,46446, Emmerich - Elten
Penny,Beeker Str. 22,46446, Emmerich - Elten
Penny,Großen Haag 10,47559, Kranenburg
Penny,Großen Haag 10,47559, Kranenburg
Penny,Ortega Str. 5,55278, Mommenheim
Penny,Ortega Str. 5,55278, Mommenheim
Penny,Bahnhofstr. 44,55232, Alzey
Penny,Bahnhofstr. 44,55232, Alzey
Penny,Oppenheimer Str. 52,55268, Nieder-Olm
Penny,Oppenheimer Str. 52,55268, Nieder-Olm
Penny,Kreuznacher Str. 1-7,55286, Wörrstadt
Penny,Kreuznacher Str. 1-7,55286, Wörrstadt
Penny,Holzstr. 1,55116, Mainz
Penny,Holzstr. 1,55116, Mainz
Penny,Große Bleiche 17-23,55116, Mainz-Altstadt
Penny,Große Bleiche 17-23,55116, Mainz-Altstadt
Penny,Boppstr. 11,55118, Mainz/Neustadt
Penny,Boppstr. 11,55118, Mainz/Neustadt
Penny,Hauptstr. 78,55120, Mainz/Mombach
Penny,Hauptstr. 78,55120, Mainz/Mombach
Penny,Kurmainzstr. 17,55126, Mainz/Finthen
Penny,Kurmainzstr. 17,55126, Mainz/Finthen
Penny,Bubenheimer Str. 11,55270, Schwabenheim An Der Selz
Penny,Bubenheimer Str. 11,55270, Schwabenheim An Der Selz
Penny,Ernst-Ludwig-Str. 13,55597, Woellstein
Penny,Ernst-Ludwig-Str. 13,55597, Woellstein
Penny,Rheinstr. 5,55435, Gau-Algesheim
Penny,Rheinstr. 5,55435, Gau-Algesheim
Penny,Hermann-Bopp-Str. 1,55218, Ingelheim
Penny,Hermann-Bopp-Str. 1,55218, Ingelheim
Penny,In Den Zehn Morgen 19,55559, Bretzenheim
Penny,In Den Zehn Morgen 19,55559, Bretzenheim
Penny,Bruehlstr. 11-17,56355, Nastätten
Penny,Bruehlstr. 11-17,56355, Nastätten
Penny,Maiwiese 23,55765, Birkenfeld
Penny,Maiwiese 23,55765, Birkenfeld
Penny,Trift 5,56281, Emmelshausen
Penny,Trift 5,56281, Emmelshausen
Penny,Ober Str. 171,56154, Boppard
Penny,Ober Str. 171,56154, Boppard
Penny,Casinstr. 60/Hunsrueckhoehenstraße,56154, Boppard - Buchholz
Penny,Casinstr. 60/Hunsrueckhoehenstraße,56154, Boppard - Buchholz
Penny,Alleestr. 16d,56410, Montabaur
Penny,Alleestr. 16d,56410, Montabaur
Penny,Gewerbestr. 16,56477, Rennerod
Penny,Gewerbestr. 16,56477, Rennerod
Penny,Bahnhofstr. 28a,56422, Wirges
Penny,Bahnhofstr. 28a,56422, Wirges
Penny,Ellingshohl 82,56076, Koblenz - Pfaffendorf
Penny,Ellingshohl 82,56076, Koblenz - Pfaffendorf
Penny,Arenberger Str. 28,56077, Koblenz
Penny,Arenberger Str. 28,56077, Koblenz
Penny,Pleurtuitstr. 9,56235, Ransbach - Baumbach
Penny,Pleurtuitstr. 9,56235, Ransbach - Baumbach
Penny,Andernacher Str. 238,56070, Koblenz
Penny,Andernacher Str. 238,56070, Koblenz
Penny,Rheinstr. 24c,56249, Herschbach
Penny,Rheinstr. 24c,56249, Herschbach
Penny,Neuwieder Str. 54B,56566, Neuwied - Engers
Penny,Neuwieder Str. 54B,56566, Neuwied - Engers
Penny,Dillenburger Str. 54,57234, Wilnsdorf
Penny,Dillenburger Str. 54,57234, Wilnsdorf
Penny,Hauptstr. 17a,56566, Neuwied
Penny,Hauptstr. 17a,56566, Neuwied
Penny,Sehler Anlage 19,56812, Cochem - Sehl
Penny,Sehler Anlage 19,56812, Cochem - Sehl
Penny,Koblenzer Str. 3,57627, Hachenburg
Penny,Koblenzer Str. 3,57627, Hachenburg
Penny,Trimbser Str. 4,56751, Polch
Penny,Trimbser Str. 4,56751, Polch
Penny,Auf Dem Ebenfeld 3,56567, Neuwied - Irlich
Penny,Auf Dem Ebenfeld 3,56567, Neuwied - Irlich
Penny,Konrad-Adenauer-Str. 20a,57572, Niederfischbach
Penny,Konrad-Adenauer-Str. 20a,57572, Niederfischbach
Penny,Brohltalstr. 170,56659, Burgbrohl
Penny,Brohltalstr. 170,56659, Burgbrohl
Penny,Lindenallee 52-58,57577, Hamm A. D. Sieg
Penny,Lindenallee 52-58,57577, Hamm A. D. Sieg
Penny,Frankfurter Str. 25,57635, Weyerbusch
Penny,Frankfurter Str. 25,57635, Weyerbusch
Penny,Gewerbestr. 7,54531, Manderscheid
Penny,Gewerbestr. 7,54531, Manderscheid
Penny,Lindenstr. 7B,53489, Sinzig
Penny,Lindenstr. 7B,53489, Sinzig
Penny,Rheinstr. 2,53560, Vettelschoss
Penny,Rheinstr. 2,53560, Vettelschoss
Penny,Hauptstr. 21-29,57482, Wenden
Penny,Hauptstr. 21-29,57482, Wenden
Penny,Aegidienberger Str. 71,53604, Bad Honnef - Aegidienberg
Penny,Aegidienberger Str. 71,53604, Bad Honnef - Aegidienberg
Penny,Heerstr. 3-5,53474, Bad Neuenahr - Ahrweiler
Penny,Heerstr. 3-5,53474, Bad Neuenahr - Ahrweiler
Penny,Hauptstr. 4-8,51580, Reichshof - Denklingen
Penny,Hauptstr. 4-8,51580, Reichshof - Denklingen
Penny,Bielefelder Str. 61,57368, Lennestadt - Elspe
Penny,Bielefelder Str. 61,57368, Lennestadt - Elspe
Penny,Freiladestr. 6,59929, Brilon
Penny,Freiladestr. 6,59929, Brilon
Penny,Herchener Str. 1,53809, Ruppichteroth
Penny,Herchener Str. 1,53809, Ruppichteroth
Penny,An Den Maerkten 3,53506, Ahrbrück
Penny,An Den Maerkten 3,53506, Ahrbrück
Penny,Serkenroder Str. 59,57413, Finnentrop
Penny,Serkenroder Str. 59,57413, Finnentrop
Penny,Bergkuhle 1,57439, Attendorn - Ennest
Penny,Bergkuhle 1,57439, Attendorn - Ennest
Penny,Allner Weg 8,53773, Hennef
Penny,Allner Weg 8,53773, Hennef
Penny,Bahnstr. 7,51702, Bergneustadt
Penny,Bahnstr. 7,51702, Bergneustadt
Penny,Klufterstr. 1,53175, Bonn - Friesdorf
Penny,Klufterstr. 1,53175, Bonn - Friesdorf
Penny,Baumschulenweg 8,53340, Meckenheim
Penny,Baumschulenweg 8,53340, Meckenheim
Penny,Krahmer Weg 1,53804, Much
Penny,Krahmer Weg 1,53804, Much
Penny,"Espeler Wiese 1, 3",53229, Bonn
Penny,"Espeler Wiese 1, 3",53229, Bonn
Penny,Puetzchens Chaussee 43,53227, Bonn - Beuel
Penny,Puetzchens Chaussee 43,53227, Bonn - Beuel
Penny,Zeithstr. 83-87,53721, Siegburg
Penny,Zeithstr. 83-87,53721, Siegburg
Penny,Zum Eickenhahn 2B,58540, Meinerzhagen
Penny,Zum Eickenhahn 2B,58540, Meinerzhagen
Penny,Johann-Quadt-Str. 3,53757, St. Augustin - Meindorf
Penny,Johann-Quadt-Str. 3,53757, St. Augustin - Meindorf
Penny,Am Frankenbad 5,53111, Bonn
Penny,Am Frankenbad 5,53111, Bonn
Penny,Bahnhofstr. 26,53123, Bonn - Duisdorf
Penny,Bahnhofstr. 26,53123, Bonn - Duisdorf
Penny,Mendener Str. 21,53840, Troisdorf - Friedr.-Wilh-Hütte
Penny,Mendener Str. 21,53840, Troisdorf - Friedr.-Wilh-Hütte
Penny,Pariser Str. 34,53117, Bonn / Auerberg-Auerberg
Penny,Pariser Str. 34,53117, Bonn / Auerberg-Auerberg
Penny,Hohe Str. 55,53119, Bonn - Tannenbusch
Penny,Hohe Str. 55,53119, Bonn - Tannenbusch
Penny,Overather Str. 60,51766, Engelskirchen - Loope
Penny,Overather Str. 60,51766, Engelskirchen - Loope
Penny,Otto-Hahn-Str. 18,53117, Bonn - Buschdorf
Penny,Otto-Hahn-Str. 18,53117, Bonn - Buschdorf
Penny,Hauptstr. 177,59846, Sundern
Penny,Hauptstr. 177,59846, Sundern
Penny,Steinhofplatz 1,51491, Overath
Penny,Steinhofplatz 1,51491, Overath
Penny,Bonner Str. 22,53332, Bornheim - Roisdorf
Penny,Bonner Str. 22,53332, Bornheim - Roisdorf
Penny,Feldmuehlestr. 24,53859, Niederkassel - Ranzel
Penny,Feldmuehlestr. 24,53859, Niederkassel - Ranzel
Penny,Kaiserstr. 6-8,51145, Köln - Urbach
Penny,Kaiserstr. 6-8,51145, Köln - Urbach
Penny,Heedfelder Str. 13,58509, Lüdenscheid
Penny,Heedfelder Str. 13,58509, Lüdenscheid
Penny,Gerberstr. 25,53879, Euskirchen - Innenstadt
Penny,Gerberstr. 25,53879, Euskirchen - Innenstadt
Penny,Juelicher Ring 27,53879, Euskirchen - Innenstadt
Penny,Juelicher Ring 27,53879, Euskirchen - Innenstadt
Penny,Othmarstr. 1,59590, Geseke
Penny,Othmarstr. 1,59590, Geseke
Penny,Wipperfuerther Str. 235,51515, Kürten - Biesfeld
Penny,Wipperfuerther Str. 235,51515, Kürten - Biesfeld
Penny,Suerther Hauptstr. 161,50999, Köln - Sürth
Penny,Suerther Hauptstr. 161,50999, Köln - Sürth
Penny,Parkallee 18,53919, Weilerswist
Penny,Parkallee 18,53919, Weilerswist
Penny,Bahnstr. 30,51688, Wipperfürth
Penny,Bahnstr. 30,51688, Wipperfürth
Penny,Zum Markt 2-4,53894, Mechernich
Penny,Zum Markt 2-4,53894, Mechernich
Penny,Siebenmorgen 13-15,51427, Bergisch Gladbach-Refrath
Penny,Siebenmorgen 13-15,51427, Bergisch Gladbach-Refrath
Penny,Alter Hellweg 32/Berger Straße,59597, Erwitte
Penny,Alter Hellweg 32/Berger Straße,59597, Erwitte
Penny,Rösrather Straße64 /Hardgenb. Kirchw.,51107, Köln-Ostheim
Penny,Rösrather Straße64 /Hardgenb. Kirchw.,51107, Köln-Ostheim
Penny,Hauptstr. 67,58675, Hemer - Sundwig
Penny,Hauptstr. 67,58675, Hemer - Sundwig
Penny,Olpener Str. 47-54,51103, Köln - Höhenberg
Penny,Olpener Str. 47-54,51103, Köln - Höhenberg
Penny,Goltsteinstr. 91,50968, Köln
Penny,Goltsteinstr. 91,50968, Köln
Penny,Vor Dem Walburger Tor 5,59494, Soest
Penny,Vor Dem Walburger Tor 5,59494, Soest
Penny,Herzog-Adolf-Weg 9,59494, Soest
Penny,Herzog-Adolf-Weg 9,59494, Soest
Penny,Maerkische Str. 59,58675, Hemer
Penny,Maerkische Str. 59,58675, Hemer
Penny,Friedrichstraße/Am Ostbahnhof 20,58644, Iserlohn - Zentrum
Penny,Friedrichstraße/Am Ostbahnhof 20,58644, Iserlohn - Zentrum
Penny,Schuetzenstr. 15-17,59505, Bad Sassendorf
Penny,Schuetzenstr. 15-17,59505, Bad Sassendorf
Penny,Zollstockguertel 37,50969, Köln - Zollstock
Penny,Zollstockguertel 37,50969, Köln - Zollstock
Penny,Merowingerstr. 33a,50677, Köln - Neustadt Süd
Penny,Merowingerstr. 33a,50677, Köln - Neustadt Süd
Penny,Eschweiler Str. 2,50354, Huerth-Hermuelheim
Penny,Eschweiler Str. 2,50354, Huerth-Hermuelheim
Penny,An Der Windmühle 5,59469, Ense - Parsit
Penny,An Der Windmühle 5,59469, Ense - Parsit
Penny,Deutzer Freiheit 96,50679, Köln
Penny,Deutzer Freiheit 96,50679, Köln
Penny,Overhagener Str. 22A,59557, Lippstadt - Kernstadt
Penny,Overhagener Str. 22A,59557, Lippstadt - Kernstadt
Penny,Im Weidenbruch 151,51061, Köln - Höhenhaus
Penny,Im Weidenbruch 151,51061, Köln - Höhenhaus
Penny,In Der Hofer Aue 1,51519, Odenthal - Osenau
Penny,In Der Hofer Aue 1,51519, Odenthal - Osenau
Penny,Am Weidenbach 26-30,50676, Köln - Altstadt Süd
Penny,Am Weidenbach 26-30,50676, Köln - Altstadt Süd
Penny,Ingeborg-Bachmann-Str. 1,50354, Hürth - Efferen
Penny,Ingeborg-Bachmann-Str. 1,50354, Hürth - Efferen
Penny,Dasselstr. 1-3,50674, Köln
Penny,Dasselstr. 1-3,50674, Köln
Penny,Eigelstein 51/Am Salzmagazin,50668, Köln - Altstadt Nord
Penny,Eigelstein 51/Am Salzmagazin,50668, Köln - Altstadt Nord
Penny,Zum Gänsgraben 3,50374, Erftstadt-Köttingen
Penny,Zum Gänsgraben 3,50374, Erftstadt-Köttingen
Penny,Wiedenbrücker Str. 50,59555, Lippstadt
Penny,Wiedenbrücker Str. 50,59555, Lippstadt
Penny,Hagener Str. 92a,58642, Iserlohn
Penny,Hagener Str. 92a,58642, Iserlohn
Penny,Ehrenfeldguertel 95,50825, Köln - Ehrenfeld
Penny,Ehrenfeldguertel 95,50825, Köln - Ehrenfeld
Penny,Einsteinstr. 2-6,51061, Köln - Flittard
Penny,Einsteinstr. 2-6,51061, Köln - Flittard
Penny,Hauptstr. 120-122,51399, Burscheid
Penny,Hauptstr. 120-122,51399, Burscheid
Penny,Annette-Von-Droste-Huelshoff-Str. 7,58730, Fröndenberg - Westick
Penny,Annette-Von-Droste-Huelshoff-Str. 7,58730, Fröndenberg - Westick
Penny,Gneisenaustr. 9,51377, Leverkusen - Manfort
Penny,Gneisenaustr. 9,51377, Leverkusen - Manfort
Penny,Subbelrather Str. 387-407,50825, Köln - Ehrenfeld
Penny,Subbelrather Str. 387-407,50825, Köln - Ehrenfeld
Penny,Longericher Str. 150,50739, Köln - Bilderstöckchen
Penny,Longericher Str. 150,50739, Köln - Bilderstöckchen
Penny,Leineweberstr. 1,51381, Leverkusen - Lützenkirchen
Penny,Leineweberstr. 1,51381, Leverkusen - Lützenkirchen
Penny,Soester Str. 32,59457, Werl
Penny,Soester Str. 32,59457, Werl
Penny,Am Paulshof 32-34,58119, Hagen - Hohenlimburg
Penny,Am Paulshof 32-34,58119, Hagen - Hohenlimburg
Penny,Aachener Str. 1153,50858, Köln - Weiden
Penny,Aachener Str. 1153,50858, Köln - Weiden
Penny,Merkenicher Hauptstr. 109,50769, Köln - Merkenich
Penny,Merkenicher Hauptstr. 109,50769, Köln - Merkenich
Penny,Lippborger Str. 19,59510, Lippetal - Herzfeld
Penny,Lippborger Str. 19,59510, Lippetal - Herzfeld
Penny,Eppenhauser Str. 18,58093, Hagen - Mittelstadt
Penny,Eppenhauser Str. 18,58093, Hagen - Mittelstadt
Penny,Wehrstr. 2-4,58256, Ennepetal - Altenvoerde
Penny,Wehrstr. 2-4,58256, Ennepetal - Altenvoerde
Penny,Graf-Von-Galen-Ring 24,58089, Hagen
Penny,Graf-Von-Galen-Ring 24,58089, Hagen
Penny,Bahnhofstr. 24,59329, Wadersloh
Penny,Bahnhofstr. 24,59329, Wadersloh
Penny,Koenigsberger Platz 6,51371, Leverkusen - Rheindorf
Penny,Koenigsberger Platz 6,51371, Leverkusen - Rheindorf
Penny,Werler Str. 3,59514, Welver
Penny,Werler Str. 3,59514, Welver
Penny,Enneper Str. 112-116,58135, Hagen - Haspe
Penny,Enneper Str. 112-116,58135, Hagen - Haspe
Penny,Alexanderstr. 18-20,58097, Hagen-Ischeland
Penny,Alexanderstr. 18-20,58097, Hagen-Ischeland
Penny,Kaiserstr. 71,58332, Schwelm
Penny,Kaiserstr. 71,58332, Schwelm
Penny,Hagener Str. 51,58239, Schwerte
Penny,Hagener Str. 51,58239, Schwerte
Penny,Am Falder 22,50171, Kerpen
Penny,Am Falder 22,50171, Kerpen
Penny,Schwerter Str. 223-227,58099, Hagen
Penny,Schwerter Str. 223-227,58099, Hagen
Penny,Maubacher Str. 9,52372, Kreuzau
Penny,Maubacher Str. 9,52372, Kreuzau
Penny,Sonnenallee 7,50259, Pulheim
Penny,Sonnenallee 7,50259, Pulheim
Penny,Dansweiler Str. 3/Brauweiler Straße,50129, Bergheim - Glessen
Penny,Dansweiler Str. 3/Brauweiler Straße,50129, Bergheim - Glessen
Penny,Neusser Landstr. 364-366,50769, Köln - Worringen
Penny,Neusser Landstr. 364-366,50769, Köln - Worringen
Penny,Nideggener Str. 90,52349, Düren
Penny,Nideggener Str. 90,52349, Düren
Penny,Venloer Str. 511,50259, Pulheim - Stommeln
Penny,Venloer Str. 511,50259, Pulheim - Stommeln
Penny,Heinrich-Wieschoff-Str. 1,59199, Bönen
Penny,Heinrich-Wieschoff-Str. 1,59199, Bönen
Penny,Osterfeldstr. 20-22,58300, Wetter - Wengern
Penny,Osterfeldstr. 20-22,58300, Wetter - Wengern
Penny,Herdeckerstraße/Annenstr. 170,58453, Witten - Annen
Penny,Herdeckerstraße/Annenstr. 170,58453, Witten - Annen
Penny,Alter Uentroper Weg 53,59071, Hamm
Penny,Alter Uentroper Weg 53,59071, Hamm
Penny,Schwarzer Weg 24,59065, Hamm - Mitte
Penny,Schwarzer Weg 24,59065, Hamm - Mitte
Penny,Lange Str. 134-136,59067, Hamm
Penny,Lange Str. 134-136,59067, Hamm
Penny,Muehlenstraße/Neue Mitte 86,52382, Niederzier
Penny,Muehlenstraße/Neue Mitte 86,52382, Niederzier
Penny,Bockumer Weg 59,59065, Hamm - Bockum-Hövel
Penny,Bockumer Weg 59,59065, Hamm - Bockum-Hövel
Penny,Landwehrstr. 68,59192, Bergkamen
Penny,Landwehrstr. 68,59192, Bergkamen
Penny,Im Landwehrwinkel 2,59073, Hamm - Heessen
Penny,Im Landwehrwinkel 2,59073, Hamm - Heessen
Penny,Dortm. Straße/Herringer Heide 2,59077, Hamm - Herringen
Penny,Dortm. Straße/Herringer Heide 2,59077, Hamm - Herringen
Penny,Am Roeteringshof 64,59229, Ahlen - Innenstadt
Penny,Am Roeteringshof 64,59229, Ahlen - Innenstadt
Penny,Jahnstr. 86,59192, Bergkamen-Oberaden
Penny,Jahnstr. 86,59192, Bergkamen-Oberaden
Penny,Horster Str. 24,59075, Hamm - Bockum-Hövel
Penny,Horster Str. 24,59075, Hamm - Bockum-Hövel
Penny,An Den 12 Bäumen 8,59368, Werne
Penny,An Den 12 Bäumen 8,59368, Werne
Penny,Stockemer Str. 17-19,52223, Stolberg/Breining
Penny,Stockemer Str. 17-19,52223, Stolberg/Breining
Penny,Schleidener Str. 164,52076, Aachen/Walheim-Walheim
Penny,Schleidener Str. 164,52076, Aachen/Walheim-Walheim
Penny,Talstr. 81,52249, Eschweiler - Röthgen
Penny,Talstr. 81,52249, Eschweiler - Röthgen
Penny,Dürener Str. 159,52249, Eschweiler
Penny,Dürener Str. 159,52249, Eschweiler
Penny,Langwahn 54,52249, Eschweiler
Penny,Langwahn 54,52249, Eschweiler
Penny,Berliner Str. 1,52428, Jülich
Penny,Berliner Str. 1,52428, Jülich
Penny,Juelicher Str. 20-29,52146, Würselen - Broichweiden
Penny,Juelicher Str. 20-29,52146, Würselen - Broichweiden
Penny,Juelicher Str. 186,52477, Alsdorf
Penny,Juelicher Str. 186,52477, Alsdorf
Penny,Adalbertsteinweg 34,52070, Aachen
Penny,Adalbertsteinweg 34,52070, Aachen
Penny,Habsburger Allee 11,52064, Aachen - Burtscheid
Penny,Habsburger Allee 11,52064, Aachen - Burtscheid
Penny,Grenzweg 82,52477, Alsdorf
Penny,Grenzweg 82,52477, Alsdorf
Penny,Hauptstr. 124-126,52499, Baesweiler - Setterich
Penny,Hauptstr. 124-126,52499, Baesweiler - Setterich
Penny,Erkelenzer Str. 11-13,52441, Linnich
Penny,Erkelenzer Str. 11-13,52441, Linnich
Penny,Roermonder Str. 577-583,52072, Aachen - Richterich
Penny,Roermonder Str. 577-583,52072, Aachen - Richterich
Penny,Drosselweg 9,52511, Geilenkirchen
Penny,Drosselweg 9,52511, Geilenkirchen
Penny,Bahnhofstr. 138a,52538, Gangelt - Birgden
Penny,Bahnhofstr. 138a,52538, Gangelt - Birgden
Penny,Roermonder Str. /Ecke Köllstr. 77,52525, Heinsberg
Penny,Roermonder Str. /Ecke Köllstr. 77,52525, Heinsberg
Penny,Hauptstr. 12,69437, Neckargerach
Penny,Hauptstr. 12,69437, Neckargerach
Penny,Bahnhofstr. 15,69427, Mudau
Penny,Bahnhofstr. 15,69427, Mudau
Penny,Buchener Str. 13,69429, Waldbrunn
Penny,Buchener Str. 13,69429, Waldbrunn
Penny,Im Ruhbaum 2,69412, Eberbach
Penny,Im Ruhbaum 2,69412, Eberbach
Penny,Friedrich-Ebert-Str. 2,69242, Muehlhausen/Kraichgau
Penny,Friedrich-Ebert-Str. 2,69242, Muehlhausen/Kraichgau
Penny,Beethovenstr. 1,69234, Dielheim
Penny,Beethovenstr. 1,69234, Dielheim
Penny,Im Breiloch 2,69254, Malsch
Penny,Im Breiloch 2,69254, Malsch
Penny,In Der Seehecke 9,63924, Kleinheubach
Penny,In Der Seehecke 9,63924, Kleinheubach
Penny,Am Kalkbrunnen 18,69151, Neckargemuend
Penny,Am Kalkbrunnen 18,69151, Neckargemuend
Penny,Schlossstr. 55,69168, Wiesloch
Penny,Schlossstr. 55,69168, Wiesloch
Penny,Mümlingtalstr. 56d,64760, Oberzent-Beerfelden
Penny,Mümlingtalstr. 56d,64760, Oberzent-Beerfelden
Penny,In Den Kreuzwiesen 7,69250, Schoenau Odenwald
Penny,In Den Kreuzwiesen 7,69250, Schoenau Odenwald
Penny,Massengasse 48,69226, Nußloch
Penny,Massengasse 48,69226, Nußloch
Penny,In Der Heidelslach 1,69181, Leimen
Penny,In Der Heidelslach 1,69181, Leimen
Penny,Buergerm.-Weidemaier-Str. 66,69181, Leimen
Penny,Buergerm.-Weidemaier-Str. 66,69181, Leimen
Penny,Rathausstr. 27,69126, Heidelberg/Rohrbach
Penny,Rathausstr. 27,69126, Heidelberg/Rohrbach
Penny,Stockheimer Ring 10,64711, Erbach
Penny,Stockheimer Ring 10,64711, Erbach
Penny,Ploeck 13-21,69117, Heidelberg/Altstadt
Penny,Ploeck 13-21,69117, Heidelberg/Altstadt
Penny,Bahnhofstr. 9-13,69115, Heidelberg
Penny,Bahnhofstr. 9-13,69115, Heidelberg
Penny,Waghäuseler Str. 128,68753, Waghäusel-Kirrlach
Penny,Waghäuseler Str. 128,68753, Waghäusel-Kirrlach
Penny,Dossenheimer Landstr. 40,69121, Heidelberg/Handschuhsheim
Penny,Dossenheimer Landstr. 40,69121, Heidelberg/Handschuhsheim
Penny,Siemensstr. 1,68799, Reilingen
Penny,Siemensstr. 1,68799, Reilingen
Penny,Max-Planck-Str. 1,68766, Hockenheim
Penny,Max-Planck-Str. 1,68766, Hockenheim
Penny,Ernst-Brauch-Str. 64-66,68766, Hockenheim
Penny,Ernst-Brauch-Str. 64-66,68766, Hockenheim
Penny,Scheffelstr. 48,68723, Schwetzingen
Penny,Scheffelstr. 48,68723, Schwetzingen
Penny,Lanzstr. 1/ Badenwerkstraße,68804, Altlussheim
Penny,Lanzstr. 1/ Badenwerkstraße,68804, Altlussheim
Penny,Magdeburger Str. 8,64732, Bad Koenig
Penny,Magdeburger Str. 8,64732, Bad Koenig
Penny,Weiherweg 6a,68794, Oberhausen-Rheinhausen
Penny,Weiherweg 6a,68794, Oberhausen-Rheinhausen
Penny,Gewerbering 2/Gewerbegebiet Nord,68723, Plankstadt
Penny,Gewerbering 2/Gewerbegebiet Nord,68723, Plankstadt
Penny,Weinheimer Str. 64b,69509, Mörlenbach
Penny,Weinheimer Str. 64b,69509, Mörlenbach
Penny,Albert-Bassermann-Str. 29,68782, Brühl
Penny,Albert-Bassermann-Str. 29,68782, Brühl
Penny,Schloßstr. 44,64668, Rimbach
Penny,Schloßstr. 44,64668, Rimbach
Penny,Weinheimer Str. 7-9,69488, Birkenau
Penny,Weinheimer Str. 7-9,69488, Birkenau
Penny,Edekastr. 8,68542, Heddesheim
Penny,Edekastr. 8,68542, Heddesheim
Penny,Boveristr. 30,68526, Ladenburg
Penny,Boveristr. 30,68526, Ladenburg
Penny,Edinger Riedweg 49,68219, Mannheim
Penny,Edinger Riedweg 49,68219, Mannheim
Penny,Hochstr. 5,64385, Reichelsheim
Penny,Hochstr. 5,64385, Reichelsheim
Penny,Seckenheimer Hauptstr. 84,68239, Mannheim/Seckenheim
Penny,Seckenheimer Hauptstr. 84,68239, Mannheim/Seckenheim
Penny,Durlacher Str. 18-20,68219, Mannheim/Rheinau
Penny,Durlacher Str. 18-20,68219, Mannheim/Rheinau
Penny,Dudenhofer Str. 10,67346, Speyer
Penny,Dudenhofer Str. 10,67346, Speyer
Penny,Freiburger Str. 29,69469, Weinheim
Penny,Freiburger Str. 29,69469, Weinheim
Penny,Kanzelbachstr. 42,68549, Ilvesheim
Penny,Kanzelbachstr. 42,68549, Ilvesheim
Penny,Wilhelm-Busch-Str. 10,69502, Hemsbach
Penny,Wilhelm-Busch-Str. 10,69502, Hemsbach
Penny,Molkenbornstr. 2-4,63743, Aschaffenburg/Schweinheim
Penny,Molkenbornstr. 2-4,63743, Aschaffenburg/Schweinheim
Penny,Mohnaeckerstr. 1-5,68259, Mannheim/Feudenheim
Penny,Mohnaeckerstr. 1-5,68259, Mannheim/Feudenheim
Penny,Speyerer Str. 11A,67373, Dudenhofen
Penny,Speyerer Str. 11A,67373, Dudenhofen
Penny,Normannenstr. 5-9/Merowinger 1,68259, Mannheim/Wallstadt
Penny,Normannenstr. 5-9/Merowinger 1,68259, Mannheim/Wallstadt
Penny,Slevogtweg 11-17/Dalbergstraße,67122, Altrip
Penny,Slevogtweg 11-17/Dalbergstraße,67122, Altrip
Penny,Walter-Oehmichen-Str. 8-12,68519, Viernheim
Penny,Walter-Oehmichen-Str. 8-12,68519, Viernheim
Penny,Wiesenstr. 71A,68519, Viernheim
Penny,Wiesenstr. 71A,68519, Viernheim
Penny,Kettelerstr. 9,68519, Viernheim
Penny,Kettelerstr. 9,68519, Viernheim
Penny,Daimlerstr. 2,63768, Hösbach
Penny,Daimlerstr. 2,63768, Hösbach
Penny,Im Breiten Pfuhl 2,67365, Schwegenheim
Penny,Im Breiten Pfuhl 2,67365, Schwegenheim
Penny,Freiberger Ring 12,68309, Mannheim/Vogelstang
Penny,Freiberger Ring 12,68309, Mannheim/Vogelstang
Penny,Steubenstr. 106-108,68199, Mannheim/Niederfeld
Penny,Steubenstr. 106-108,68199, Mannheim/Niederfeld
Penny,Schlichtstr. 1A,67165, Waldsee
Penny,Schlichtstr. 1A,67165, Waldsee
Penny,Lorbeerweg 6,63741, Aschaffenburg-Nilkheim
Penny,Lorbeerweg 6,63741, Aschaffenburg-Nilkheim
Penny,Bayernstr. 9,63773, Goldbach
Penny,Bayernstr. 9,63773, Goldbach
Penny,Am Ullrichsberg 15,68309, Mannheim
Penny,Am Ullrichsberg 15,68309, Mannheim
Penny,Muellerstr. 2,63739, Aschaffenburg
Penny,Muellerstr. 2,63739, Aschaffenburg
Penny,Wormser Str. 32,68309, Mannheim/Kaefertal
Penny,Wormser Str. 32,68309, Mannheim/Kaefertal
Penny,Meerfeldstraße/Carl-Metz-Str. 3,68163, Mannheim/Lindenhof
Penny,Meerfeldstraße/Carl-Metz-Str. 3,68163, Mannheim/Lindenhof
Penny,Muehlstr. 102,63741, Aschaffenburg
Penny,Muehlstr. 102,63741, Aschaffenburg
Penny,Eichendorffstr. 25-27,68167, Mannheim
Penny,Eichendorffstr. 25-27,68167, Mannheim
Penny,Lange Roetterstr. 18-20,68167, Mannheim/Neckarstadt
Penny,Lange Roetterstr. 18-20,68167, Mannheim/Neckarstadt
Penny,Schuetzenstr. 31-33,67061, Ludwigshafen/Sued
Penny,Schuetzenstr. 31-33,67061, Ludwigshafen/Sued
Penny,Mittelstr. 56-58,68169, Mannheim
Penny,Mittelstr. 56-58,68169, Mannheim
Penny,Neckarvorlandstr. 33,68159, Mannheim
Penny,Neckarvorlandstr. 33,68159, Mannheim
Penny,Georg-August-Zinn-Str. 98,64823, Gross-Umstadt
Penny,Georg-August-Zinn-Str. 98,64823, Gross-Umstadt
Penny,Waldhofstr. 80,68169, Mannheim/Neckarstadt
Penny,Waldhofstr. 80,68169, Mannheim/Neckarstadt
Penny,Bismarkstr. 63,67059, Ludwigshafen
Penny,Bismarkstr. 63,67059, Ludwigshafen
Penny,Am Glockenturm 9,63814, Mainaschaff
Penny,Am Glockenturm 9,63814, Mainaschaff
Penny,Prinzregentenstr. 64,67063, Ludwigshafen
Penny,Prinzregentenstr. 64,67063, Ludwigshafen
Penny,Frankenthaler Str. 73,67059, Ludwigshafen/West
Penny,Frankenthaler Str. 73,67059, Ludwigshafen/West
Penny,Bromberger Baumgang 2,68307, Mannheim-Schönau
Penny,Bromberger Baumgang 2,68307, Mannheim-Schönau
Penny,Johann-Schuette-Str. 7-11,68307, Mannheim/Schoenau
Penny,Johann-Schuette-Str. 7-11,68307, Mannheim/Schoenau
Penny,Hohenzollernstr. 116,67063, Ludwigshafen/Friesenheim
Penny,Hohenzollernstr. 116,67063, Ludwigshafen/Friesenheim
Penny,Hagelochstr. 47-51,67063, Ludwigshafen/Friesenheim
Penny,Hagelochstr. 47-51,67063, Ludwigshafen/Friesenheim
Penny,Hirschstr. 85,64653, Lorsch
Penny,Hirschstr. 85,64653, Lorsch
Penny,Dammstr. 78/Europaallee,64625, Bensheim
Penny,Dammstr. 78/Europaallee,64625, Bensheim
Penny,Im Stiegelsteig 4,67459, Boehl/Iggelheim
Penny,Im Stiegelsteig 4,67459, Boehl/Iggelheim
Penny,Kardinal-Faulhaber-Str. 16,63801, Kleinostheim
Penny,Kardinal-Faulhaber-Str. 16,63801, Kleinostheim
Penny,Sandhofer Str. 329,68307, Mannheim/Sandhofen
Penny,Sandhofer Str. 329,68307, Mannheim/Sandhofen
Penny,Siemensstr. 2-4,64832, Babenhausen
Penny,Siemensstr. 2-4,64832, Babenhausen
Penny,Reinheimer Str. 42-44,64846, Gross-Zimmern
Penny,Reinheimer Str. 42-44,64846, Gross-Zimmern
Penny,Neuschlossstr. 58,68623, Lampertheim
Penny,Neuschlossstr. 58,68623, Lampertheim
Penny,Herrenweg 2,67454, Haßloch
Penny,Herrenweg 2,67454, Haßloch
Penny,Wilhelmstr. 44,68623, Lampertheim
Penny,Wilhelmstr. 44,68623, Lampertheim
Penny,Leuschner Str. 5,64372, Ober-Ramstadt
Penny,Leuschner Str. 5,64372, Ober-Ramstadt
Penny,Edigheimerstr. 125-127,67069, Ludwigshafen
Penny,Edigheimerstr. 125-127,67069, Ludwigshafen
Penny,In Der Altstadt 3,64807, Dieburg
Penny,In Der Altstadt 3,64807, Dieburg
Penny,Rudolf-Diesel-Str. 1,64683, Einhausen
Penny,Rudolf-Diesel-Str. 1,64683, Einhausen
Penny,Darmstaedter Str. 85,64839, Muenster
Penny,Darmstaedter Str. 85,64839, Muenster
Penny,Bender Str. 1,67227, Frankenthal
Penny,Bender Str. 1,67227, Frankenthal
Penny,Einsteinstr. 2,64859, Eppertshausen
Penny,Einsteinstr. 2,64859, Eppertshausen
Penny,Mainstr. 131,68642, Bürstadt
Penny,Mainstr. 131,68642, Bürstadt
Penny,Speyerer Str. 29,67133, Maxdorf
Penny,Speyerer Str. 29,67133, Maxdorf
Penny,Aschaffenburger Str. 48,63796, Kahl Am Main
Penny,Aschaffenburger Str. 48,63796, Kahl Am Main
Penny,Willi-Brehm-Str. 1,63500, Seligenstadt
Penny,Willi-Brehm-Str. 1,63500, Seligenstadt
Penny,Branchweilerhofstr. 51,67433, Neustadt
Penny,Branchweilerhofstr. 51,67433, Neustadt
Penny,Eberstaedter Str. 94A,64319, Pfungstadt
Penny,Eberstaedter Str. 94A,64319, Pfungstadt
Penny,Wormser Landstr. 29,67240, Bobenheim/Roxheim
Penny,Wormser Landstr. 29,67240, Bobenheim/Roxheim
Penny,Darmstaedter Str. 150,68647, Biblis
Penny,Darmstaedter Str. 150,68647, Biblis
Penny,Gutenbergallee/Max-Planck-Str. 7-15,63538, Grosskrotzenburg
Penny,Gutenbergallee/Max-Planck-Str. 7-15,63538, Grosskrotzenburg
Penny,Am Palmusacker 12,63628, Bad Soden-Salmuenster
Penny,Am Palmusacker 12,63628, Bad Soden-Salmuenster
Penny,Heinheimer Str. 7,64289, Darmstadt
Penny,Heinheimer Str. 7,64289, Darmstadt
Penny,Eschollbruecker Str. 26,64295, Darmstadt
Penny,Eschollbruecker Str. 26,64295, Darmstadt
Penny,Schifferstr. 3,67547, Worms
Penny,Schifferstr. 3,67547, Worms
Penny,Almenweg 4,67256, Weisenheim Am Sand
Penny,Almenweg 4,67256, Weisenheim Am Sand
Penny,Grundstr. 10,64289, Darmstadt Kranichstein
Penny,Grundstr. 10,64289, Darmstadt Kranichstein
Penny,Weinsheimer Hauptstr. 118,67551, Worms
Penny,Weinsheimer Hauptstr. 118,67551, Worms
Penny,Wilhelm-Leuschner-Str. 23,67547, Worms
Penny,Wilhelm-Leuschner-Str. 23,67547, Worms
Penny,Pallaswiesenstr. 70-72,64293, Darmstadt
Penny,Pallaswiesenstr. 70-72,64293, Darmstadt
Penny,Darmstaedter Str. 35,64560, Riedstadt/Crumstadt
Penny,Darmstaedter Str. 35,64560, Riedstadt/Crumstadt
Penny,Industriestr. 1,63584, Gruendau/Rothenbergen
Penny,Industriestr. 1,63584, Gruendau/Rothenbergen
Penny,Oberndorfer Str. 111,64347, Griesheim
Penny,Oberndorfer Str. 111,64347, Griesheim
Penny,Geleitstr. 50,63456, Hanau/Kleinauheim
Penny,Geleitstr. 50,63456, Hanau/Kleinauheim
Penny,Kinzigstr. 11,63505, Langenselbold
Penny,Kinzigstr. 11,63505, Langenselbold
Penny,Buergermeister-Mahr-Str. 4-6,63179, Obertshausen
Penny,Buergermeister-Mahr-Str. 4-6,63179, Obertshausen
Penny,Kurt-Schumacher-Ring 1,63329, Egelsbach
Penny,Kurt-Schumacher-Ring 1,63329, Egelsbach
Penny,Osthofener Str. 110,67575, Eich
Penny,Osthofener Str. 110,67575, Eich
Penny,Max-Plank-Str. 6A,64331, Weiterstadt
Penny,Max-Plank-Str. 6A,64331, Weiterstadt
Penny,Lamboystr. 64b,63452, Hanau
Penny,Lamboystr. 64b,63452, Hanau
Penny,Am Frankfurter Tor 9,63450, Hanau
Penny,Am Frankfurter Tor 9,63450, Hanau
Penny,Schneppenhaeuser Str. 21,64331, Weiterstadt / Gräfenhausen
Penny,Schneppenhaeuser Str. 21,64331, Weiterstadt / Gräfenhausen
Penny,Kirchheimer Str. 70,67269, Gruenstadt
Penny,Kirchheimer Str. 70,67269, Gruenstadt
Penny,Frankfurter Str. 4-6,63303, Dreieich/Sprendlingen
Penny,Frankfurter Str. 4-6,63303, Dreieich/Sprendlingen
Penny,Lauterbacher Str. 17,63633, Birstein
Penny,Lauterbacher Str. 17,63633, Birstein
Penny,Waldstr. 272,63071, Offenbach
Penny,Waldstr. 272,63071, Offenbach
Penny,Bahnhofstr. 10,63165, Muehlheim
Penny,Bahnhofstr. 10,63165, Muehlheim
Penny,"Römerstr. 11, 13+25",63486, Bruchköbel
Penny,"Römerstr. 11, 13+25",63486, Bruchköbel
Penny,Bieberer Str. 95-97,63071, Offenbach
Penny,Bieberer Str. 95-97,63071, Offenbach
Penny,Römergrund 1,67593, Westhofen
Penny,Römergrund 1,67593, Westhofen
Penny,Schumannstr. 56,63069, Offenbach Am Main
Penny,Schumannstr. 56,63069, Offenbach Am Main
Penny,Henry-Dunant-Str. 2,63654, Büdingen
Penny,Henry-Dunant-Str. 2,63654, Büdingen
Penny,Arthur-Zitscher Str. 1,63065, Offenbach
Penny,Arthur-Zitscher Str. 1,63065, Offenbach
Penny,Braubachstr. 18,63477, Maintal-Dörnigheim
Penny,Braubachstr. 18,63477, Maintal-Dörnigheim
Penny,Schäferstr. 12,63069, Offenbach
Penny,Schäferstr. 12,63069, Offenbach
Penny,Kaiserstr. 55,63065, Offenbach Am Main
Penny,Kaiserstr. 55,63065, Offenbach Am Main
Penny,Darmstaedter Str. 27,64521, Gross-Gerau
Penny,Darmstaedter Str. 27,64521, Gross-Gerau
Penny,Wattenheimer Str. 34,67310, Hettenleidelheim
Penny,Wattenheimer Str. 34,67310, Hettenleidelheim
Penny,Berliner Str. 256-258,63067, Offenbach
Penny,Berliner Str. 256-258,63067, Offenbach
Penny,Farmstr. 101,64546, Mörfelden-Walldorf
Penny,Farmstr. 101,64546, Mörfelden-Walldorf
Penny,Pirmasenser Str. 52a,66994, Dahn
Penny,Pirmasenser Str. 52a,66994, Dahn
Penny,Kerzenheimer Str. 94,67304, Eisenberg
Penny,Kerzenheimer Str. 94,67304, Eisenberg
Penny,Moerfelder Landstr. 214/Stresemanna,60596, Frankfurt
Penny,Moerfelder Landstr. 214/Stresemanna,60596, Frankfurt
Penny,Hanauer Landstr. 1-5,60314, Frankfurt
Penny,Hanauer Landstr. 1-5,60314, Frankfurt
Penny,Sandweg 42,60316, Frankfurt/Ostend
Penny,Sandweg 42,60316, Frankfurt/Ostend
Penny,Gerauer Str. 15,60528, Frankfurt/Niederrad
Penny,Gerauer Str. 15,60528, Frankfurt/Niederrad
Penny,Am Schafsteg 1-7,64569, Nauheim
Penny,Am Schafsteg 1-7,64569, Nauheim
Penny,Bergerstr. 234-238,60385, Frankfurt/Bornheim
Penny,Bergerstr. 234-238,60385, Frankfurt/Bornheim
Penny,Berger Str. 23,60316, Frankfurt/Nordend-Ost
Penny,Berger Str. 23,60316, Frankfurt/Nordend-Ost
Penny,Bruchfeldstr. 96,60528, Frankfurt/Niederrad
Penny,Bruchfeldstr. 96,60528, Frankfurt/Niederrad
Penny,Im Reis 47,65428, Ruesselsheim
Penny,Im Reis 47,65428, Ruesselsheim
Penny,Vordere Oderstr. 1,65468, Trebur
Penny,Vordere Oderstr. 1,65468, Trebur
Penny,Weberstr. 65-67,60318, Frankfurt/Nordend-West
Penny,Weberstr. 65-67,60318, Frankfurt/Nordend-West
Penny,Buedesheimer Str. 1,61130, Nidderau/Heldenbergen
Penny,Buedesheimer Str. 1,61130, Nidderau/Heldenbergen
Penny,Mainzer Landstr. 195+197,60326, Frankfurt
Penny,Mainzer Landstr. 195+197,60326, Frankfurt
Penny,Reuterweg 76,60323, Frankfurt/Westend-Nord
Penny,Reuterweg 76,60323, Frankfurt/Westend-Nord
Penny,Mainzer Landstr. 323,60326, Frankfurt Am Main
Penny,Mainzer Landstr. 323,60326, Frankfurt Am Main
Penny,Auf Der Mauer 2-4,63674, Altenstadt
Penny,Auf Der Mauer 2-4,63674, Altenstadt
Penny,Rebstöcker Str. 62,60326, Frankfurt/Gallusviertel
Penny,Rebstöcker Str. 62,60326, Frankfurt/Gallusviertel
Penny,Waldschulstr. 1,65933, Frankfurt/Griesheim
Penny,Waldschulstr. 1,65933, Frankfurt/Griesheim
Penny,"Eckenheimer Landstr. 427, 431",60435, Frankfurt/Eckenheim
Penny,"Eckenheimer Landstr. 427, 431",60435, Frankfurt/Eckenheim
Penny,Homburger Landstr. 130,60435, Frankfurt/Preungesheim
Penny,Homburger Landstr. 130,60435, Frankfurt/Preungesheim
Penny,Am Dornbusch 33,60320, Frankfurt
Penny,Am Dornbusch 33,60320, Frankfurt
Penny,Leipziger Str. 72-76,60487, Frankfurt/Bockenheim
Penny,Leipziger Str. 72-76,60487, Frankfurt/Bockenheim
Penny,Karl-Hofmann-Str. 3,63683, Ortenberg
Penny,Karl-Hofmann-Str. 3,63683, Ortenberg
Penny,Hauptstr. 35-37,67691, Hochspeyer
Penny,Hauptstr. 35-37,67691, Hochspeyer
Penny,Friedberger Str. 77a,61118, Bad Vilbel
Penny,Friedberger Str. 77a,61118, Bad Vilbel
Penny,Ginnheimer Landstr. 23-27,60487, Frankfurt/Bockenheim
Penny,Ginnheimer Landstr. 23-27,60487, Frankfurt/Bockenheim
Penny,Eschersheimer Landstr. 440,60433, Frankfurt/Eschersheim
Penny,Eschersheimer Landstr. 440,60433, Frankfurt/Eschersheim
Penny,Donnersbergstr. 21,67677, Enkenbach/Alsenborn
Penny,Donnersbergstr. 21,67677, Enkenbach/Alsenborn
Penny,Thudichumstr. 6-8,60489, Frankfurt/Roedelheim
Penny,Thudichumstr. 6-8,60489, Frankfurt/Roedelheim
Penny,Berliner Str. 3,65428, Ruesselsheim
Penny,Berliner Str. 3,65428, Ruesselsheim
Penny,Rheinstr. 3-11,65795, Hattersheim/Okriftel
Penny,Rheinstr. 3-11,65795, Hattersheim/Okriftel
Penny,Oberer Kalbacher Weg 2,60437, Frankfurt Am Main
Penny,Oberer Kalbacher Weg 2,60437, Frankfurt Am Main
Penny,Lurgiallee 6/L.-Pasteur-Straße,60439, Frankfurt/Heddernheim
Penny,Lurgiallee 6/L.-Pasteur-Straße,60439, Frankfurt/Heddernheim
Penny,Siegener Str. 53-55,65936, Frankfurt/Sossenheim
Penny,Siegener Str. 53-55,65936, Frankfurt/Sossenheim
Penny,Industriestr. 2b,65439, Floersheim-Weilbach
Penny,Industriestr. 2b,65439, Floersheim-Weilbach
Penny,Gotenstr. 109,65929, Frankfurt-Unterliederbach
Penny,Gotenstr. 109,65929, Frankfurt-Unterliederbach
Penny,Ludwigstr. 105,67678, Mehlingen
Penny,Ludwigstr. 105,67678, Mehlingen
Penny,Mainzer-Kastelerstr. 1,65474, Bischofsheim
Penny,Mainzer-Kastelerstr. 1,65474, Bischofsheim
Penny,Barbarossaring/Altenwoogstr. 42,67655, Kaiserslautern
Penny,Barbarossaring/Altenwoogstr. 42,67655, Kaiserslautern
Penny,Ahornstr. 7,65719, Hofheim-Marxheim (Taunus)
Penny,Ahornstr. 7,65719, Hofheim-Marxheim (Taunus)
Penny,Sulzbacher Str. 43B,65824, Schwalbach
Penny,Sulzbacher Str. 43B,65824, Schwalbach
Penny,Mannheimer Str. 13,67655, Kaiserslautern/Innenstadt
Penny,Mannheimer Str. 13,67655, Kaiserslautern/Innenstadt
Penny,Blocksbergstr. 52,66955, Pirmasens/Innenstadt
Penny,Blocksbergstr. 52,66955, Pirmasens/Innenstadt
Penny,Am Alten Fährhaus 1,65462, Ginsheim-Gustavsburg
Penny,Am Alten Fährhaus 1,65462, Ginsheim-Gustavsburg
Penny,Pfeiffstr. 9,61440, Oberursel
Penny,Pfeiffstr. 9,61440, Oberursel
Penny,Hochheimer Str. 49,55246, Mainz-Kostheim
Penny,Hochheimer Str. 49,55246, Mainz-Kostheim
Penny,Frankfurter Str. 71,61476, Kronberg
Penny,Frankfurter Str. 71,61476, Kronberg
Penny,Gewerbestr. 2,67697, Otterberg
Penny,Gewerbestr. 2,67697, Otterberg
Penny,Am Mühlbach 1,61209, Echzell
Penny,Am Mühlbach 1,61209, Echzell
Penny,Merkurstr. 36,67663, Kaiserslautern
Penny,Merkurstr. 36,67663, Kaiserslautern
Penny,Bahnstr. 9,65779, Kelkheim
Penny,Bahnstr. 9,65779, Kelkheim
Penny,Gluckensteinweg 89,61350, Bad Homburg
Penny,Gluckensteinweg 89,61350, Bad Homburg
Penny,Strassheimer Str. 1,61169, Friedberg
Penny,Strassheimer Str. 1,61169, Friedberg
Penny,Amselweg 34-36,61381, Friedrichsdorf/Koeppern
Penny,Amselweg 34-36,61381, Friedrichsdorf/Koeppern
Penny,Ludwigstr. 16,61169, Friedberg
Penny,Ludwigstr. 16,61169, Friedberg
Penny,Konrad-Adenauer-Str. 25,61191, Rosbach V.D.H.
Penny,Konrad-Adenauer-Str. 25,61191, Rosbach V.D.H.
Penny,Lauterstr. 2,67731, Otterbach
Penny,Lauterstr. 2,67731, Otterbach
Penny,Bahnhofstr. 52,66987, Thaleischweiler/Froeschen
Penny,Bahnhofstr. 52,66987, Thaleischweiler/Froeschen
Penny,Kaiserslauterer Str. 11,67806, Rockenhausen
Penny,Kaiserslauterer Str. 11,67806, Rockenhausen
Penny,Biedrichstr. 61,61200, Woelfersheim
Penny,Biedrichstr. 61,61200, Woelfersheim
Penny,Rudolf-Dyckerhof- Str. 3,65203, Wiesbaden
Penny,Rudolf-Dyckerhof- Str. 3,65203, Wiesbaden
Penny,Aeppelallee 27A,65203, Wiesbaden/Biebrich
Penny,Aeppelallee 27A,65203, Wiesbaden/Biebrich
Penny,Hagenauer Str. 23a,65203, Wiesbaden
Penny,Hagenauer Str. 23a,65203, Wiesbaden
Penny,Rheingaustr. 30,65201, Wiesbaden/Schierstein
Penny,Rheingaustr. 30,65201, Wiesbaden/Schierstein
Penny,Danziger Str. 8,67685, Weilerbach
Penny,Danziger Str. 8,67685, Weilerbach
Penny,Bahnstr. 118,66849, Landstuhl
Penny,Bahnstr. 118,66849, Landstuhl
Penny,Bismarkring 16,65183, Wiesbaden
Penny,Bismarkring 16,65183, Wiesbaden
Penny,Frankfurter Str. 5-7,65527, Niedernhausen
Penny,Frankfurter Str. 5-7,65527, Niedernhausen
Penny,Nerostr. 41,65183, Wiesbaden
Penny,Nerostr. 41,65183, Wiesbaden
Penny,Gneisenaustr. 13,65195, Wiesbaden
Penny,Gneisenaustr. 13,65195, Wiesbaden
Penny,Dotzheimer Str. 150,65197, Wiesbaden
Penny,Dotzheimer Str. 150,65197, Wiesbaden
Penny,Am Klingenweg 5,65396, Walluf
Penny,Am Klingenweg 5,65396, Walluf
Penny,Bahnhofstr. 71,61267, Neu-Anspach
Penny,Bahnhofstr. 71,61267, Neu-Anspach
Penny,Goerdelerstr. 51,65197, Wiesbaden
Penny,Goerdelerstr. 51,65197, Wiesbaden
Penny,Am Gebackenen Stein 1,61250, Usingen
Penny,Am Gebackenen Stein 1,61250, Usingen
Penny,Weilburger Str. 16,61250, Usingen
Penny,Weilburger Str. 16,61250, Usingen
Penny,Sonnenlandstr. 48,65399, Kiedrich
Penny,Sonnenlandstr. 48,65399, Kiedrich
Penny,Gewerbestr. 6,66482, Zweibruecken
Penny,Gewerbestr. 6,66482, Zweibruecken
Penny,Idsteiner Str. 75,65232, Taunusstein/Neuhof
Penny,Idsteiner Str. 75,65232, Taunusstein/Neuhof
Penny,Im Froschpfuhl 1,66892, Bruchmühlbach-Miesau
Penny,Im Froschpfuhl 1,66892, Bruchmühlbach-Miesau
Penny,Limburger Str. 38-40,65510, Idstein
Penny,Limburger Str. 38-40,65510, Idstein
Penny,Europastr. 6,65385, Ruedesheim
Penny,Europastr. 6,65385, Ruedesheim
Penny,Lautertalstr. K 39,67742, Lauterecken
Penny,Lautertalstr. K 39,67742, Lauterecken
Penny,Festwiesenstr. 3,66901, Schoenenberg-Kuebelberg
Penny,Festwiesenstr. 3,66901, Schoenenberg-Kuebelberg
Penny,Zum Gunterstal 1,66440, Blieskastel
Penny,Zum Gunterstal 1,66440, Blieskastel
Penny,Am Vierherrenwald 2,66424, Homburg/Saar
Penny,Am Vierherrenwald 2,66424, Homburg/Saar
Penny,Bahnhofstr. 40,66885, Altenglan
Penny,Bahnhofstr. 40,66885, Altenglan
Penny,Bahnhofstr. 40,65520, Bad Camberg
Penny,Bahnhofstr. 40,65520, Bad Camberg
Penny,Bahnhofstr. 12,66453, Gersheim
Penny,Bahnhofstr. 12,66453, Gersheim
Penny,Vor Der Muhl 2,66914, Waldmohr
Penny,Vor Der Muhl 2,66914, Waldmohr
Penny,Am Schwimmbad 2,65618, Selters
Penny,Am Schwimmbad 2,65618, Selters
Penny,Huenfeldener Hoehe 2,65597, Huenfelden/Kirberg
Penny,Huenfeldener Hoehe 2,65597, Huenfelden/Kirberg
Penny,An Der Alten Ziegelei 5,66538, Neunkirchen
Penny,An Der Alten Ziegelei 5,66538, Neunkirchen
Penny,Leonardo-Da-Vinci-Straße,66546, Ottweiler
Penny,Leonardo-Da-Vinci-Straße,66546, Ottweiler
Penny,Frankfurter Str. B 8,65551, Limburg/Lindholzhausen
Penny,Frankfurter Str. B 8,65551, Limburg/Lindholzhausen
Penny,Holzheimer Str. 92,65549, Limburg
Penny,Holzheimer Str. 92,65549, Limburg
Penny,Mainzer Str. 120,66121, Saarbrücken
Penny,Mainzer Str. 120,66121, Saarbrücken
Penny,Hospitalstr. 8,65549, Limburg
Penny,Hospitalstr. 8,65549, Limburg
Penny,Allerburg 22,66640, Namborn-Eisweiler
Penny,Allerburg 22,66640, Namborn-Eisweiler
Penny,Kapellenstr. 4A,65555, Limburg/Offheim
Penny,Kapellenstr. 4A,65555, Limburg/Offheim
Penny,Im Brühl 1,66649, Oberthal
Penny,Im Brühl 1,66649, Oberthal
Penny,Neue Chaussee 2A,65589, Hadamar
Penny,Neue Chaussee 2A,65589, Hadamar
Penny,Hochwaldstr. 27,66620, Nonnweiler-Otzenhausen
Penny,Hochwaldstr. 27,66620, Nonnweiler-Otzenhausen
Penny,Saarbruecker Str. 83-91,66740, Saarlouis/Fraulautern
Penny,Saarbruecker Str. 83-91,66740, Saarlouis/Fraulautern
Penny,Gutenbergstr. 15,66763, Dillingen
Penny,Gutenbergstr. 15,66763, Dillingen
Penny,Nordstr. 1-3,66780, Rehlingen-Siersburg
Penny,Nordstr. 1-3,66780, Rehlingen-Siersburg
Penny,Trierer Str. 47,66706, Perl
Penny,Trierer Str. 47,66706, Perl
Penny,Heidenheimer Str. 36,73450, Neresheim
Penny,Heidenheimer Str. 36,73450, Neresheim
Penny,Bischof-Fischer-Str. 73,73430, Aalen
Penny,Bischof-Fischer-Str. 73,73430, Aalen
Penny,Bahnhofstr. 77,73457, Essingen
Penny,Bahnhofstr. 77,73457, Essingen
Penny,Osteren 4,73453, Abtsgmuend
Penny,Osteren 4,73453, Abtsgmuend
Penny,Kohlbusch 1,74579, Fichtenau
Penny,Kohlbusch 1,74579, Fichtenau
Penny,Jahnstr. 15,73326, Deggingen
Penny,Jahnstr. 15,73326, Deggingen
Penny,Zum Steingau 2,73571, Goeggingen
Penny,Zum Steingau 2,73571, Goeggingen
Penny,Haupstr. 7-9,74597, Stimpfach
Penny,Haupstr. 7-9,74597, Stimpfach
Penny,Ulmerstr. 79,73054, Eislingen
Penny,Ulmerstr. 79,73054, Eislingen
Penny,In der Breite 7,73557, Mutlangen
Penny,In der Breite 7,73557, Mutlangen
Penny,Riedstr. 1,73092, Heiningen
Penny,Riedstr. 1,73092, Heiningen
Penny,Werner-Von-Siemens-Str. 1,74564, Crailsheim
Penny,Werner-Von-Siemens-Str. 1,74564, Crailsheim
Penny,Hauptstr. 1,74589, Satteldorf
Penny,Hauptstr. 1,74589, Satteldorf
Penny,Zellerstr. 7,73101, Aichelberg
Penny,Zellerstr. 7,73101, Aichelberg
Penny,Strutweg 44,73553, Alfdorf/Pfahlbronn
Penny,Strutweg 44,73553, Alfdorf/Pfahlbronn
Penny,Stockaecker 3,74423, Obersontheim
Penny,Stockaecker 3,74423, Obersontheim
Penny,Hagstr. 36,74417, Gschwend
Penny,Hagstr. 36,74417, Gschwend
Penny,Obere Kirchgasse 1,73655, Pluederhausen
Penny,Obere Kirchgasse 1,73655, Pluederhausen
Penny,Bahnhofstr. 12,73252, Lenningen/Unterlenningen
Penny,Bahnhofstr. 12,73252, Lenningen/Unterlenningen
Penny,Wangerhalder Weg 2,73230, Kirchheim Unter Teck
Penny,Wangerhalder Weg 2,73230, Kirchheim Unter Teck
Penny,Ulmer Str. 34/1,73262, Reichenbach A.D. Fils
Penny,Ulmer Str. 34/1,73262, Reichenbach A.D. Fils
Penny,Hauptstr. 1,72639, Neuffen
Penny,Hauptstr. 1,72639, Neuffen
Penny,Friedrich-List-Str. 5,73249, Wernau
Penny,Friedrich-List-Str. 5,73249, Wernau
Penny,Narzissenweg 4,74582, Gerabronn
Penny,Narzissenweg 4,74582, Gerabronn
Penny,Plochinger Str. 40-42,73779, Deizisau
Penny,Plochinger Str. 40-42,73779, Deizisau
Penny,Alfred-Klingele-Str. 1,73630, Remshalden
Penny,Alfred-Klingele-Str. 1,73630, Remshalden
Penny,Rechbergstr. 5,73770, Denkendorf
Penny,Rechbergstr. 5,73770, Denkendorf
Penny,Alleenstr. 46,72666, Neckartailfingen
Penny,Alleenstr. 46,72666, Neckartailfingen
Penny,Ringelbachstr. 109,72762, Reutlingen/Ringelbach
Penny,Ringelbachstr. 109,72762, Reutlingen/Ringelbach
Penny,Kiesstr. 10,73728, Esslingen Am Neckar
Penny,Kiesstr. 10,73728, Esslingen Am Neckar
Penny,Industriestr. 20,71522, Backnang
Penny,Industriestr. 20,71522, Backnang
Penny,Pestalozzistr. 5,72762, Reutlingen/Hohbuch
Penny,Pestalozzistr. 5,72762, Reutlingen/Hohbuch
Penny,Scharnhäuser Str. 3-5,73765, Neuhausen Auf D. Fildern
Penny,Scharnhäuser Str. 3-5,73765, Neuhausen Auf D. Fildern
Penny,Am Moosbach 3,74535, Mainhardt
Penny,Am Moosbach 3,74535, Mainhardt
Penny,Reutlinger Str. 30,70794, Filderstadt/Sielmingen
Penny,Reutlinger Str. 30,70794, Filderstadt/Sielmingen
Penny,Lindenstr. 28,72474, Winterlingen
Penny,Lindenstr. 28,72474, Winterlingen
Penny,Winnender Str. 30/1,71334, Waiblingen
Penny,Winnender Str. 30/1,71334, Waiblingen
Penny,Rohrackerstr. 7,70329, Stuttgart
Penny,Rohrackerstr. 7,70329, Stuttgart
Penny,Mainaustr. 149,78464, Konstanz
Penny,Mainaustr. 149,78464, Konstanz
Penny,Jacob-Brodbeck-Str. 10,70794, Filderstadt/Plattenhardt
Penny,Jacob-Brodbeck-Str. 10,70794, Filderstadt/Plattenhardt
Penny,Sonnenbuehlstr. 98,78464, Konstanz
Penny,Sonnenbuehlstr. 98,78464, Konstanz
Penny,Ebinger Str. 102,72475, Bitz
Penny,Ebinger Str. 102,72475, Bitz
Penny,Wannweiler Str. 3,72138, Kirchentellinsfurt
Penny,Wannweiler Str. 3,72138, Kirchentellinsfurt
Penny,Bildaecker Straße/ Bockelstr. 29,70619, Stuttgart/Heumaden
Penny,Bildaecker Straße/ Bockelstr. 29,70619, Stuttgart/Heumaden
Penny,Birkheckenstr. 4,70599, Stuttgart/Birkach
Penny,Birkheckenstr. 4,70599, Stuttgart/Birkach
Penny,Wollmatinger Str. 22,78467, Konstanz/Petershausen
Penny,Wollmatinger Str. 22,78467, Konstanz/Petershausen
Penny,Ulmer Str. 207,70327, Stuttgart/Wangen
Penny,Ulmer Str. 207,70327, Stuttgart/Wangen
Penny,Siemensstr. 2,71563, Affalterbach
Penny,Siemensstr. 2,71563, Affalterbach
Penny,Löwensteiner Str. 19,71543, Wüstenrot
Penny,Löwensteiner Str. 19,71543, Wüstenrot
Penny,Stifterstr. 65,78467, Konstanz
Penny,Stifterstr. 65,78467, Konstanz
Penny,Bahnhofstr. 51,71111, Waldenbuch
Penny,Bahnhofstr. 51,71111, Waldenbuch
Penny,Martha-Schmidtmann-Str. 7+9,70374, Stuttgart/Bad Cannstatt
Penny,Martha-Schmidtmann-Str. 7+9,70374, Stuttgart/Bad Cannstatt
Penny,Kirchensaller Str. 27,74632, Neuenstein
Penny,Kirchensaller Str. 27,74632, Neuenstein
Penny,Flamingoweg 5,70378, Stuttgart/Neugereut
Penny,Flamingoweg 5,70378, Stuttgart/Neugereut
Penny,Haussmannstr. 103,70188, Stuttgart/Ost
Penny,Haussmannstr. 103,70188, Stuttgart/Ost
Penny,Konrad-Adenauer-Str. 52,72461, Albstadt/Truchtelfingen
Penny,Konrad-Adenauer-Str. 52,72461, Albstadt/Truchtelfingen
Penny,Neckarstr. 207,70190, Stuttgart/Ost
Penny,Neckarstr. 207,70190, Stuttgart/Ost
Penny,Breitwasenring 58/1,72135, Dettenhausen
Penny,Breitwasenring 58/1,72135, Dettenhausen
Penny,Bottroper Str. 16,70376, Stuttgart-Hallschlag
Penny,Bottroper Str. 16,70376, Stuttgart-Hallschlag
Penny,Weiherrain 2,72131, Ofterdingen
Penny,Weiherrain 2,72131, Ofterdingen
Penny,Kleinknechtstr. 33,70567, Stuttgart
Penny,Kleinknechtstr. 33,70567, Stuttgart
Penny,Allmendstr. 14,74629, Pfedelbach
Penny,Allmendstr. 14,74629, Pfedelbach
Penny,John-F.-Kennedy-Allee 55/3-4,71686, Remseck
Penny,John-F.-Kennedy-Allee 55/3-4,71686, Remseck
Penny,Schwabstr. 53-61,70197, Stuttgart
Penny,Schwabstr. 53-61,70197, Stuttgart
Penny,Haldenrainstr. 77,70437, Stuttgart-Rot
Penny,Haldenrainstr. 77,70437, Stuttgart-Rot
Penny,Friesenstr. 32,71640, Ludwigsburg/Ossweil
Penny,Friesenstr. 32,71640, Ludwigsburg/Ossweil
Penny,Hartmeyerstr. 11,72076, Tuebingen/Wanne
Penny,Hartmeyerstr. 11,72076, Tuebingen/Wanne
Penny,Vera-Vollmer-Str. 8,70469, Stuttgart-Feuerbach
Penny,Vera-Vollmer-Str. 8,70469, Stuttgart-Feuerbach
Penny,Sonnenbergstr. 31,71723, Grossbottwar
Penny,Sonnenbergstr. 31,71723, Grossbottwar
Penny,Austr. 5,74613, Öhringen
Penny,Austr. 5,74613, Öhringen
Penny,Bahnhofstr. 2,70806, Kornwestheim
Penny,Bahnhofstr. 2,70806, Kornwestheim
Penny,Breite 14,78351, Bodman - Ludwigshafen
Penny,Breite 14,78351, Bodman - Ludwigshafen
Penny,Daimlerstr. 2,72411, Bodelshausen
Penny,Daimlerstr. 2,72411, Bodelshausen
Penny,Waldstr. 1,71101, Schoenaich
Penny,Waldstr. 1,71101, Schoenaich
Penny,Zuffenhauser Str. 70,70825, Korntal-Muenchingen
Penny,Zuffenhauser Str. 70,70825, Korntal-Muenchingen
Penny,Loewensteiner Str. 78,74182, Obersulm/Willsbach
Penny,Loewensteiner Str. 78,74182, Obersulm/Willsbach
Penny,Löwen-Markt 5,70499, Stuttgart/Weilimdorf-Weilimdorf
Penny,Löwen-Markt 5,70499, Stuttgart/Weilimdorf-Weilimdorf
Penny,Tübinger Str. 111,71088, Holzgerlingen
Penny,Tübinger Str. 111,71088, Holzgerlingen
Penny,Ruitstr. 68,71691, Freiberg Am Neckar
Penny,Ruitstr. 68,71691, Freiberg Am Neckar
Penny,Kroetenweg 3,70499, Stuttgart/Giebel
Penny,Kroetenweg 3,70499, Stuttgart/Giebel
Penny,Jagststr. 3,74238, Krautheim
Penny,Jagststr. 3,74238, Krautheim
Penny,Schönaicher Str. 50,71032, Böblingen/Ost
Penny,Schönaicher Str. 50,71032, Böblingen/Ost
Penny,Stuttgarter Str. 9,71032, Böblingen
Penny,Stuttgarter Str. 9,71032, Böblingen
Penny,Zeppelinstr. 52,72119, Ammerbuch/Entringen
Penny,Zeppelinstr. 52,72119, Ammerbuch/Entringen
Penny,Königsberger Str. 12A,71034, Böblingen/West
Penny,Königsberger Str. 12A,71034, Böblingen/West
Penny,Oehringer Str. 35,74196, Neuenstadt Am Kocher
Penny,Oehringer Str. 35,74196, Neuenstadt Am Kocher
Penny,Max-Eyth-Str. 1,74343, Sachsenheim
Penny,Max-Eyth-Str. 1,74343, Sachsenheim
Penny,Werderstr. 109,74074, Heilbronn
Penny,Werderstr. 109,74074, Heilbronn
Penny,Schuchmannstr. 4,74080, Heilbronn/Boeckingen
Penny,Schuchmannstr. 4,74080, Heilbronn/Boeckingen
Penny,Neckargartacher Str. 84,74080, Heilbronn/Boeckingen
Penny,Neckargartacher Str. 84,74080, Heilbronn/Boeckingen
Penny,Mainradstr. 3,72401, Haigerloch
Penny,Mainradstr. 3,72401, Haigerloch
Penny,Bahnhofstr. 13,71149, Bondorf
Penny,Bahnhofstr. 13,71149, Bondorf
Penny,Zuettlinger Str. 10,74219, Moeckmuehl
Penny,Zuettlinger Str. 10,74219, Moeckmuehl
Penny,Gänseweide 10,78239, Rielasingen-Worblingen
Penny,Gänseweide 10,78239, Rielasingen-Worblingen
Penny,Frankenbacher Str. 47,74078, Heilbronn
Penny,Frankenbacher Str. 47,74078, Heilbronn
Penny,Industriestr. 1,74372, Sersheim
Penny,Industriestr. 1,74372, Sersheim
Penny,Tannenstraße/Pappelstr. 21,74229, Oedheim
Penny,Tannenstraße/Pappelstr. 21,74229, Oedheim
Penny,Hauptstr. 152,78588, Denkingen
Penny,Hauptstr. 152,78588, Denkingen
Penny,Pforzheimer Str. 55,71665, Vaihingen-Horrheim
Penny,Pforzheimer Str. 55,71665, Vaihingen-Horrheim
Penny,Hauptstr. 55,71263, Weil Der Stadt/Merklingen
Penny,Hauptstr. 55,71263, Weil Der Stadt/Merklingen
Penny,Silcherstr. 26,72348, Rosenfeld
Penny,Silcherstr. 26,72348, Rosenfeld
Penny,Professor-Schuhmacher-Str. 2/10,74706, Osterburken
Penny,Professor-Schuhmacher-Str. 2/10,74706, Osterburken
Penny,Himbergweg 1-3,75382, Althengstett
Penny,Himbergweg 1-3,75382, Althengstett
Penny,Am Illinger Eck/Muehlacker Str. 54,75428, Illingen
Penny,Am Illinger Eck/Muehlacker Str. 54,75428, Illingen
Penny,Engener Str. 5,78187, Geisingen
Penny,Engener Str. 5,78187, Geisingen
Penny,Nagolder Str. 66/1,72224, Ebhausen
Penny,Nagolder Str. 66/1,72224, Ebhausen
Penny,Hauptstr. 2/1,74936, Siegelsbach
Penny,Hauptstr. 2/1,74936, Siegelsbach
Penny,Pfalzgraf-Otto-Str. 95,74821, Mosbach
Penny,Pfalzgraf-Otto-Str. 95,74821, Mosbach
Penny,Sinsheimerstraße/Schillerstr. 2,74912, Kirchardt
Penny,Sinsheimerstraße/Schillerstr. 2,74912, Kirchardt
Penny,Zu Den Dilläckern 2,74722, Buchen
Penny,Zu Den Dilläckern 2,74722, Buchen
Penny,Frauenbrunner Str. 19,75031, Eppingen
Penny,Frauenbrunner Str. 19,75031, Eppingen
Penny,Auweg 3,74847, Obrigheim
Penny,Auweg 3,74847, Obrigheim
Penny,Deisslinger Str. 4,78078, Niedereschach
Penny,Deisslinger Str. 4,78078, Niedereschach
Penny,Dieselstr. 5,72285, Pfalzgrafenweiler
Penny,Dieselstr. 5,72285, Pfalzgrafenweiler
Penny,Sturmbuehlstr. 134,78054, Villingen/Schwenningen
Penny,Sturmbuehlstr. 134,78054, Villingen/Schwenningen
Penny,Industriestr. 111,75181, Pforzheim-Huchenfeld
Penny,Industriestr. 111,75181, Pforzheim-Huchenfeld
Penny,"Holzgartenstraße17, 19/Untere Augasse",75175, Pforzheim
Penny,"Holzgartenstraße17, 19/Untere Augasse",75175, Pforzheim
Penny,Sternenfelser Str. 55,75038, Oberderdingen
Penny,Sternenfelser Str. 55,75038, Oberderdingen
Penny,Goethestr. 19,75173, Pforzheim
Penny,Goethestr. 19,75173, Pforzheim
Penny,Gutenbergstr. 19,72175, Dornhan
Penny,Gutenbergstr. 19,72175, Dornhan
Penny,Buechenbronner Str. 68,75172, Pforzheim
Penny,Buechenbronner Str. 68,75172, Pforzheim
Penny,Gueterstr. 9,78166, Donaueschingen
Penny,Gueterstr. 9,78166, Donaueschingen
Penny,Waldshuter Str. 1,79798, Jestetten
Penny,Waldshuter Str. 1,79798, Jestetten
Penny,Friedhofweg 13,74921, Helmstadt/Bargen
Penny,Friedhofweg 13,74921, Helmstadt/Bargen
Penny,Neulandstr. 18,74889, Sinsheim
Penny,Neulandstr. 18,74889, Sinsheim
Penny,Raiffeisenstr. 15,75236, Kämpfelbach-Ersingen
Penny,Raiffeisenstr. 15,75236, Kämpfelbach-Ersingen
Penny,Pforzheimer Str. 44-50,75015, Bretten
Penny,Pforzheimer Str. 44-50,75015, Bretten
Penny,Am Henschelberg 1,74858, Aglasterhausen
Penny,Am Henschelberg 1,74858, Aglasterhausen
Penny,Industriestr. 2,75210, Keltern
Penny,Industriestr. 2,75210, Keltern
Penny,Hauptstr. 58,72275, Alpirsbach
Penny,Hauptstr. 58,72275, Alpirsbach
Penny,Lindenweg 6,79780, Stühlingen
Penny,Lindenweg 6,79780, Stühlingen
Penny,Marktstr. 65,75196, Remchingen
Penny,Marktstr. 65,75196, Remchingen
Penny,Hauptstr. 67,74918, Angelbachtal
Penny,Hauptstr. 67,74918, Angelbachtal
Penny,Oberdorfstr. 166,72270, Baiersbronn
Penny,Oberdorfstr. 166,72270, Baiersbronn
Penny,Neurott 48+50,74931, Lobbach
Penny,Neurott 48+50,74931, Lobbach
Penny,Am Gueterbahnhof 8,79771, Klettgau
Penny,Am Gueterbahnhof 8,79771, Klettgau
Penny,Industriestr. 1,74909, Meckesheim
Penny,Industriestr. 1,74909, Meckesheim
Penny,Joehlinger Str. 162,75045, Walzbachtal
Penny,Joehlinger Str. 162,75045, Walzbachtal
Penny,Thomas-Howie-Str. 17,76684, Oestringen
Penny,Thomas-Howie-Str. 17,76684, Oestringen
Penny,Ettlinger Str. 54,76332, Bad Herrenalb
Penny,Ettlinger Str. 54,76332, Bad Herrenalb
Penny,Zeuterner Straße/Herbstbruehl 1,76698, Ubstadt-Weiher
Penny,Zeuterner Straße/Herbstbruehl 1,76698, Ubstadt-Weiher
Penny,"Durlacher Str. 5, 7",76646, Bruchsal
Penny,"Durlacher Str. 5, 7",76646, Bruchsal
Penny,Altmuehlenstr. 24,79793, Wutoeschingen
Penny,Altmuehlenstr. 24,79793, Wutoeschingen
Penny,Im Schollengarten 1A,76646, Bruchsal/Untergrombach
Penny,Im Schollengarten 1A,76646, Bruchsal/Untergrombach
Penny,Durlacher Str. 84,76356, Weingarten (Baden)
Penny,Durlacher Str. 84,76356, Weingarten (Baden)
Penny,Rudolf-Diesel-Str. 1,76694, Forst
Penny,Rudolf-Diesel-Str. 1,76694, Forst
Penny,Am Storrenacker 1B,76139, Karlsruhe/Hagsfeld
Penny,Am Storrenacker 1B,76139, Karlsruhe/Hagsfeld
Penny,Max-Roth-Str. 9,76571, Gaggenau
Penny,Max-Roth-Str. 9,76571, Gaggenau
Penny,Goethestr. 15,76275, Ettlingen
Penny,Goethestr. 15,76275, Ettlingen
Penny,Frauenalber Str. 2,76199, Karlsruhe/Rueppurr
Penny,Frauenalber Str. 2,76199, Karlsruhe/Rueppurr
Penny,Schneidemuehler Str. 14A,76139, Karlsruhe/Waldstadt
Penny,Schneidemuehler Str. 14A,76139, Karlsruhe/Waldstadt
Penny,Ahornweg 89-95A,76275, Ettlingen
Penny,Ahornweg 89-95A,76275, Ettlingen
Penny,Heinrich-Hertz-Str. 6,76297, Stutensee/Friedrichstal
Penny,Heinrich-Hertz-Str. 6,76297, Stutensee/Friedrichstal
Penny,Breitenfelderstr. 4,79761, Waldshut/Tiengen
Penny,Breitenfelderstr. 4,79761, Waldshut/Tiengen
Penny,Karlstr. 67,76137, Karlsruhe/Suedweststadt
Penny,Karlstr. 67,76137, Karlsruhe/Suedweststadt
Penny,Scheffel Str. 1,76135, Karlsruhe
Penny,Scheffel Str. 1,76135, Karlsruhe
Penny,Ohiostr. 7-11,76149, Karlsruhe
Penny,Ohiostr. 7-11,76149, Karlsruhe
Penny,Auf Der Vogelhardt 2,76149, Karlsruhe/Neureut
Penny,Auf Der Vogelhardt 2,76149, Karlsruhe/Neureut
Penny,Schwarzwaldstr. 14,77728, Oppenau
Penny,Schwarzwaldstr. 14,77728, Oppenau
Penny,Lichtentaler Str. 60,76530, Baden-Baden
Penny,Lichtentaler Str. 60,76530, Baden-Baden
Penny,Josef-Schofer-Str. 16,76187, Karlsruhe/Nordweststadt
Penny,Josef-Schofer-Str. 16,76187, Karlsruhe/Nordweststadt
Penny,Lamey-Str. 14-16,76185, Karlsruhe/Muehlburg
Penny,Lamey-Str. 14-16,76185, Karlsruhe/Muehlburg
Penny,Bert-Brecht-Str. 64-66,76189, Karlsruhe/Daxlanden
Penny,Bert-Brecht-Str. 64-66,76189, Karlsruhe/Daxlanden
Penny,Im Woerth 3,76344, Eggenstein-Leopoldshafen
Penny,Im Woerth 3,76344, Eggenstein-Leopoldshafen
Penny,Herweghstr. 4,76187, Karlsruhe/Knielingen
Penny,Herweghstr. 4,76187, Karlsruhe/Knielingen
Penny,Liedolsheimer Str. 27,76706, Dettenheim/Russheim
Penny,Liedolsheimer Str. 27,76706, Dettenheim/Russheim
Penny,Rheinaustr. 1A,76287, Rheinstetten
Penny,Rheinaustr. 1A,76287, Rheinstetten
Penny,Händelstr. 5,76470, Ötigheim
Penny,Händelstr. 5,76470, Ötigheim
Penny,Am Freyersee 1,76661, Philippsburg
Penny,Am Freyersee 1,76661, Philippsburg
Penny,Hauptstr. 215a,77736, Zell/Unterharmersbach
Penny,Hauptstr. 215a,77736, Zell/Unterharmersbach
Penny,Wilhelm-Drapp-Str. 15,76532, Baden-Baden/Oos
Penny,Wilhelm-Drapp-Str. 15,76532, Baden-Baden/Oos
Penny,Steinfeld 1,77736, Zell Am Harmersbach
Penny,Steinfeld 1,77736, Zell Am Harmersbach
Penny,Robert-Bosch-Str. 6,76448, Durmersheim-Würmersheim
Penny,Robert-Bosch-Str. 6,76448, Durmersheim-Würmersheim
Penny,Biblisweg 6A,76437, Rastatt
Penny,Biblisweg 6A,76437, Rastatt
Penny,Landstr. 11,76547, Sinzheim
Penny,Landstr. 11,76547, Sinzheim
Penny,Richard-Wagner-Ring 54,76437, Rastatt
Penny,Richard-Wagner-Ring 54,76437, Rastatt
Penny,Hägenichstr. 7,77833, Ottersweier
Penny,Hägenichstr. 7,77833, Ottersweier
Penny,Allerheiligenstr. 84,77855, Achern
Penny,Allerheiligenstr. 84,77855, Achern
Penny,Friedrich-Ebert-Str. 2,76726, Germersheim
Penny,Friedrich-Ebert-Str. 2,76726, Germersheim
Penny,Kraftwerkstr. 25,79774, Albbruck
Penny,Kraftwerkstr. 25,79774, Albbruck
Penny,An Der Acher 3,77855, Achern
Penny,An Der Acher 3,77855, Achern
Penny,Buchstr. 13,76751, Jockgrim
Penny,Buchstr. 13,76751, Jockgrim
Penny,Dorfstr. 8A,79261, Gutach/Bleibach
Penny,Dorfstr. 8A,79261, Gutach/Bleibach
Penny,Rülzheimer Str. 1,76764, Rheinzabern
Penny,Rülzheimer Str. 1,76764, Rheinzabern
Penny,Muehlacker 2,76768, Berg (Pfalz)
Penny,Muehlacker 2,76768, Berg (Pfalz)
Penny,Strassburger Str. 62,77871, Renchen
Penny,Strassburger Str. 62,77871, Renchen
Penny,Weinstr. 41,77654, Offenburg/Rammersweier
Penny,Weinstr. 41,77654, Offenburg/Rammersweier
Penny,Kirchstr. 45,77836, Rheinmünster-Söllingen
Penny,Kirchstr. 45,77836, Rheinmünster-Söllingen
Penny,Im Riegel 6,76863, Herxheim
Penny,Im Riegel 6,76863, Herxheim
Penny,Kandelstr. 6,79199, Kirchzarten
Penny,Kandelstr. 6,79199, Kirchzarten
Penny,Moltkestr. 78-80,77654, Offenburg
Penny,Moltkestr. 78-80,77654, Offenburg
Penny,Am Giesenbach 1,77933, Lahr/Reichenbach
Penny,Am Giesenbach 1,77933, Lahr/Reichenbach
Penny,Obere Ziel 2,79350, Sexau
Penny,Obere Ziel 2,79350, Sexau
Penny,Burdastr. 2,77652, Offenburg
Penny,Burdastr. 2,77652, Offenburg
Penny,Carl-Otto-Keller-Str. 2,79674, Todtnau
Penny,Carl-Otto-Keller-Str. 2,79674, Todtnau
Penny,Interpark 1,76877, Offenbach A.D. Queich
Penny,Interpark 1,76877, Offenbach A.D. Queich
Penny,Rothenbaechlestr. 2,79730, Murg
Penny,Rothenbaechlestr. 2,79730, Murg
Penny,Am Mittelbach 9,77948, Friesenheim/Oberschopfheim
Penny,Am Mittelbach 9,77948, Friesenheim/Oberschopfheim
Penny,Baron-Kückh-Str. 2,77866, Rheinau-Freistett
Penny,Baron-Kückh-Str. 2,77866, Rheinau-Freistett
Penny,Hauptstr. 78,79312, Emmendingen/Kollmarsreute
Penny,Hauptstr. 78,79312, Emmendingen/Kollmarsreute
Penny,Friedhofstr. 7,77933, Lahr (Schwarzwald)
Penny,Friedhofstr. 7,77933, Lahr (Schwarzwald)
Penny,Alte Bundesstr. 37,79194, Gundelfingen
Penny,Alte Bundesstr. 37,79194, Gundelfingen
Penny,Schwarzwaldstr. 13,79312, Emmendingen
Penny,Schwarzwaldstr. 13,79312, Emmendingen
Penny,Tullastr. 2/1,77866, Rheinau-Linx
Penny,Tullastr. 2/1,77866, Rheinau-Linx
Penny,Habsburger Str. 100-102,79104, Freiburg/Stadt
Penny,Habsburger Str. 100-102,79104, Freiburg/Stadt
Penny,Im Goetzmann 3,77933, Lahr/Mietersheim
Penny,Im Goetzmann 3,77933, Lahr/Mietersheim
Penny,Stuehlingerstr. 28,79106, Freiburg Im Breisgau
Penny,Stuehlingerstr. 28,79106, Freiburg Im Breisgau
Penny,Friedrichstr. 6,79713, Bad Säckingen
Penny,Friedrichstr. 6,79713, Bad Säckingen
Penny,Am Bischofskreutz 15,79114, Freiburg
Penny,Am Bischofskreutz 15,79114, Freiburg
Penny,Gutenbergstr. 1,77955, Ettenheim
Penny,Gutenbergstr. 1,77955, Ettenheim
Penny,Kürzeller Hauptstr. 1b,77974, Meißenheim/Kürzell
Penny,Kürzeller Hauptstr. 1b,77974, Meißenheim/Kürzell
Penny,Hauptstr. 105,77743, Neuried/Ichenheim
Penny,Hauptstr. 105,77743, Neuried/Ichenheim
Penny,Hans-Theisen-Str. 18,79331, Teningen
Penny,Hans-Theisen-Str. 18,79331, Teningen
Penny,Königsberger Str. 28,77694, Kehl
Penny,Königsberger Str. 28,77694, Kehl
Penny,Schopfheimerstr. 63,79669, Zell Im Wiesental
Penny,Schopfheimerstr. 63,79669, Zell Im Wiesental
Penny,Brugesstr. 47,79224, Umkirch
Penny,Brugesstr. 47,79224, Umkirch
Penny,Am Untergruen 20,79232, March/Buchheim
Penny,Am Untergruen 20,79232, March/Buchheim
Penny,Lindelbrunnstr. 1,76887, Bad Bergzabern
Penny,Lindelbrunnstr. 1,76887, Bad Bergzabern
Penny,Ottenheimer Str. 35b,77963, Schwanau Nonnenweier
Penny,Ottenheimer Str. 35b,77963, Schwanau Nonnenweier
Penny,An Der Schmalwiese 1,76889, Schweigen-Rechtenbach
Penny,An Der Schmalwiese 1,76889, Schweigen-Rechtenbach
Penny,Gewerbestr. 2,79219, Staufen
Penny,Gewerbestr. 2,79219, Staufen
Penny,Am Alamannenfeld 1,79189, Bad Krozingen
Penny,Am Alamannenfeld 1,79189, Bad Krozingen
Penny,Bahnhofsplatz 5-9,79618, Rheinfelden
Penny,Bahnhofsplatz 5-9,79618, Rheinfelden
Penny,Koenigschaffhauser Str. 1,79369, Wyhl
Penny,Koenigschaffhauser Str. 1,79369, Wyhl
Penny,Guendlinger Str. 34,79241, Ihringen
Penny,Guendlinger Str. 34,79241, Ihringen
Penny,Siemensstr. 2,79585, Steinen
Penny,Siemensstr. 2,79585, Steinen
Penny,Beiersdorfer Str. 6,79423, Heitersheim
Penny,Beiersdorfer Str. 6,79423, Heitersheim
Penny,Gewerbestr. 2,79361, Sasbach am Kaiserstuhl
Penny,Gewerbestr. 2,79361, Sasbach am Kaiserstuhl
Penny,Freiburger Str. 2,79258, Hartheim
Penny,Freiburger Str. 2,79258, Hartheim
Penny,Bahnhofstr. 32,79400, Kandern
Penny,Bahnhofstr. 32,79400, Kandern
Penny,Rheinfelder Str. 34,79639, Grenzach-Wyhlen
Penny,Rheinfelder Str. 34,79639, Grenzach-Wyhlen
Penny,Schliengener Str. 11,79379, Muellheim
Penny,Schliengener Str. 11,79379, Muellheim
Penny,Wiesentalstr. 83,79539, Loerrach
Penny,Wiesentalstr. 83,79539, Loerrach
Penny,"Brühlstr. 10, 11",79540, Lörrach
Penny,"Brühlstr. 10, 11",79540, Lörrach
Penny,Pirmasenser Str. 1,76846, Hauenstein
Penny,Pirmasenser Str. 1,76846, Hauenstein
Penny,Muellheimer Strrasse 40,79395, Neuenburg
Penny,Muellheimer Strrasse 40,79395, Neuenburg
Penny,Gutedelstr 34,79418, Schliengen
Penny,Gutedelstr 34,79418, Schliengen
Penny,Im Rebacker 3,79591, Eimeldingen
Penny,Im Rebacker 3,79591, Eimeldingen
Penny,Karlstr. 36,80333, München
Penny,Karlstr. 36,80333, München
Penny,Leopoldstr. 37,80802, München
Penny,Leopoldstr. 37,80802, München
Penny,Hohenzollernstr. 56,80801, Muenchen/Schwabing West
Penny,Hohenzollernstr. 56,80801, Muenchen/Schwabing West
Penny,Klenzestr. 26,80469, München
Penny,Klenzestr. 26,80469, München
Penny,Preysingstr. 42,81667, Muenchen/Au-Haidhausen
Penny,Preysingstr. 42,81667, Muenchen/Au-Haidhausen
Penny,Sandstr. 37-39,80335, Muenchen/Maxvorstadt
Penny,Sandstr. 37-39,80335, Muenchen/Maxvorstadt
Penny,Rablstr. 26,81669, München/Au-Haidhausen
Penny,Rablstr. 26,81669, München/Au-Haidhausen
Penny,Belgradstr. 72,80804, Muenchen/Milbertshofen
Penny,Belgradstr. 72,80804, Muenchen/Milbertshofen
Penny,Thalkirchner Str. 88,80337, München
Penny,Thalkirchner Str. 88,80337, München
Penny,Zenettistr. 48,80337, Muenchen/Ludwigsvorstadt-Isar
Penny,Zenettistr. 48,80337, Muenchen/Ludwigsvorstadt-Isar
Penny,Leonrodstr. 48,80636, München/Neuhausen
Penny,Leonrodstr. 48,80636, München/Neuhausen
Penny,Schleissheimer Str. 260,80809, Muenchen/Milbertshofen-Am Hart
Penny,Schleissheimer Str. 267,80809, Muenchen
Penny,Schleissheimer Str. 260,80809, Muenchen/Milbertshofen-Am Hart
Penny,Schleissheimer Str. 267,80809, Muenchen
Penny,Isoldenstr. 60,80804, München
Penny,Isoldenstr. 60,80804, München
Penny,Leonrodstr. 35,80636, Muenchen/Neuhausen
Penny,Leonrodstr. 35,80636, Muenchen/Neuhausen
Penny,Winterstr. 12,81543, München/Untergiesing-Harlachi
Penny,Winterstr. 12,81543, München/Untergiesing-Harlachi
Penny,Deisenhofener Str. 14-16,81539, München/Obergiesing
Penny,Deisenhofener Str. 14-16,81539, München/Obergiesing
Penny,Deisenhofener Str. 21-23,81539, Muenchen/Obergiesing
Penny,Deisenhofener Str. 21-23,81539, Muenchen/Obergiesing
Penny,Implerstr. 27,81371, München/Sendling
Penny,Implerstr. 27,81371, München/Sendling
Penny,Innsbrucker Ring 44,81671, München
Penny,Innsbrucker Ring 44,81671, München
Penny,Pfeuferstr. 33,81373, München
Penny,Pfeuferstr. 33,81373, München
Penny,Wendl-Dietrich-Str. 13,80634, Muenchen/Neuhausen-Nymphenburg
Penny,Wendl-Dietrich-Str. 13,80634, Muenchen/Neuhausen-Nymphenburg
Penny,Perlacher Str. 122A,81539, Muenchen/Obergiesing
Penny,Perlacher Str. 122A,81539, Muenchen/Obergiesing
Penny,Alfred-Arndt-Str. 1,80807, München
Penny,Alfred-Arndt-Str. 1,80807, München
Penny,Am Westpark 8,81373, München
Penny,Am Westpark 8,81373, München
Penny,Chiemgaustr. 52-54,81549, Muenchen/Obergiesing
Penny,Chiemgaustr. 52-54,81549, Muenchen/Obergiesing
Penny,Moosacher Str. 23,80809, Muenchen/Milbertshofen-Am Hart
Penny,Moosacher Str. 23,80809, Muenchen/Milbertshofen-Am Hart
Penny,Stadelheimer Str. 71,81549, München
Penny,Stadelheimer Str. 71,81549, München
Penny,Agnes-Bernauer-Str. 21,80687, München/Schwanthalerhöhe-Lai
Penny,Agnes-Bernauer-Str. 21,80687, München/Schwanthalerhöhe-Lai
Penny,Schönstr. 126,81543, München
Penny,Schönstr. 126,81543, München
Penny,Ohlstadter Str. 22,81373, Muenchen/Westpark
Penny,Ohlstadter Str. 22,81373, Muenchen/Westpark
Penny,Konrad-Celtis-Str. 33a,81369, Muenchen/Sendling-Westpark
Penny,Konrad-Celtis-Str. 33a,81369, Muenchen/Sendling-Westpark
Penny,Fachnerstr. 41,80686, München
Penny,Fachnerstr. 41,80686, München
Penny,Quiddestr. 58,81735, Muenchen/Ramersd.-Perlach
Penny,Quiddestr. 58,81735, Muenchen/Ramersd.-Perlach
Penny,Wilhelm-Kemmelmeyer-Bogen 7,85774, Unterföhring
Penny,Wilhelm-Kemmelmeyer-Bogen 7,85774, Unterföhring
Penny,Fürstenrieder Str. 90,80686, München/Schwanthalerhöhe-Lai
Penny,Fürstenrieder Str. 90,80686, München/Schwanthalerhöhe-Lai
Penny,Fürstenrieder Str. 256,81377, München/Hadern
Penny,Fürstenrieder Str. 256,81377, München/Hadern
Penny,Franz-Fackler-Str. 3,80995, Muenchen/Feldmoching-Hasenbergl
Penny,Franz-Fackler-Str. 3,80995, Muenchen/Feldmoching-Hasenbergl
Penny,Peschelanger 9,81735, Muenchen/Ramersdorf-Perlach
Penny,Peschelanger 9,81735, Muenchen/Ramersdorf-Perlach
Penny,Neuherbergstr. 110,80937, Muenchen/Milbertshofen-Am Hart
Penny,Neuherbergstr. 110,80937, Muenchen/Milbertshofen-Am Hart
Penny,Kirchtruderinger Str. 22,81829, München
Penny,Kirchtruderinger Str. 22,81829, München
Penny,Guardinistr. 92,81375, München
Penny,Guardinistr. 92,81375, München
Penny,Wasserburger Landstr. 47-49,81825, München
Penny,Wasserburger Landstr. 47-49,81825, München
Penny,Ahornstr. 5,85774, Unterföhring
Penny,Ahornstr. 5,85774, Unterföhring
Penny,Züricher Str. 29,81476, München/Thalk.Obersendl.
Penny,Züricher Str. 29,81476, München/Thalk.Obersendl.
Penny,Wasserburger Landstr. 108,81827, München/Trudering
Penny,Wasserburger Landstr. 108,81827, München/Trudering
Penny,Kandinskystr. 16,81477, Muenchen/Solln
Penny,Kandinskystr. 16,81477, Muenchen/Solln
Penny,Verdistr. 106-108,81247, Muenchen/Pasing-Obermenzing
Penny,Verdistr. 106-108,81247, Muenchen/Pasing-Obermenzing
Penny,Im Gefilde 80,81739, Muenchen/Rammersdorf-Perlach
Penny,Im Gefilde 80,81739, Muenchen/Rammersdorf-Perlach
Penny,Sauerbruchstr. 48,81377, Muenchen/Hadern
Penny,Sauerbruchstr. 48,81377, Muenchen/Hadern
Penny,Landsberger Str. 515,81241, München
Penny,Landsberger Str. 515,81241, München
Penny,Hauptstr. 32,82008, Unterhaching
Penny,Hauptstr. 32,82008, Unterhaching
Penny,Maxhofstr. 24,81475, München/Fürstenried
Penny,Maxhofstr. 24,81475, München/Fürstenried
Penny,Lindenring 3,82024, Taufkirchen
Penny,Lindenring 3,82024, Taufkirchen
Penny,Clara-Schumann-Str. 2,85622, Feldkirchen
Penny,Clara-Schumann-Str. 2,85622, Feldkirchen
Penny,Radolfzeller Str. 11a,81243, München
Penny,Radolfzeller Str. 11a,81243, München
Penny,Uhlandstr. 1,85609, Aschheim
Penny,Uhlandstr. 1,85609, Aschheim
Penny,Koeglweg 40,82024, Taufkirchen
Penny,Koeglweg 40,82024, Taufkirchen
Penny,Ottostr. 63,85521, Ottobrunn
Penny,Ottostr. 63,85521, Ottobrunn
Penny,Wiesentfelser Str. 68,81249, München
Penny,Wiesentfelser Str. 68,81249, München
Penny,Schleissheimer Str. 30c,85748, Garching
Penny,Schleissheimer Str. 30c,85748, Garching
Penny,Linienstr. 36-44,82041, Oberhaching
Penny,Linienstr. 36-44,82041, Oberhaching
Penny,Muenchner Str. 122,85757, Karlsfeld
Penny,Muenchner Str. 122,85757, Karlsfeld
Penny,Am Gangsteig 7-9,85551, Kirchheim-Heimstetten
Penny,Am Gangsteig 7-9,85551, Kirchheim-Heimstetten
Penny,Johann-Sebastian-Bach-Str. 48,85591, Vaterstetten
Penny,Johann-Sebastian-Bach-Str. 48,85591, Vaterstetten
Penny,Landshuter Str. 16,85716, Unterschleißheim
Penny,Landshuter Str. 16,85716, Unterschleißheim
Penny,Ludwig-Ernst-Str. 3,85221, Dachau
Penny,Ludwig-Ernst-Str. 3,85221, Dachau
Penny,Holzapfelstr. 2,85635, Hoehenkirchen/Siegertsbrunn
Penny,Holzapfelstr. 2,85635, Hoehenkirchen/Siegertsbrunn
Penny,Adenauer Str. 7,82178, Puchheim
Penny,Adenauer Str. 7,82178, Puchheim
Penny,Schlesierstr. 6,85386, Eching
Penny,Schlesierstr. 6,85386, Eching
Penny,Ammerseestr. 116,82131, Gauting
Penny,Ammerseestr. 116,82131, Gauting
Penny,Dachauer Str. 43,85241, Hebertshausen
Penny,Dachauer Str. 43,85241, Hebertshausen
Penny,Hauptstr. 17-19,82223, Eichenau
Penny,Hauptstr. 17-19,82223, Eichenau
Penny,Ludwig-Boelkow-Str. 2,82054, Sauerlach
Penny,Ludwig-Boelkow-Str. 2,82054, Sauerlach
Penny,Kurt-Kittel-Ring 3,85375, Neufahrn
Penny,Kurt-Kittel-Ring 3,85375, Neufahrn
Penny,Dr.-Hartlaub-Ring 5,85570, Markt Schwaben
Penny,Dr.-Hartlaub-Ring 5,85570, Markt Schwaben
Penny,Am Fischfeld 1,85777, Fahrenzhausen
Penny,Am Fischfeld 1,85777, Fahrenzhausen
Penny,Muenchener Str. 24,85247, Schwabhausen
Penny,Muenchener Str. 24,85247, Schwabhausen
Penny,Lindberghstr. 7,85399, Hallbergmoos
Penny,Lindberghstr. 7,85399, Hallbergmoos
Penny,Am Aehrenfeld 65,82256, Fuerstenfeldbruck
Penny,Am Aehrenfeld 65,82256, Fuerstenfeldbruck
Penny,Hafnerstr. 1,85229, Markt Indersdorf
Penny,Hafnerstr. 1,85229, Markt Indersdorf
Penny,Pfarrer-Winhart-Str. 3,85625, Glonn
Penny,Pfarrer-Winhart-Str. 3,85625, Glonn
Penny,Tegernseer Str. 18,83624, Otterfing
Penny,Tegernseer Str. 18,83624, Otterfing
Penny,Weilheimer Str. 21,82343, Poecking
Penny,Weilheimer Str. 21,82343, Poecking
Penny,Böhmerwaldstr. 44,82538, Geretsried
Penny,Böhmerwaldstr. 44,82538, Geretsried
Penny,Industriestr. 35,83607, Holzkirchen
Penny,Industriestr. 35,83607, Holzkirchen
Penny,Buergermeister-Neumeyer-Str. 9,85391, Allershausen
Penny,Buergermeister-Neumeyer-Str. 9,85391, Allershausen
Penny,Falkenstr. 3,85356, Freising
Penny,Falkenstr. 3,85356, Freising
Penny,Eitelsrieder Str. 2,82291, Mammendorf
Penny,Eitelsrieder Str. 2,82291, Mammendorf
Penny,Sudetenstr. 29-43,82538, Geretsried
Penny,Sudetenstr. 29-43,82538, Geretsried
Penny,Stumpfenbacher Str. 46,85250, Altomünster
Penny,Stumpfenbacher Str. 46,85250, Altomünster
Penny,Pfaffenhofener Str. 8a,85293, Reichertshausen
Penny,Pfaffenhofener Str. 8a,85293, Reichertshausen
Penny,Freisinger Str. 23,85416, Langenbach
Penny,Freisinger Str. 23,85416, Langenbach
Penny,Strogenstr. 18,85456, Wartenberg
Penny,Strogenstr. 18,85456, Wartenberg
Penny,Prinz-Ludwig-Str. 22a,86911, Diessen/Ammersee
Penny,Prinz-Ludwig-Str. 22a,86911, Diessen/Ammersee
Penny,Einbachstr. 1,83646, Wackersberg (Bad Toelz)
Penny,Einbachstr. 1,83646, Wackersberg (Bad Toelz)
Penny,Schaeffler Str. 2,83527, Haag In Obb.
Penny,Schaeffler Str. 2,83527, Haag In Obb.
Penny,Muenchner Str. 68,85368, Moosburg
Penny,Muenchner Str. 68,85368, Moosburg
Penny,Miesbacher Str. 1A,83703, Gmund
Penny,Miesbacher Str. 1A,83703, Gmund
Penny,Am Gewerbering 2,83533, Edling
Penny,Am Gewerbering 2,83533, Edling
Penny,Im Thal 5,82377, Penzberg
Penny,Im Thal 5,82377, Penzberg
Penny,Hausmehringer Str. 22,85405, Nandlstadt
Penny,Hausmehringer Str. 22,85405, Nandlstadt
Penny,Pfaffenhofener Str. 8,84072, Au I. D. Hallertau
Penny,Pfaffenhofener Str. 8,84072, Au I. D. Hallertau
Penny,Innthalstr. 1,83556, Griesstaett
Penny,Innthalstr. 1,83556, Griesstaett
Penny,An Der Alten Spinnerei 12,83059, Kolbermoor
Penny,An Der Alten Spinnerei 12,83059, Kolbermoor
Penny,Freisinger Str. 7,86551, Aichach
Penny,Freisinger Str. 7,86551, Aichach
Penny,Bruckmühlweg 4,83512, Wasserburg
Penny,Bruckmühlweg 4,83512, Wasserburg
Penny,Toelzer Str. 36,83661, Lenggries
Penny,Toelzer Str. 36,83661, Lenggries
Penny,Kampenwandstr. 1,83075, Bad Feilnbach
Penny,Kampenwandstr. 1,83075, Bad Feilnbach
Penny,Hopfenstr. 37,85283, Wolnzach
Penny,Hopfenstr. 37,85283, Wolnzach
Penny,Lilienthalstr. 1,85296, Rohrbach/Ilm
Penny,Lilienthalstr. 1,85296, Rohrbach/Ilm
Penny,Isarstr. 2,83026, Rosenheim/Happing
Penny,Isarstr. 2,83026, Rosenheim/Happing
Penny,Salzburger Str. 13,83071, Stephanskirchen/Schlossberg
Penny,Salzburger Str. 13,83071, Stephanskirchen/Schlossberg
Penny,Hermann-Koehl-Str. 9,86159, Augsburg
Penny,Hermann-Koehl-Str. 9,86159, Augsburg
Penny,Gewerbering 6,84149, Velden/Vils
Penny,Gewerbering 6,84149, Velden/Vils
Penny,Straßäcker 1,86934, Reichling
Penny,Straßäcker 1,86934, Reichling
Penny,Schongauer Str. 51,82380, Peissenberg
Penny,Schongauer Str. 51,82380, Peissenberg
Penny,Neuburger Str. 34,85084, Reichertshofen
Penny,Neuburger Str. 34,85084, Reichertshofen
Penny,Augsburger Str. 45,86845, Grossaitingen
Penny,Augsburger Str. 45,86845, Grossaitingen
Penny,Hagenmaehder Str. 14,86391, Stadtbergen
Penny,Hagenmaehder Str. 14,86391, Stadtbergen
Penny,Von Der Tann Str. 3,84478, Waldkraiburg
Penny,Von Der Tann Str. 3,84478, Waldkraiburg
Penny,Holzweg 45,86156, Augsburg
Penny,Holzweg 45,86156, Augsburg
Penny,Graslitzer Str. 5,84478, Waldkraiburg
Penny,Graslitzer Str. 5,84478, Waldkraiburg
Penny,Riedstr. 24a,83126, Flintsbach
Penny,Riedstr. 24a,83126, Flintsbach
Penny,Zweibrueckenstr. 717,84028, Landshut
Penny,Zweibrueckenstr. 717,84028, Landshut
Penny,Ergoldinger Str. 2c,84030, Landshut
Penny,Ergoldinger Str. 2c,84030, Landshut
Penny,Hauptstr. 37,84107, Weihmichl
Penny,Hauptstr. 37,84107, Weihmichl
Penny,Porschestr. 24,84030, Landshut
Penny,Porschestr. 24,84030, Landshut
Penny,Bahnhofstr. 8,84478, Waldkraiburg
Penny,Bahnhofstr. 8,84478, Waldkraiburg
Penny,Bernbeurener Str. 2,86956, Schongau
Penny,Bernbeurener Str. 2,86956, Schongau
Penny,Karwendelstr. 4,86462, Langweid
Penny,Karwendelstr. 4,86462, Langweid
Penny,Frontenhausener Str. 32,84137, Vilsbiburg
Penny,Frontenhausener Str. 32,84137, Vilsbiburg
Penny,Hagauerstr. 103,85051, Ingolstadt
Penny,Hagauerstr. 103,85051, Ingolstadt
Penny,Poelchinger Str. 1,83229, Aschau I. Chiemgau
Penny,Poelchinger Str. 1,83229, Aschau I. Chiemgau
Penny,Weningstr. 37,85053, Ingolstadt
Penny,Weningstr. 37,85053, Ingolstadt
Penny,Regensburger Str. 142,85055, Ingolstadt/Mailing
Penny,Regensburger Str. 142,85055, Ingolstadt/Mailing
Penny,Rottauer Str. 20,83233, Bernau A. Chiemsee
Penny,Rottauer Str. 20,83233, Bernau A. Chiemsee
Penny,Laengenmuehlweg 55,86633, Neuburg
Penny,Laengenmuehlweg 55,86633, Neuburg
Penny,Augsburgerstr. 132,86633, Neuburg A.D.D.
Penny,Augsburgerstr. 132,86633, Neuburg A.D.D.
Penny,Buergermeister-Hess-Str. 6,84453, Mühldorf
Penny,Buergermeister-Hess-Str. 6,84453, Mühldorf
Penny,Mainstr. 2,84453, Muehldorf
Penny,Mainstr. 2,84453, Muehldorf
Penny,Sudetenlandstr. 23,86633, Neuburg A.D. Donau
Penny,Sudetenlandstr. 23,86633, Neuburg A.D. Donau
Penny,Furtwänglerstr. 6,85057, Ingolstadt
Penny,Furtwänglerstr. 6,85057, Ingolstadt
Penny,Landshuter Str. 3A,84494, Neumarkt St. Veit
Penny,Landshuter Str. 3A,84494, Neumarkt St. Veit
Penny,Zum Neufnachtal 1,86868, Mittelneufnach
Penny,Zum Neufnachtal 1,86868, Mittelneufnach
Penny,Am Binderfeld 12,84518, Garching A.D.Alz
Penny,Am Binderfeld 12,84518, Garching A.D.Alz
Penny,Alte-Pallinger-Str. 3,83308, Trostberg
Penny,Alte-Pallinger-Str. 3,83308, Trostberg
Penny,Am Augraben 17,85080, Gaimersheim
Penny,Am Augraben 17,85080, Gaimersheim
Penny,Gottlieb-Daimler-Str. 23,86825, Bad Woerishofen
Penny,Gottlieb-Daimler-Str. 23,86825, Bad Woerishofen
Penny,Kufsteiner Str. 55,83088, Kiefersfelden
Penny,Kufsteiner Str. 55,83088, Kiefersfelden
Penny,Winhoeringer Str. 23,84513, Toeging
Penny,Winhoeringer Str. 23,84513, Toeging
Penny,Ortenburger Str. 19,83224, Grassau
Penny,Ortenburger Str. 19,83224, Grassau
Penny,Uzstr. 41,86465, Welden
Penny,Uzstr. 41,86465, Welden
Penny,Traunring 2,83301, Traunreut
Penny,Traunring 2,83301, Traunreut
Penny,Apfeltranger Str. 3,87600, Kaufbeuren
Penny,Apfeltranger Str. 3,87600, Kaufbeuren
Penny,Partenkirchner Str. 65,82490, Farchant
Penny,Partenkirchner Str. 65,82490, Farchant
Penny,Partenkirchener Str. 53,82481, Mittenwald
Penny,Partenkirchener Str. 53,82481, Mittenwald
Penny,Schmiedsoeder Weg 4,84140, Gangkofen
Penny,Schmiedsoeder Weg 4,84140, Gangkofen
Penny,Im Schmutterfeld 2,86690, Mertingen
Penny,Im Schmutterfeld 2,86690, Mertingen
Penny,Neuschmied 46,83246, Unterwoessen
Penny,Neuschmied 46,83246, Unterwoessen
Penny,Fabrikstr. 17,84503, Altötting
Penny,Fabrikstr. 17,84503, Altötting
Penny,Zusamleite 12,86450, Altenmünster
Penny,Zusamleite 12,86450, Altenmünster
Penny,Berliner Str. 1,87719, Mindelheim
Penny,Berliner Str. 1,87719, Mindelheim
Penny,Lenbachstr. 2,84085, Langquaid
Penny,Lenbachstr. 2,84085, Langquaid
Penny,Am Kreisverkehr 6,84160, Frontenhausen
Penny,Am Kreisverkehr 6,84160, Frontenhausen
Penny,Franz-Xaver-Steber-Str. 1,83278, Traunstein
Penny,Franz-Xaver-Steber-Str. 1,83278, Traunstein
Penny,Jahnstr. 2,84508, Burgkirchen
Penny,Jahnstr. 2,84508, Burgkirchen
Penny,Hohenbruckanger 1,84066, Mallersdorf-Pfaffenberg
Penny,Hohenbruckanger 1,84066, Mallersdorf-Pfaffenberg
Penny,Am Tennispark 1,83242, Reit Im Winkl
Penny,Am Tennispark 1,83242, Reit Im Winkl
Penny,Guglweiterstr. 12,84547, Emmerting
Penny,Guglweiterstr. 12,84547, Emmerting
Penny,Hauptstr. 2C,84152, Mengkofen
Penny,Hauptstr. 2C,84152, Mengkofen
Penny,Raunauerstr. 1,86381, Krumbach
Penny,Raunauerstr. 1,86381, Krumbach
Penny,Zellerstr. 26,83324, Ruhpolding
Penny,Zellerstr. 26,83324, Ruhpolding
Penny,Schellenbruckplatz 7-13,84307, Eggenfelden
Penny,Schellenbruckplatz 7-13,84307, Eggenfelden
Penny,Gewerbestr. 20,87733, Markt Rettenbach
Penny,Gewerbestr. 20,87733, Markt Rettenbach
Penny,Oberen Markt 74,87634, Oberguenzburg
Penny,Oberen Markt 74,87634, Oberguenzburg
Penny,Fruehmahd 1,87746, Erkheim
Penny,Fruehmahd 1,87746, Erkheim
Penny,Burghauser Str. 9,84533, Marktl
Penny,Burghauser Str. 9,84533, Marktl
Penny,Bahnhofstr. 26,89362, Offingen
Penny,Bahnhofstr. 26,89362, Offingen
Penny,Adlgasser Str. 46,83334, Inzell
Penny,Adlgasser Str. 46,83334, Inzell
Penny,Freidlinger Str. 4,83317, Teisendorf
Penny,Freidlinger Str. 4,83317, Teisendorf
Penny,Simbacher Str. 35,84367, Tann
Penny,Simbacher Str. 35,84367, Tann
Penny,Hauptstr. 5,87466, Oy-Mittelberg
Penny,Hauptstr. 5,87466, Oy-Mittelberg
Penny,Papiermuehlenweg 2,89426, Wittislingen
Penny,Papiermuehlenweg 2,89426, Wittislingen
Penny,Heisingerstr. 23,87463, Dietmannsried
Penny,Heisingerstr. 23,87463, Dietmannsried
Penny,Tittmoninger Str. 2,83410, Laufen
Penny,Tittmoninger Str. 2,83410, Laufen
Penny,Violastr. 4,89312, Günzburg
Penny,Violastr. 4,89312, Günzburg
Penny,Schumacherring 101,87437, Kempten
Penny,Schumacherring 101,87437, Kempten
Penny,Duracher Str. 45,87437, Kempten/St. Mang
Penny,Duracher Str. 45,87437, Kempten/St. Mang
Penny,Haußmannstr. 2,87700, Memmingen
Penny,Haußmannstr. 2,87700, Memmingen
Penny,Steffelsöd 10,84347, Pfarrkirchen
Penny,Steffelsöd 10,84347, Pfarrkirchen
Penny,Roggenburger Str. 10,89264, Weißenhorn
Penny,Roggenburger Str. 10,89264, Weißenhorn
Penny,Reichenbachstr. 7,83435, Bad Reichenhall
Penny,Reichenbachstr. 7,83435, Bad Reichenhall
Penny,Hauptstr. 5,89284, Pfaffenhofen A.D.Roth
Penny,Hauptstr. 5,89284, Pfaffenhofen A.D.Roth
Penny,Ahornstr. 38,83451, Piding
Penny,Ahornstr. 38,83451, Piding
Penny,Bahnhofstr. 7,84359, Simbach
Penny,Bahnhofstr. 7,84359, Simbach
Penny,Am Schmidinger Weiher 1,83404, Ainring
Penny,Am Schmidinger Weiher 1,83404, Ainring
Penny,Untere Illereicher Str. 2,89281, Altenstadt
Penny,Untere Illereicher Str. 2,89281, Altenstadt
Penny,Place De Bages 2,89168, Niederstotzingen
Penny,Place De Bages 2,89168, Niederstotzingen
Penny,Haselbachstr. 2,84371, Triftern
Penny,Haselbachstr. 2,84371, Triftern
Penny,Rupertusstr. 2,83395, Freilassing
Penny,Rupertusstr. 2,83395, Freilassing
Penny,Memminger Str. 40,89257, Illertissen
Penny,Memminger Str. 40,89257, Illertissen
Penny,Gerberstr. 15,87764, Legau
Penny,Gerberstr. 15,87764, Legau
Penny,Bahnhofstr. 52,89537, Giengen
Penny,Bahnhofstr. 52,89537, Giengen
Penny,Mergelstetter Str. 18,89542, Herbrechtingen
Penny,Mergelstetter Str. 18,89542, Herbrechtingen
Penny,Reuttierstr. 56,89231, Neu-Ulm/Stadtmitte
Penny,Reuttierstr. 56,89231, Neu-Ulm/Stadtmitte
Penny,Bahnhofstr. 91,89231, Neu-Ulm
Penny,Bahnhofstr. 91,89231, Neu-Ulm
Penny,Koch-Sternfeld-Str. 1,83471, Berchtesgaden
Penny,Koch-Sternfeld-Str. 1,83471, Berchtesgaden
Penny,Kanalstr. 2,89522, Heidenheim An Der Brenz
Penny,Kanalstr. 2,89522, Heidenheim An Der Brenz
Penny,Heidenheimer Str. 182,89520, Heidenheim/Schnaitheim
Penny,Heidenheimer Str. 182,89520, Heidenheim/Schnaitheim
Penny,Wolfentalstr. 6,88400, Biberach An Der Riss
Penny,Wolfentalstr. 6,88400, Biberach An Der Riss
Penny,Steinstr. 1,88339, Bad Waldsee
Penny,Steinstr. 1,88339, Bad Waldsee
Penny,Baumeister-Bufler-Str. 1,88171, Weiler-Simmerberg
Penny,Baumeister-Bufler-Str. 1,88171, Weiler-Simmerberg
Penny,Am Manzenbuehl 4,89601, Schelklingen
Penny,Am Manzenbuehl 4,89601, Schelklingen
Penny,Am Langacker 6,88267, Vogt
Penny,Am Langacker 6,88267, Vogt
Penny,Rottenackerstr. 33,89597, Munderkingen
Penny,Rottenackerstr. 33,89597, Munderkingen
Penny,Geislinger Str. 26,89150, Laichingen
Penny,Geislinger Str. 26,89150, Laichingen
Penny,Alte Kiesgrube 3,88326, Aulendorf
Penny,Alte Kiesgrube 3,88326, Aulendorf
Penny,Oberbachstr. 39,88422, Bad Buchau
Penny,Oberbachstr. 39,88422, Bad Buchau
Penny,Niederbieger Str. 70,88255, Baienfurt
Penny,Niederbieger Str. 70,88255, Baienfurt
Penny,Gruener Turmstr. 2-10,88212, Ravensburg
Penny,Gruener Turmstr. 2-10,88212, Ravensburg
Penny,Marienburger Str. 31,88213, Ravensburg
Penny,Marienburger Str. 31,88213, Ravensburg
Penny,Lagerhausstr. 7-9,88131, Lindau
Penny,Lagerhausstr. 7-9,88131, Lindau
Penny,Moosheimer Str. 29,88348, Bad Saulgau
Penny,Moosheimer Str. 29,88348, Bad Saulgau
Penny,Hauptstr. 2/1,88529, Zwiefalten
Penny,Hauptstr. 2/1,88529, Zwiefalten
Penny,Lindauer Str. 76,88085, Langenargen
Penny,Lindauer Str. 76,88085, Langenargen
Penny,Welfenstr. 6,88271, Wilhelmsdorf
Penny,Welfenstr. 6,88271, Wilhelmsdorf
Penny,Montfortstr. 1,88515, Langenenslingen
Penny,Montfortstr. 1,88515, Langenenslingen
Penny,Hauptstraße/Friedleshof 3,88356, Ostrach
Penny,Hauptstraße/Friedleshof 3,88356, Ostrach
Penny,Bussen Str. 5,88512, Mengen
Penny,Bussen Str. 5,88512, Mengen
Penny,Planckstr. 15,88677, Markdorf
Penny,Planckstr. 15,88677, Markdorf
Penny,Alte Neufracher Str. 56,88682, Salem/Mimmenhausen
Penny,Alte Neufracher Str. 56,88682, Salem/Mimmenhausen
Penny,Bahnhofstr. 17,93333, Neustadt/Donau
Penny,Bahnhofstr. 17,93333, Neustadt/Donau
Penny,Donaupark 35,93309, Kelheim
Penny,Donaupark 35,93309, Kelheim
Penny,Am Kreisverkehr 3,94419, Niederreisbach
Penny,Am Kreisverkehr 3,94419, Niederreisbach
Penny,Alte Umgehungsstr. 23,94405, Landau
Penny,Alte Umgehungsstr. 23,94405, Landau
Penny,Hornstr. 10,93053, Regensburg-Kasernenviertel
Penny,Hornstr. 10,93053, Regensburg-Kasernenviertel
Penny,Bayerwaldstr. 55,93073, Neutraubling
Penny,Bayerwaldstr. 55,93073, Neutraubling
Penny,Brandlberger Str. 100,93057, Regensburg
Penny,Brandlberger Str. 100,93057, Regensburg
Penny,Pielmuehler Str. 19A,93138, Lappersdorf
Penny,Pielmuehler Str. 19A,93138, Lappersdorf
Penny,Geiselhöringer Str. 63,94315, Straubing
Penny,Geiselhöringer Str. 63,94315, Straubing
Penny,Industriegelaende 20,94522, Wallersdorf
Penny,Industriegelaende 20,94522, Wallersdorf
Penny,Breslauer Str. 5,94315, Straubing
Penny,Breslauer Str. 5,94315, Straubing
Penny,Regensburger Str. 35,93173, Wenzenbach
Penny,Regensburger Str. 35,93173, Wenzenbach
Penny,Bayerwaldstr. 16a,93086, Woerth A.D. Donau
Penny,Bayerwaldstr. 16a,93086, Woerth A.D. Donau
Penny,Eichenbuehl 2A,92331, Lupburg
Penny,Eichenbuehl 2A,92331, Lupburg
Penny,Ellinger Str. 14,91785, Pleinfeld
Penny,Ellinger Str. 14,91785, Pleinfeld
Penny,Allersberger Str. 19,91161, Hilpoltstein
Penny,Allersberger Str. 19,91161, Hilpoltstein
Penny,Freystaedter Str. 11,92318, Neumarkt
Penny,Freystaedter Str. 11,92318, Neumarkt
Penny,Donau Str. 6,94491, Hengersberg
Penny,Donau Str. 6,94491, Hengersberg
Penny,Ritter-Tuschl-Str. 65,94496, Ortenburg
Penny,Ritter-Tuschl-Str. 65,94496, Ortenburg
Penny,Aidenbacher Str. 2,94474, Vilshofen
Penny,Aidenbacher Str. 2,94474, Vilshofen
Penny,Fuessinger Str. 1,94060, Pocking
Penny,Fuessinger Str. 1,94060, Pocking
Penny,Biederbacher Str. 27,91639, Wolframs-Eschenbach
Penny,Biederbacher Str. 27,91639, Wolframs-Eschenbach
Penny,Schulstr. 71,94239, Ruhmannsfelden
Penny,Schulstr. 71,94239, Ruhmannsfelden
Penny,Pfaffentalstr. 31,90518, Altdorf bei Nürnberg
Penny,Pfaffentalstr. 31,90518, Altdorf bei Nürnberg
Penny,Hafner Hoehe 19,94234, Viechtach
Penny,Hafner Hoehe 19,94234, Viechtach
Penny,Max-Matheis-Str. 2A,94036, Passau
Penny,Max-Matheis-Str. 2A,94036, Passau
Penny,Spitalhofstr. 76,94032, Passau
Penny,Spitalhofstr. 76,94032, Passau
Penny,Schillerstr. 33,90547, Stein
Penny,Schillerstr. 33,90547, Stein
Penny,Dombühler Str. 2,90449, Nürnberg
Penny,Dombühler Str. 2,90449, Nürnberg
Penny,Gewerbegebiet Trisching 11,92546, Schmidgaden
Penny,Gewerbegebiet Trisching 11,92546, Schmidgaden
Penny,Untere Bahnhofstr. 6,90574, Rosstal
Penny,Untere Bahnhofstr. 6,90574, Rosstal
Penny,Galgenhofstr. 49-51,90459, Nürnberg
Penny,Galgenhofstr. 49-51,90459, Nürnberg
Penny,Äußerer Laufer Platz 24,90403, Nürnberg-Sebald
Penny,Äußerer Laufer Platz 24,90403, Nürnberg-Sebald
Penny,Rollner Str. 121,90408, Nuernberg
Penny,Rollner Str. 121,90408, Nuernberg
Penny,Am Kreisel 7,94116, Hutthurm
Penny,Am Kreisel 7,94116, Hutthurm
Penny,Waldenreuter Str. 12,94157, Perlesreut
Penny,Waldenreuter Str. 12,94157, Perlesreut
Penny,Baumsteftenlenzstr. 7,94227, Zwiesel
Penny,Baumsteftenlenzstr. 7,94227, Zwiesel
Penny,Hintere Str. 40,90768, Fuerth/Burgfarrnbach
Penny,Hintere Str. 40,90768, Fuerth/Burgfarrnbach
Penny,Glashuettenweg 25,93437, Furth Im Wald
Penny,Glashuettenweg 25,93437, Furth Im Wald
Penny,Kurpfalzstr. 53,97944, Boxberg
Penny,Kurpfalzstr. 53,97944, Boxberg
Penny,Tauberstr. 9,97922, Lauda-Königshofen
Penny,Tauberstr. 9,97922, Lauda-Königshofen
Penny,In Der Röthe 4,97332, Volkach
Penny,In Der Röthe 4,97332, Volkach
Penny,Wolfhartsgasse 3,97070, Würzburg
Penny,Wolfhartsgasse 3,97070, Würzburg
Penny,Am Handelshof 5,97076, Wuerzburg/Lengfeld
Penny,Am Handelshof 5,97076, Wuerzburg/Lengfeld
Penny,Gulbranssonstr. 83,97525, Schwebheim
Penny,Gulbranssonstr. 83,97525, Schwebheim
Penny,Am Graben 3,97292, Uettingen
Penny,Am Graben 3,97292, Uettingen
Penny,Am Guessgraben 1,97225, Zellingen/Retzbach
Penny,Am Guessgraben 1,97225, Zellingen/Retzbach
Penny,Georg-Mayr-Str. 20,97828, Marktheidenfeld
Penny,Georg-Mayr-Str. 20,97828, Marktheidenfeld
Penny,Am Dreispitz 2,97909, Stadtprozelten
Penny,Am Dreispitz 2,97909, Stadtprozelten
Penny,Bettelheckerstr. 7,96515, Sonneberg
Penny,Bettelheckerstr. 7,96515, Sonneberg
Penny,Mangelsfeld 2,97708, Bad Bocklet/Grossenbrach
Penny,Mangelsfeld 2,97708, Bad Bocklet/Grossenbrach
Penny,Bahnhofstr. 96,98724, Lauscha
Penny,Bahnhofstr. 96,98724, Lauscha
Penny,Im Unterreith 1,97775, Burgsinn
Penny,Im Unterreith 1,97775, Burgsinn
Penny,Dr.-Theodor-Neubauer-Str. 7a,98527, Suhl
Penny,Dr.-Theodor-Neubauer-Str. 7a,98527, Suhl
Penny,Henneberger Str. 3,98617, Meiningen
Penny,Henneberger Str. 3,98617, Meiningen
Penny,Blumenstr. 1,98693, Ilmenau
Penny,Blumenstr. 1,98693, Ilmenau
Penny,Am Räschen 5,98634, Wasungen
Penny,Am Räschen 5,98634, Wasungen
Penny,Am Gries 7,98574, Schmalkalden/Ot Wernshausen
Penny,Am Gries 7,98574, Schmalkalden/Ot Wernshausen
Penny,Goldbergstr. 54,99885, Ohrdruf
Penny,Goldbergstr. 54,99885, Ohrdruf
Penny,Reinhardsbrunner Str. 111,99867, Gotha
Penny,Reinhardsbrunner Str. 111,99867, Gotha
Penny,Clara-Zetkin-Str. 87,99867, Gotha/Siebleben
Penny,Clara-Zetkin-Str. 87,99867, Gotha/Siebleben
Penny,Stauffenbergallee 12a,99086, Erfurt
Penny,Stauffenbergallee 12a,99086, Erfurt
Penny,Im Feld 4,99834, Gerstungen
Penny,Im Feld 4,99834, Gerstungen
Penny,Bahnhofstr. 94,99955, Bad Tennstedt
Penny,Bahnhofstr. 94,99955, Bad Tennstedt
Penny,Johannistor 2,99625, Koelleda
Penny,Johannistor 2,99625, Koelleda
Penny,Marcel-Verfaillie-Allee 35/36,99974, Mühlhausen
Penny,Marcel-Verfaillie-Allee 35/36,99974, Mühlhausen
Penny,Bochumer Str. 22,99734, Nordhausen
Penny,Bochumer Str. 22,99734, Nordhausen
Penny,Walkenrieder Landstr. 8,99755, Ellrich
Penny,Walkenrieder Landstr. 8,99755, Ellrich
