Name,Street,Zip Code,Address
ALDI SÜD,Am Reitstück 1,36381, Schlüchtern
ALDI SÜD,Krautacker 3,36115, Hilders
ALDI SÜD,Fuldaer Str. 21,36119, Neuhof
ALDI SÜD,Fuldaer Str. 23,36124, Eichenzell
ALDI SÜD,In den Gründen 4,36093, Künzell
ALDI SÜD,Keltenstr. 20,36043, Fulda-Kohlhaus
ALDI SÜD,Alte Ziegelei 1,36100, Petersberg
ALDI SÜD,Am Emaillierwerk 1,36043, Fulda-Innenstadt
ALDI SÜD,Kothenbachweg 2-4,36041, Fulda
ALDI SÜD,Leipziger Str. 126 a,36037, Fulda
ALDI SÜD,Gartau 14,36039, Fulda-Horas-Frauenberg
ALDI SÜD,Am Sportplatz 1,36367, Wartenberg
ALDI SÜD,An der Gall 1,36341, Lauterbach
ALDI SÜD,Philipp-Reis-Str. 18,35321, Laubach
ALDI SÜD,Am Keltenhof 1,35510, Butzbach
ALDI SÜD,Carl-Benz-Ring 2,35423, Lich
ALDI SÜD,Londorfer Str. 47,35305, Grünberg
ALDI SÜD,Am Lindenbaum 6,35428, Langgöns
ALDI SÜD,Neue Mitte 1,35415, Pohlheim
ALDI SÜD,Siemensstr. 4-6,35447, Reiskirchen
ALDI SÜD,Beuerner Weg 23,35418, Buseck
ALDI SÜD,Carl-Benz-Str. 1,35440, Linden
ALDI SÜD,Schiffenberger Weg 106,35394, Gießen
ALDI SÜD,Budenweisgraben 4,35625, Hüttenberg
ALDI SÜD,Oberlachweg 7,35394, Gießen-Wieseck
ALDI SÜD,Bahnhofstr. 66,35390, Gießen
ALDI SÜD,Wellergasse 31,35582, Wetzlar-Dutenhofen
ALDI SÜD,Weilstr. 96,35789, Weilmünster
ALDI SÜD,Krofdorfer Str. 89,35398, Gießen
ALDI SÜD,Elsa-Brandström-Str. 1,35578, Wetzlar
ALDI SÜD,Rothweg 4,35457, Lollar
ALDI SÜD,Auweg 6,35457, Lollar
ALDI SÜD,Auf dem langen Furt 9-11,35452, Heuchelheim
ALDI SÜD,Westendstr. 4 a,35578, Wetzlar
ALDI SÜD,Altenberger Str. 34,35576, Wetzlar
ALDI SÜD,Naunheimer Str. 36a,35576, Wetzlar
ALDI SÜD,Solmser Gewerbepark 2,35606, Solms-Burgsolms
ALDI SÜD,Walbergraben 6,35614, Aßlar
ALDI SÜD,Viehweg 12,35781, Weilburg-Kubach
ALDI SÜD,In der Au 6,35764, Sinn
ALDI SÜD,Bonner Str. 2c,51379, Leverkusen-Opladen
ALDI SÜD,Am Wallgraben 2,42799, Leichlingen
ALDI SÜD,Ohligser Str. 16,40764, Langenfeld (Rheinland)-Wiescheid
ALDI SÜD,Hardt 5,40764, Langenfeld-Immigrath
ALDI SÜD,Hauptstr. 32,40764, Langenfeld-Immigrath
ALDI SÜD,Galerieplatz 1,40764, Langenfeld
ALDI SÜD,Am Wald 23,40789, Monheim
ALDI SÜD,Immigrather Str. 10,40764, Langenfeld-Richrath
ALDI SÜD,Rathausplatz 10,40789, Monheim
ALDI SÜD,Benzstr. 15,40789, Monheim-Baumberg
ALDI SÜD,Ahrweg 1,41540, Dormagen-Hackenbroich
ALDI SÜD,Walder Str. 285,40724, Hilden
ALDI SÜD,Carlo-Schmid-Str. 2,40595, Düsseldorf
ALDI SÜD,Geschwister-Scholl-Str. 69c,40789, Monheim-Baumberg
ALDI SÜD,Richrather Str. 126,40723, Hilden
ALDI SÜD,Kölner Str. 96,41539, Dormagen
ALDI SÜD,Am Kronengarten 6,40721, Hilden
ALDI SÜD,Kurt-Schumacher-Str. 1,40595, Düsseldorf-Garath
ALDI SÜD,Mathias-Giesen-Str. 20,41540, Dormagen-Horrem
ALDI SÜD,Gerresheimer Str. 95,40721, Hilden
ALDI SÜD,Beckhauser Str. 16,40699, Erkrath-Hochdahl
ALDI SÜD,Paulsmühlenstr. 20,40597, Düsseldorf-Benrath
ALDI SÜD,Bahnstr. 44-46,41569, Rommerskirchen
ALDI SÜD,Niermannsweg 7,40699, Erkrath-Unterfeldhaus
ALDI SÜD,Nürnberger Str. 37,40599, Düsseldorf-Reisholz
ALDI SÜD,An der Sausweide 1,41542, Dormagen
ALDI SÜD,Reisholzer Bahnstr. 29,40599, Düsseldorf-Reisholz
ALDI SÜD,Schlüterstr. 10a,40699, Erkrath
ALDI SÜD,Kölner Landstr. 437-441,40589, Düsseldorf-Holthausen
ALDI SÜD,Ickerswarder Str. 172,40589, Düsseldorf-Himmelgeist
ALDI SÜD,Vennhauser Allee 248,40627, Düsseldorf-Vennhausen
ALDI SÜD,Kölner Landstr. 203-213,40591, Düsseldorf-Wersten
ALDI SÜD,Am Alten Bach 16c,41470, Neuss
ALDI SÜD,Kündgensweg 2,40231, Düsseldorf-Lierenfeld
ALDI SÜD,Harffstr. 24,40591, Düsseldorf-Oberbilk
ALDI SÜD,Kölner Tor 12-14,40625, Düsseldorf-Gerresheim
ALDI SÜD,Ruhrstr. 40,41469, Neuss
ALDI SÜD,Oberbilker Allee 237,40227, Düsseldorf-Oberbilk
ALDI SÜD,Erkrather Str. 248,40233, Düsseldorf
ALDI SÜD,Am Weinhaus 15,40882, Ratingen-Homberg
ALDI SÜD,Gaußstr. 24,40235, Düsseldorf
ALDI SÜD,Aachener Str. 126,40223, Düsseldorf-Bilk
ALDI SÜD,Aachener Str. 70A,40223, Düsseldorf-Bilk
ALDI SÜD,Krahe Str. 1,40233, Düsseldorf
ALDI SÜD,Friedrichstr. 129-133,40217, Düsseldorf-Unterbilk
ALDI SÜD,Zur Wassermühle 4,41517, Grevenbroich
ALDI SÜD,Lindenstr. 57,41515, Grevenbroich
ALDI SÜD,Fleher Str. 40,40223, Düsseldorf
ALDI SÜD,Marktplatz 9,41516, Grevenbroich-Wevelinghoven
ALDI SÜD,Königsallee 106,40215, Düsseldorf-Friedrichstadt
ALDI SÜD,Schadowstr. 93,40212, Düsseldorf-Stadtmitte
ALDI SÜD,Gustaf-Gründgens-Platz 9b,40211, Düsseldorf-Stadtmitte
ALDI SÜD,Ahnfeldstr. 2-10,40239, Düsseldorf
ALDI SÜD,Flinger Str. 23-25,40213, Düsseldorf-Altstadt
ALDI SÜD,Deutsch-Ritter-Allee 50,41515, Grevenbroich-Neu-Elfgen
ALDI SÜD,Duisburger Str. 24,40477, Düsseldorf-Pempelfort
ALDI SÜD,Münsterstr. 62,40476, Düsseldorf-Derendorf
ALDI SÜD,Vogelsanger Weg 33,40470, Düsseldorf
ALDI SÜD,Maximilianstr. 4,41472, Neuss
ALDI SÜD,Bochumer Str. 41,40472, Düsseldorf-Rath-Rath
ALDI SÜD,Breslauer Str. 2-4,41460, Neuss
ALDI SÜD,Düsseldorfer Str. 29,41515, Grevenbroich-Orken
ALDI SÜD,Heiligenhauser Str. 6,40883, Ratingen-Hösel
ALDI SÜD,Calor-Emag-Str. 83,40878, Ratingen
ALDI SÜD,Calor-Emag-Str. 8,40878, Ratingen
ALDI SÜD,Holzheimer Weg 44,41464, Neuss-Pomona
ALDI SÜD,Oberstr. 93,41460, Neuss-Innenstadt
ALDI SÜD,Hansa-Allee 10-12,40547, Düsseldorf-Oberkassel
ALDI SÜD,An der Piwipp 86,40468, Düsseldorf
ALDI SÜD,Jenaer Str. 15,40880, Ratingen-West
ALDI SÜD,Wolberostr. 9,41462, Neuss
ALDI SÜD,Kaiserswerther Str. 409,40474, Düsseldorf-Stockum
ALDI SÜD,Heerdter Landstr. 115,40549, Düsseldorf-Heerdt
ALDI SÜD,Kieshecker Weg 100,40468, Düsseldorf-Lichtenbroich
ALDI SÜD,Normannenstr. 6,41462, Neuss
ALDI SÜD,Kölner Str. 26a,41363, Jüchen
ALDI SÜD,Hessenweg 23,40667, Meerbusch
ALDI SÜD,Niederrheinstr. 158-166,40474, Düsseldorf-Lohausen
ALDI SÜD,Rehhecke 78,40885, Ratingen-Lintorf
ALDI SÜD,Königsberger Str. 7,41564, Kaarst
ALDI SÜD,Angermunder Str. 37k,40489, Düsseldorf-Angermund
ALDI SÜD,Humboldtring 5 (RRZ),45472, Mülheim an der Ruhr
ALDI SÜD,Zum Regiopark 26,41363, Jüchen-Hochneukirch
ALDI SÜD,Werdener Weg 29,45470, Mülheim an der Ruhr
ALDI SÜD,Wiescher Weg 76-80,45472, Mülheim an der Ruhr
ALDI SÜD,Ludwig-Erhard-Str. 1,41564, Kaarst
ALDI SÜD,Essener Str. 46/48,45470, Mülheim an der Ruhr
ALDI SÜD,Püllenweg 12,41352, Korschenbroich-Kleinenbroich
ALDI SÜD,Düsseldorfer Str. 190,45481, Mülheim-Saarn
ALDI SÜD,Hans-Böckler-Platz 1-31,45468, Mülheim an der Ruhr
ALDI SÜD,Uhlandstr. 8,45468, Mülheim an der Ruhr
ALDI SÜD,Konstantinstr. 30,41238, Mönchengladbach
ALDI SÜD,Gottlieb-Daimler-Str. 1,40670, Meerbusch
ALDI SÜD,Stapper Weg 10,41199, Mönchengladbach
ALDI SÜD,Großenbaumer Allee 99-107,47269, Duisburg-Großenbaum
ALDI SÜD,Matthias-Hoerenplatz 1-7,41352, Korschenbroich
ALDI SÜD,Katzemer Str. 2 d,41812, Erkelenz
ALDI SÜD,Odenkirchener Str. 300,41236, Mönchengladbach
ALDI SÜD,Beckrather Str. 65,41189, Mönchengladbach-Wickrath
ALDI SÜD,Hansastr. 22,45478, Mülheim-Speldorf
ALDI SÜD,Hauptstr. 278,41236, Mönchengladbach-Rheydt
ALDI SÜD,Mannesmannallee 32-34,45475, Mülheim a. d. Ruhr-Dümpten
ALDI SÜD,Markt 10,41236, Mönchengladbach
ALDI SÜD,Mündelheimer Str. 173,47259, Duisburg
ALDI SÜD,Mittelstr. 5,41236, Mönchengladbach-Rheydt-West
ALDI SÜD,Beim Knevelshof 25-27,47249, Duisburg-Wanheim
ALDI SÜD,Heidestr. 15,45476, Mülheim
ALDI SÜD,Hofstr. 126,41065, Mönchengladbach
ALDI SÜD,Adam-Opel-Str. 20,41812, Erkelenz
ALDI SÜD,Gungstr. 1,46240, Bottrop-Boy
ALDI SÜD,Mellinghofer Str. 63,46047, Oberhausen-Neue Mitte
ALDI SÜD,Mülheimer Str. 256/Rolandstr. 25,46045, Oberhausen
ALDI SÜD,Am Südring-Center 3,46242, Bottrop
ALDI SÜD,Langebendstr. 2,47877, Willich-Schiefbahn
ALDI SÜD,Sternbuschweg 61,47057, Duisburg-Neudorf-Nord
ALDI SÜD,Kulturstr. 37,47055, Duisburg-Wanheimerort
ALDI SÜD,Krefelder Str. 70,41061, Mönchengladbach
ALDI SÜD,Krefelder Str. 70,41063, Mönchengladbach
ALDI SÜD,Kommandantenstr. 19,47057, Duisburg
ALDI SÜD,Tonderner Str. 33,41066, Mönchengladbach
ALDI SÜD,Bebelstr. 246,46049, Oberhausen
ALDI SÜD,Gladbacher Str. 19,41844, Wegberg
ALDI SÜD,Gladbacher Str. 25-27,41844, Wegberg
ALDI SÜD,Am Minto 3,41061, Mönchengladbach
ALDI SÜD,Geusenstr. 20,41179, Mönchengladbach
ALDI SÜD,Horster Str. 54,46236, Bottrop-Stadtmitte
ALDI SÜD,Bröseweg 36,41063, Mönchengladbach-Eicken
ALDI SÜD,Stahlwerk-Becker-Str. 15,47877, Willich
ALDI SÜD,Kölner Str. 456-458,47807, Krefeld
ALDI SÜD,Hafelsstr. 249,47809, Krefeld-Oppum
ALDI SÜD,Bruchfeld 2,47809, Krefeld-Linn
ALDI SÜD,Concordiastr. 32,46049, Oberhausen
ALDI SÜD,Wörthstr. 130,47053, Duisburg-Hochfeld
ALDI SÜD,Kruppstr. 51,47229, Duisburg-Rheinhausen
ALDI SÜD,Bottroper Str. 100,46117, Oberhausen-Osterfeld
ALDI SÜD,Aakerfährstr. 50,47058, Duisburg-Duissern
ALDI SÜD,Königstr. 48,47051, Duisburg-Altstadt
ALDI SÜD,Helmut-Grashoff-Str. 2,41179, Mönchengladbach-Holt
ALDI SÜD,Duisburger Str. 531/535,46049, Oberhausen
ALDI SÜD,Lange Str. 65,47829, Krefeld-Uerdingen
ALDI SÜD,Monschauer Str. 42,41068, Mönchengladbach-Waldhausen
ALDI SÜD,Parkhofstr. 51,41836, Hückelhoven
ALDI SÜD,Gladbecker Str. 260-262,46240, Bottrop-Eigen
ALDI SÜD,Schönwasserstr. 8-10,47809, Krefeld-Bockum
ALDI SÜD,Lindenallee 50-50b,47226, Duisburg-Rheinhausen
ALDI SÜD,Neue Ritterstr. 33,47805, Krefeld
ALDI SÜD,Auf der Höhe 99,47059, Duisburg-Kaßlerfeld
ALDI SÜD,Kochstr. 46,47805, Krefeld
ALDI SÜD,Homberger Str. 21-25b,47228, Duisburg-Hochemmerich
ALDI SÜD,Varziner Str. 8,47138, Duisburg-Obermeiderich
ALDI SÜD,Saumstr. 5-8,47805, Krefeld
ALDI SÜD,Flutweg 125,47228, Duisburg-Bergheim
ALDI SÜD,"Bahnhofstr. 80,82,84",46145, Oberhausen
ALDI SÜD,Rathausallee 25,47239, Duisburg Rumeln-Kaldenhsn.
ALDI SÜD,Nauenweg 74,47804, Krefeld
ALDI SÜD,Dorstener Str. 531,46119, Oberhausen-Klosterhardt
ALDI SÜD,Auf dem Damm 84,47137, Duisburg-Mittelmeiderich
ALDI SÜD,Gahlingspfad 1,47803, Krefeld-Cracau
ALDI SÜD,Lehrer Str. 75,47167, Duisburg-Neumühl
ALDI SÜD,Am Bahnhof 9,41844, Wegberg
ALDI SÜD,Kirchhellener Str. 140,46145, Oberhausen-Königshardt
ALDI SÜD,Weierstr. 72,46149, Oberhausen-Sterkrade
ALDI SÜD,Friedrich-Ebert-Str. 36,47119, Duisburg-Laar
ALDI SÜD,Moerser Str. 2a,47198, Duisburg-Homberg
ALDI SÜD,Luchsstr. 1,46149, Oberhausen-Alsfeld
ALDI SÜD,Freiheitsstr. 256,41747, Viersen-Innenstadt
ALDI SÜD,Düsseldorfer Str. 332-338,47447, Moers-Schwafheim
ALDI SÜD,Mühlenstr. 135,47918, Tönisvorst
ALDI SÜD,Schlachthofstr. 36,47167, Duisburg-Obermarxloh
ALDI SÜD,Jakob-Krebs-Str. 122,47877, Willich
ALDI SÜD,Kleinewefersstr. 50,47803, Krefeld
ALDI SÜD,Duisburger Str. 232,47166, Duisburg-Hamborn
ALDI SÜD,Moerser Str. 225,47198, Duisburg-Hochheide
ALDI SÜD,Tomper Weg 75,41169, Mönchengladbach
ALDI SÜD,August-Bebel-Platz 20,47169, Duisburg-Marxloh-Marxloh
ALDI SÜD,Höhenhöfe 33,47918, Tönisvorst
ALDI SÜD,Siegesstr. 142,46147, Oberhausen-Holten
ALDI SÜD,Hauptstr. 66,46244, Bottrop-Kirchhellen
ALDI SÜD,Tenterstr. 6,46147, Oberhausen-Schmachtendorf
ALDI SÜD,Franz-Haniel-Str. 90,47443, Moers
ALDI SÜD,Weilerstr. 61-65,41849, Wassenberg
ALDI SÜD,Süchtelner Str. 179,41747, Viersen-Rahser
ALDI SÜD,Bahnhofstr. 17,47447, Moers
ALDI SÜD,Uerdinger Str. 67,47441, Moers
ALDI SÜD,Viersener Str. 103,41751, Viersen
ALDI SÜD,Josef-Heinrichs-Str. 25,47839, Krefeld
ALDI SÜD,Baustr. 27,47441, Moers
ALDI SÜD,Friedrich-Ebert-Str. 243,47179, Duisburg-Walsum
ALDI SÜD,Dieselstr. 1,46539, Dinslaken-Hiesfeld
ALDI SÜD,Industriestr. 3,41366, Schwalmtal
ALDI SÜD,Grefrather Str. 69,41749, Viersen-Vorst
ALDI SÜD,Orsoyer Allee 1b,47445, Moers
ALDI SÜD,Franz-Lenze-Platz 46 a,47178, Duisburg
ALDI SÜD,Andreas-Bräm-Str. 47,47506, Neukirchen-Vluyn
ALDI SÜD,Hans-Böckler-Str. 19,46535, Dinslaken
ALDI SÜD,Drennesweg 3,47445, Moers
ALDI SÜD,Am Dreßlerhof 1,47506, Neukirchen-Vluyn
ALDI SÜD,Bahnstr. 6,47906, Kempen
ALDI SÜD,Hessenring 25,47906, Kempen
ALDI SÜD,Augustastr. 199,46537, Dinslaken
ALDI SÜD,Gewerbering 25,41372, Niederkrüchten
ALDI SÜD,Am Weidenbusch 2,47929, Grefrath
ALDI SÜD,Süchtelner Str. 40,41334, Nettetal
ALDI SÜD,Marellenkämpe 6,46514, Schermbeck
ALDI SÜD,Borner Str. 56,41379, Brüggen
ALDI SÜD,Josefstr. 71,41334, Nettetal
ALDI SÜD,Rosental 32,41334, Nettetal
ALDI SÜD,Bahnhofstr. 145a,46562, Voerde
ALDI SÜD,Bürgermeister-Schmelzing-Str. 93-101,47475, Kamp-Lintfort
ALDI SÜD,Oststr. 5a,47475, Kamp-Lintfort-Niersenbruch
ALDI SÜD,Junkers Feld 1,46569, Hünxe
ALDI SÜD,Xantener Str. 77,47495, Rheinberg
ALDI SÜD,Auf dem Bock 24,47669, Wachtendonk
ALDI SÜD,Kurierweg 28,46562, Voerde-Friedrichsfeld
ALDI SÜD,Rheurdter Str. 74,47661, Issum
ALDI SÜD,Poststr. 50-56,41334, Nettetal
ALDI SÜD,Industriestr. 5a,47647, Kerken
ALDI SÜD,Rathausstr. 15,46519, Alpen
ALDI SÜD,Schermbecker Landstr. 11,46485, Wesel
ALDI SÜD,Esplanade 18,46483, Wesel
ALDI SÜD,von Galenstr. 1,47638, Straelen
ALDI SÜD,Reeser Landstr. 87,46483, Wesel-Feldmark
ALDI SÜD,Am Ölberg 31-33,47608, Geldern
ALDI SÜD,Weseler Str. 1,46509, Xanten
ALDI SÜD,Harttor 51,47608, Geldern
ALDI SÜD,Leipziger Str. 6,47665, Sonsbeck
ALDI SÜD,Güterstr. 45,46499, Hamminkeln-Ringenberg
ALDI SÜD,Sonsbecker Str. 21,46509, Xanten
ALDI SÜD,Lindenstr. 9,46414, Rhede
ALDI SÜD,Walbecker Str. 146,47623, Kevelaer
ALDI SÜD,Weezer Str. 84,47623, Kevelaer
ALDI SÜD,Friesenstr. 19,46395, Bocholt
ALDI SÜD,Münsterstr. 7,46397, Bocholt
ALDI SÜD,Werther Str. 235,46395, Bocholt-Lowick
ALDI SÜD,Proppertweg 9,46399, Bocholt-Holtwick
ALDI SÜD,Industriestr. 38,47652, Weeze
ALDI SÜD,Weezer Str. 25,47589, Uedem
ALDI SÜD,Bahnhofstr. 71-73,47589, Uedem
ALDI SÜD,Vor dem Delltor 13,46459, Rees
ALDI SÜD,Werther Str. 13,46419, Isselburg
ALDI SÜD,Xantener Str. 15,47546, Kalkar
ALDI SÜD,Weezer Str. 15a,47574, Goch
ALDI SÜD,Pfalzdorfer Str. 77a,47574, Goch
ALDI SÜD,Norbertstr. 2a,47551, Bedburg-Hau-Schneppenbaum
ALDI SÜD,Bahnhofstr. 12,46446, Emmerich
ALDI SÜD,Querallee 13,47533, Kleve
ALDI SÜD,Moritz-von-Nassau-Str. 1,46446, Emmerich-Borghees
ALDI SÜD,Hoffmannallee 31,47533, Kleve
ALDI SÜD,Emmericher Str. 237,47533, Kleve
ALDI SÜD,Großen Haag 7,47559, Kranenburg
ALDI SÜD,Wormser Str. 112,55276, Oppenheim
ALDI SÜD,Freyburger Allee 8,55283, Nierstein
ALDI SÜD,Karl-Heinz-Kipp-Str. 22,55232, Alzey
ALDI SÜD,Lange Ruthe 1,55294, Bodenheim
ALDI SÜD,Schafhäuser Str. 12,55232, Alzey
ALDI SÜD,Töngesstr. 38A,55129, Mainz-Ebersheim
ALDI SÜD,Jakob-Anstatt-Str. 13,55130, Mainz-Weisenau
ALDI SÜD,Marie-Curie-Ring 4-8,55291, Saulheim
ALDI SÜD,Johannes-Kepler-Str. 12,55129, Mainz-Hechtsheim
ALDI SÜD,Ober-Saulheimer-Str. 31,55286, Wörrstadt
ALDI SÜD,Am Giener 27,55268, Nieder-Olm
ALDI SÜD,Drechslerweg 1,55128, Mainz-Bretzenheim
ALDI SÜD,Essenheimer Str. 133,55128, Mainz-Bretzenheim
ALDI SÜD,Jägerpfad 1,55270, Ober-Olm
ALDI SÜD,Kaiser-Wilhelm-Ring 6,55118, Mainz-Neustadt
ALDI SÜD,Dr.-Martin-Luth.-King-W. 20,55122, Mainz
ALDI SÜD,Hattenbergstr. 6,55122, Mainz-Neustadt
ALDI SÜD,Bürgerm.-Alexander-Str. 9,55122, Mainz
ALDI SÜD,Rheinallee 203,55120, Mainz-Mombach
ALDI SÜD,Sertoriusring 100,55126, Mainz-Finthen
ALDI SÜD,In der Krummgewann 3,55597, Wöllstein
ALDI SÜD,Im Schäfersborn 1,55262, Ingelheim
ALDI SÜD,Konrad-Adenauer-Str. 14c,55218, Ingelheim
ALDI SÜD,Alzeyer Str. 135,55543, Bad Kreuznach
ALDI SÜD,Rheinstr. 56,55435, Gau-Algesheim
ALDI SÜD,Bruchwiese 19,55585, Altenbamberg
ALDI SÜD,Schwabenheimer Weg 50,55543, Bad Kreuznach
ALDI SÜD,Am Kieselberg 6a,55457, Gensingen
ALDI SÜD,In den Zehn Morgen 12,55559, Bretzenheim
ALDI SÜD,Am Wiesenberg 3,55593, Rüdesheim an der Nahe
ALDI SÜD,Hans-Franck-Str. 44,55590, Meisenheim
ALDI SÜD,Hauptstr. 3,55595, Roxheim
ALDI SÜD,Hitchinstr. 45a,55411, Bingen
ALDI SÜD,Am Welschberg 3,55596, Waldböckelheim
ALDI SÜD,Johannisplatz 1-3,55566, Bad Sobernheim
ALDI SÜD,Friedrichsheck 31,55442, Stromberg
ALDI SÜD,Kallenfelser Str. 34,55606, Kirn
ALDI SÜD,Michelswiese 1,55743, Idar-Oberstein
ALDI SÜD,Im Tuchscheren 15,55430, Oberwesel
ALDI SÜD,Webergasse 2,56355, Nastätten
ALDI SÜD,Vollmersbachstr. 71,55743, Idar-Oberstein
ALDI SÜD,Johann-Philipp-Reis-Str. 14a,55469, Simmern
ALDI SÜD,Maiwiese 26,55765, Birkenfeld
ALDI SÜD,An der Lehmgrube 1,56412, Görgeshausen
ALDI SÜD,Freiherr-von-Drais-Str. 3,55481, Kirchberg
ALDI SÜD,Bahnhofstr. 18,56377, Nassau
ALDI SÜD,Südstr. 8,56288, Kastellaun
ALDI SÜD,Bei den Roten Buchen,56154, Boppard
ALDI SÜD,Rhein-Mosel-Str. 97,56281, Emmelshausen
ALDI SÜD,Frankfurter Str. 49,56414, Wallmerod
ALDI SÜD,Nieverner Str. 13,56130, Bad Ems
ALDI SÜD,Am Bornpfad 17 a,56321, Rhens
ALDI SÜD,Industriestr. 10,56412, Heiligenroth
ALDI SÜD,Braubacher Str. 75,56112, Lahnstein
ALDI SÜD,Gewerbestr. 6-8,56477, Rennerod
ALDI SÜD,Günther-Koch-Str. 27,56457, Westerburg
ALDI SÜD,In der Bremerwiese 4,54497, Morbach
ALDI SÜD,Koblenzer Str. 19,56112, Lahnstein-Niederlahnstein
ALDI SÜD,Auf der Klaus 7,56422, Wirges
ALDI SÜD,Am Dörrenbach 6,54411, Hermeskeil
ALDI SÜD,Bahnhofstr. 50,56068, Koblenz-Mitte
ALDI SÜD,Haselstr. 26,56235, Ransbach-Baumbach
ALDI SÜD,Moselweißer Str. 115,56073, Koblenz
ALDI SÜD,Rheinauf 2,56179, Vallendar
ALDI SÜD,Schlachthofstr. 86-88,56073, Koblenz
ALDI SÜD,Rudolf-Diesel-Str. 29,56203, Höhr-Grenzhausen
ALDI SÜD,Am Bahnhof 11,56841, Traben-Trarbach
ALDI SÜD,Trierer Str. 116,56072, Koblenz
ALDI SÜD,An der Lehmkaute 1,56470, Bad Marienberg (Westerwald)
ALDI SÜD,Cusanusstr. 18,54470, Bernkastel-Kues
ALDI SÜD,Luisenstr. 21,56242, Selters
ALDI SÜD,Zur alten Schanze 8,56856, Zell-Barl
ALDI SÜD,Ernst-Abbe-Str. 19,56070, Koblenz
ALDI SÜD,Nassauische Str. 44-50,57299, Burbach
ALDI SÜD,Industriestr. 26,56218, Mülheim-Kärlich
ALDI SÜD,Brauereistr. 44,56170, Bendorf
ALDI SÜD,Weidenstr. 6,57290, Neunkirchen
ALDI SÜD,Markweg 1,56812, Cochem-Cond
ALDI SÜD,Königsberger Straße,56269, Dierdorf
ALDI SÜD,Kleeberger Weg 35,57627, Hachenburg
ALDI SÜD,Vor Geisenach 5,56751, Polch
ALDI SÜD,Allensteiner Str. 13,56566, Neuwied
ALDI SÜD,Stierweg,56575, Weißenthurm
ALDI SÜD,Schneiderstr. 11,57562, Herdorf
ALDI SÜD,Aubachstr. 77,56567, Neuwied-Torney
ALDI SÜD,Koblenzer Str. 62,56626, Andernach
ALDI SÜD,Büng 12,56567, Neuwied-Irlich
ALDI SÜD,Eiserfelder Str. 452,57080, Siegen-Eiserfeld
ALDI SÜD,Westerwaldstr. 97,56579, Rengsdorf
ALDI SÜD,Gottlieb-Daimler-Str. 10,54516, Wittlich
ALDI SÜD,Koblenzer Straße,56759, Kaisersesch
ALDI SÜD,Hausener Straße,56727, Mayen
ALDI SÜD,Bahnstr. 57,56743, Mendig
ALDI SÜD,Über dem Stellweg 5,56587, Oberhonnefeld-Gierend
ALDI SÜD,Römerstr. 59,54516, Wittlich
ALDI SÜD,Polcher Str. 81,56727, Mayen
ALDI SÜD,Wilhelmstr. 62,57518, Betzdorf
ALDI SÜD,Kohlenstr. 64,54296, Trier-Tarforst
ALDI SÜD,In den Schlimmfuhren 10,54338, Schweich
ALDI SÜD,Im Rußloch 1,57548, Kirchen
ALDI SÜD,Kölner Str. 30a,57610, Altenkirchen-Honneroth
ALDI SÜD,Zurmaiener Str. 174 a,54292, Trier
ALDI SÜD,Ehranger Str. 98,54293, Trier
ALDI SÜD,Wisportstr. 8,54295, Trier-Heiligkreuz
ALDI SÜD,Castelnauplatz 3,54294, Trier
ALDI SÜD,Paulinstr. 90-92,54292, Trier
ALDI SÜD,Am Leukbach 12,54439, Saarburg
ALDI SÜD,In der Au 1a,53547, Hausen
ALDI SÜD,Nagelstr. 25-27,54290, Trier
ALDI SÜD,Martha-Brach-Str. 4,54294, Trier
ALDI SÜD,Güterbahnhof 4,57537, Wissen
ALDI SÜD,Thalhauser Str. 1,57577, Hamm (Sieg)
ALDI SÜD,Konzerbrück 27 (B51),54329, Konz
ALDI SÜD,Sprudelstr. 10,53557, Bad Hönningen
ALDI SÜD,Weibeweg 3,57258, Freudenberg
ALDI SÜD,Kelberger Str. 37a,56766, Ulmen
ALDI SÜD,Gartenstr. 38-40,53498, Bad Breisig
ALDI SÜD,Zum Jägertal 1,53567, Asbach
ALDI SÜD,Zur Hoorwiss,51597, Morsbach
ALDI SÜD,Kapellenstr. 54,54662, Speicher
ALDI SÜD,Asbacher Str. 95,53545, Linz
ALDI SÜD,Hurster Str. 1,51570, Windeck
ALDI SÜD,Kripper Str. 10,53489, Sinzig
ALDI SÜD,Mehrener Str. 31-35,54550, Daun
ALDI SÜD,Wildberger Str. 79,51580, Reichshof
ALDI SÜD,Rottbitzer Str. 24,53604, Bad Honnef
ALDI SÜD,Am Hohen Weg 26,53572, Unkel
ALDI SÜD,Kaiserstr. 100,51545, Waldbröl
ALDI SÜD,Asbacher Str. 46-52,53783, Eitorf
ALDI SÜD,Raabeweg 5,51545, Waldbröl
ALDI SÜD,Heerstr. 46,53474, Bad Neuenahr-Ahrweiler
ALDI SÜD,Im Broel,53518, Adenau
ALDI SÜD,Am Markt 5,53773, Hennef-Uckerath
ALDI SÜD,Berck-sur-Mer-Str. 16,53604, Bad Honnef-Selhof
ALDI SÜD,Im Schwarzenstein 42,54666, Irrel
ALDI SÜD,Wilhelmstr. 38,53474, Bad Neuenahr - Ahrweiler
ALDI SÜD,Güterstr. 12,54634, Bitburg
ALDI SÜD,Aegidienberger Str. 2c,53639, Königswinter
ALDI SÜD,Limbourgs Hof 1,54634, Bitburg
ALDI SÜD,Brölstr. 21,53809, Ruppichteroth
ALDI SÜD,Königswinterer Str. 91,53639, Königswinter
ALDI SÜD,Am Offermannsberg 2,53639, Königswinter
ALDI SÜD,Konrad-Adenauer-Str. 129,53343, Wachtberg
ALDI SÜD,Schulstr. 8,51588, Nümbrecht
ALDI SÜD,Am Wachtbergring 9,53343, Wachtberg-Berkum
ALDI SÜD,Drachenburgstr. 3,53179, Bonn-Lannesdorf
ALDI SÜD,Seufertstr. 73,53179, Bonn
ALDI SÜD,Obere Siegstr. 80,53773, Hennef
ALDI SÜD,Sarresdorfer Str. 65,54568, Gerolstein
ALDI SÜD,Lindenstr. 4,53773, Hennef
ALDI SÜD,Im Mühlenbruch 3,53639, Königswinter-Niederdollendorf
ALDI SÜD,Bonner Str. 36,53173, Bonn
ALDI SÜD,Weiherplatz 1 - 8,51674, Wiehl
ALDI SÜD,Kennedyallee 106,53175, Bonn-Plittersdorf
ALDI SÜD,Im Bendel 3,53175, Bonn-Bad Godesberg
ALDI SÜD,Löhestr. 1,53773, Hennef
ALDI SÜD,Hauptstr. 85,53819, Neunkirchen-Seelscheid
ALDI SÜD,Heinz-Gottschalk-Str. 3,53340, Meckenheim-Merl
ALDI SÜD,Im Mittelfeld 7,53757, Sankt Augustin
ALDI SÜD,Wahnbachtalstr. 3,53804, Much
ALDI SÜD,Hauptstr. 57,53721, Siegburg-Kaldauen
ALDI SÜD,Dieringhauser Str. 85,51645, Gummersbach-Dieringhausen
ALDI SÜD,Bahnhofstr. 21,53340, Meckenheim
ALDI SÜD,Alte Heerstr. 64,53757, Sankt Augustin-Niederpleis
ALDI SÜD,Reichsstr. 1a,53125, Bonn
ALDI SÜD,Händelstr. 7,53721, Siegburg
ALDI SÜD,Fliederhain 2,53819, Neunkirchen-Seelscheid
ALDI SÜD,Maarstr. 3,53227, Bonn
ALDI SÜD,Hans-Böckler-Str. 3,53225, Bonn
ALDI SÜD,Einsteinstr. 14-16,53757, Sankt Augustin-Menden
ALDI SÜD,Hermannstr. 2,53225, Bonn
ALDI SÜD,Gartenstr. 102,53225, Bonn
ALDI SÜD,Industriestr. 39-41,53721, Siegburg
ALDI SÜD,Gummersbacher Str. 4,51766, Engelskirchen
ALDI SÜD,Luisenstr. 88a,53721, Siegburg
ALDI SÜD,Poststr. 23-27,53111, Bonn
ALDI SÜD,Meckenheimer Str. 11,53359, Rheinbach
ALDI SÜD,Auf dem Kirchbüchel 10,53127, Bonn
ALDI SÜD,Kölnstr. 102,53111, Bonn-Nordstadt
ALDI SÜD,Endenicher Str. 104,53115, Bonn-Weststadt
ALDI SÜD,Euskirchener Weg 10,53359, Rheinbach
ALDI SÜD,Erich-Hoffmann-Str. 12,53121, Bonn
ALDI SÜD,Siebengebirgsallee 107,53840, Troisdorf
ALDI SÜD,Am Burgweiher 73,53123, Bonn
ALDI SÜD,Mendener Str. 29,53840, Troisdorf
ALDI SÜD,Brühler Str. 10,53119, Bonn
ALDI SÜD,Walterscheid-Müller-Str. 11,53797, Lohmar
ALDI SÜD,Olpener Str. 21,51766, Engelskirchen
ALDI SÜD,Im Klostergarten 50,53347, Alfter
ALDI SÜD,Kölner Str. 69 - 81,53840, Troisdorf
ALDI SÜD,Vorgebirgsbahnweg 1,53121, Bonn-Dransdorf
ALDI SÜD,Im Zehntfeld 70,53844, Troisdorf-Rotter See
ALDI SÜD,Agnetendorfer Str. 6,53119, Bonn-Tannenbusch
ALDI SÜD,Wabecostr. 3,54673, Neuerburg
ALDI SÜD,Wiesenauel 1,51491, Overath
ALDI SÜD,Gottlieb-Daimler-Str. 10,53859, Niederkassel-Mondorf
ALDI SÜD,Auf dem Wehrt 13,54584, Jünkerath
ALDI SÜD,Roisdorfer Str. 3,53332, Bornheim
ALDI SÜD,Gerberweg 25,54595, Prüm
ALDI Süd,Am Mürel 7,53945, Blankenheim
ALDI SÜD,Hanns-Martin-Schleyer-Str. 5,51503, Rösrath
ALDI SÜD,Trierer Str. 20,53902, Bad Münstereifel
ALDI SÜD,Gewerbepark Odendorf 6,53913, Swisttal
ALDI SÜD,Schumacher Str. 2-10,53332, Bornheim
ALDI SÜD,Kölner Str. 45,53902, Bad Münstereifel
ALDI SÜD,Altenlinde 49a,51789, Lindlar
ALDI SÜD,Gebrüder-Reusch-Str. 2,51503, Rösrath
ALDI SÜD,Gebrüder-Reusch-Str. 6,51503, Rösrath
ALDI SÜD,Olper Str. 119,51491, Overath
ALDI SÜD,Am Hellenkreuz 5,53332, Bornheim
ALDI SÜD,Spicher Str. 1a,53859, Niederkassel
ALDI SÜD,Heidestr. 163 - 165,51147, Köln
ALDI SÜD,Dützhofer Str. 1,53913, Swisttal
ALDI SÜD,Nürburgstr. 24,53947, Nettersheim
ALDI SÜD,Metternicher Weg 1,53913, Swisttal
ALDI SÜD,Gierslinger Str. 3,53859, Niederkassel
ALDI SÜD,An der Vogelrute 28,53879, Euskirchen
ALDI SÜD,Stresemannstr. 3,53879, Euskirchen
ALDI SÜD,Kaiserstr. 95,51145, Köln-Porz
ALDI SÜD,Am Roten Boskoop 2,53332, Bornheim
ALDI SÜD,Georgstr. 22A,53879, Euskirchen
ALDI SÜD,Gotenstr. 10,50389, Wesseling
ALDI SÜD,Josefstr. 12,51143, Köln-Porz
ALDI SÜD,Neue Eiler Str. 41,51145, Köln-Porz-Eil-Eil
ALDI SÜD,Am Stockbrunnen 2,51429, Bergisch Gladbach
ALDI SÜD,Rather Mauspfad 9a,51107, Köln
ALDI SÜD,Radiumstr. 1,51688, Wipperfürth
ALDI SÜD,West Devon Str. 6,50389, Wesseling
ALDI SÜD,Frankenforster Str. 21-25,51427, Bergisch Gladbach
ALDI SÜD,Georges-Girard-Ring 1,53894, Mechernich
ALDI SÜD,Am Feldrain 38,50999, Köln
ALDI SÜD,Robert-Bosch-Str. 2,53919, Weilerswist
ALDI SÜD,Wipperfürther Str. 399,51515, Kürten
ALDI SÜD,Otto Hahn Str. 19,50997, Köln-Godorf
ALDI SÜD,Stollwerckstr. 6,51149, Köln-Westhoven
ALDI SÜD,Lise-Meitner-Str. 8,50321, Brühl
ALDI SÜD,Kürtener Str. 1,51465, Bergisch Gladbach
ALDI SÜD,Siemensring 8,53925, Kall
ALDI SÜD,Kölner Str. 125-127,53894, Mechernich
ALDI SÜD,Kölner Str. 371,51515, Kürten
ALDI SÜD,Hauptstr. 106,50996, Köln-Rodenkirchen
ALDI SÜD,Uhlstr. 100,50321, Brühl
ALDI SÜD,Hauptstr. 131,51465, Bergisch Gladbach-Hebborn
ALDI SÜD,Kradepohlsmühlenweg 8,51469, Bergisch Gladbach
ALDI SÜD,Olpener Str. 385-387,51109, Köln-Merheim
ALDI SÜD,Ostheimer Str. 135,51107, Köln
ALDI SÜD,Brühler Landstr. 401,50997, Köln-Meschenich
ALDI SÜD,Radiumstr. 22,51069, Köln
ALDI SÜD,Gremberger Str. 151,51105, Köln
ALDI SÜD,Bonnstr. 542,50354, Hürth-Fischenich
ALDI SÜD,Poller Kirchweg 76,51105, Köln-Poll
ALDI SÜD,Bergisch Gladbacher Str 634,51067, Köln-Holweide
ALDI SÜD,Kalker Hauptstr. 145,51103, Köln-Kalk
ALDI SÜD,Bonner Str. 207,50968, Köln-Bayenthal
ALDI SÜD,Steyler Str. 15,51067, Köln-Holweide
ALDI SÜD,Wipperfürther Str. 35,51103, Köln-Kalk
ALDI SÜD,Ackerstr. 92-94,51065, Köln-Buchheim
ALDI SÜD,Vorgebirgstr. 116,50969, Köln
ALDI SÜD,Severinstr. 33,50678, Köln
ALDI SÜD,Eschweiler Str. 1,50354, Hürth
ALDI SÜD,Köttinger Str. 2,50374, Erftstadt
ALDI SÜD,Neuer Weyerstraßerweg 3,50969, Köln-Zollstock
ALDI SÜD,An der Olef 46,53937, Schleiden
ALDI SÜD,Bonner Str. 36,53909, Zülpich
ALDI SÜD,Hardtstr. 2,53940, Hellenthal
ALDI SÜD,Leverkusener Str. 10,51467, Berg. Gladbach-Schildgen
ALDI SÜD,Clevischer Ring 94,51065, Köln-Mülheim
ALDI SÜD,Zunftstr. 9,50374, Erftstadt
ALDI SÜD,Rhöndorfer Str. 2,50939, Köln
ALDI SÜD,Luxemburger Str. 183-185,50939, Köln
ALDI SÜD,Sülzburgstr. 44-46,50937, Köln
ALDI SÜD,Theresienhöhe 4 Hürth Park L104,50354, Hürth
ALDI SÜD,Berliner Str. 915-917,51069, Köln
ALDI SÜD,Richmodstr. 31,50667, Köln-Altstadt-Nord
ALDI SÜD,Nettgesweg 1,50354, Hürth-Efferen
ALDI SÜD,Aachener Str. 76,50674, Köln
ALDI SÜD,Neusser Str. 108-112a,50670, Köln
ALDI SÜD,Dürener Str. 56-60,50931, Köln-Lindenthal
ALDI SÜD,Düsseldorfer Str. 336,51061, Köln-Stammheim
ALDI SÜD,Venloer Str. 41,50672, Köln
ALDI SÜD,Neusser Str. 216,50733, Köln
ALDI SÜD,Venloer Str. 181-185,50823, Köln-Ehrenfeld
ALDI SÜD,Dünweg 34-36,51399, Burscheid-Hilgen
ALDI SÜD,Am Klösterchen 1 - 6,51375, Leverkusen
ALDI SÜD,Boltensternstr. 337,50735, Köln-Niehl
ALDI SÜD,Osterather Str. 26,50739, Köln
ALDI SÜD,Niehler Kirchweg 67,50733, Köln-Nippes
ALDI SÜD,Grüner Weg 2,50825, Köln-Ehrenfeld
ALDI SÜD,Roggendorfstr. 76,51061, Köln-Flittard
ALDI SÜD,Ernst-Bloch-Str. 3,51377, Leverkusen
ALDI SÜD,Hauptstr. 128a,51399, Burscheid
ALDI SÜD,Max-Wallraf-Str. 6,50933, Köln
ALDI SÜD,Marienstr. 147-159,50825, Köln-Ehrenfeld
ALDI SÜD,Emmy-Noether-Str. 10,50858, Köln
ALDI SÜD,Syltstr. 12,51377, Leverkusen
ALDI SÜD,Bonnstr. 17,50226, Frechen
ALDI SÜD,Peschstr. 11,51373, Leverkusen-Wiesdorf
ALDI SÜD,Venloer Str. 760,50827, Köln-Bickendorf
ALDI SÜD,Gereonstr. 137,52391, Vettweiß
ALDI SÜD,Schlebuscher Str. 84,51381, Leverkusen-Quettingen
ALDI SÜD,Schlebuscher Str. 84,51831, Leverkusen
ALDI SÜD,Robert-Perthel-Str. 44-46,50739, Köln-Longerich
ALDI SÜD,Dürener Str. 58,50226, Frechen-Benzelrath
ALDI SÜD,Lützenkirchener Str. 111a,51381, Leverkusen-Quettingen-Quettingen
ALDI SÜD,Zedernweg 1,50226, Frechen
ALDI SÜD,Overfeldweg 7,51371, Leverkusen
ALDI SÜD,Kölner Str. 70,50859, Köln-Lövenich
ALDI SÜD,Wuppertalstr. 4,51381, Leverkusen-Bergisch Neukirchen
ALDI SÜD,Mathias-Brüggen-Str. 112,50829, Köln-Ossendorf
ALDI SÜD,Am Kreuzberg 13,52388, Nörvenich
ALDI SÜD,Unter Linden 280,50859, Köln-Widdersdorf
ALDI SÜD,Frechener Str. 20,50226, Frechen
ALDI SÜD,Thumer Linde 2,52385, Nideggen
ALDI SÜD,Toni-Welter-Str. 2,50765, Köln
ALDI SÜD,Im Gewerbegebiet Pesch 1,50767, Köln
ALDI SÜD,Salzburger Hof 2,50765, Köln-Chorweiler
ALDI SÜD,Aachener Str. 539,50226, Frechen-Buschbell
ALDI SÜD,Stiftsstr. 256,50171, Kerpen
ALDI SÜD,Hitdorfer Str. 79,51371, Leverkusen-Hitdorf
ALDI SÜD,Hauptstr. 343,50169, Kerpen
ALDI SÜD,Erfurter Str. 1,50259, Pulheim-Brauweiler
ALDI SÜD,Visteonstr. 3,50170, Kerpen
ALDI SÜD,Steinstr. 46-48,50259, Pulheim
ALDI SÜD,Feldstr. 18,52372, Kreuzau
ALDI SÜD,Fischbachstr. 31b,50127, Bergheim
ALDI SÜD,Berrischstr. 85,50769, Köln-Roggendorf/Thenhoven
ALDI SÜD,Zum Schlichshof 1,50170, Kerpen-Buir
ALDI SÜD,Matthias-Zimmermann-Str 11,52152, Simmerath
ALDI SÜD,Schmöttsgasse 6,52156, Monschau
ALDI SÜD,Gut Weyern 1,52349, Düren
ALDI SÜD,Gut Weyern 1,52355, Düren
ALDI SÜD,Neusser Landstr. 378,50769, Köln
ALDI SÜD,Euskirchener Str. 99,52351, Düren
ALDI SÜD,Kölner Landstr. 320,52351, Düren
ALDI SÜD,Am Merzpark 1,52399, Merzenich
ALDI SÜD,Venloer Str. 501,50259, Pulheim
ALDI SÜD,Monschauer Str. 77,52355, Düren
ALDI SÜD,Fritz-Erler-Str. 11,52349, Düren
ALDI SÜD,Kölner Str. 16,50126, Bergheim-Kenten
ALDI SÜD,Peter-Achnitz-Str. 4,50129, Bergheim
ALDI SÜD,Humboldtstr. 5,50126, Bergheim-Zieverich
ALDI SÜD,Nordstr. 39,52353, Düren
ALDI SÜD,Hinter den Gärten 2,50189, Elsdorf
ALDI SÜD,Rurbenden 2,52382, Niederzier
ALDI SÜD,Bundesstr. 38-40,52159, Roetgen
ALDI SÜD,Im Gewerbegebiet 8,52379, Langerwehe
ALDI SÜD,Wiesenstr. 21,50181, Bedburg-Lipp
ALDI Süd,Gressenicher Str. 111,52224, Stolberg / Mausbach
ALDI SÜD,Goltsteinstr. 64,52459, Inden
ALDI SÜD,Dürener Str. 282,52249, Eschweiler-Bergrath
ALDI SÜD,Rathausstr. 1,52222, Stolberg-Liester
ALDI SÜD,Mauerstr. 27,52223, Stolberg
ALDI SÜD,Florianweg 6,52249, Eschweiler
ALDI SÜD,Rudolf-Diesel-Str. 2,52428, Jülich
ALDI SÜD,Prattelsackstr. 30,52222, Stolberg
ALDI SÜD,Am Fließ 8,52249, Eschweiler
ALDI SÜD,Margaretenstr. 16,52428, Jülich
ALDI SÜD,Werkstr. 21,52076, Aachen-Oberforstbach
ALDI SÜD,Trierer Str. 688,52078, Aachen
ALDI SÜD,Neuenhofstr. 192,52078, Aachen-Eilendorf
ALDI SÜD,Heinrich-Gossen-Str. 1,52445, Titz
ALDI SÜD,Forster Str. 5,52080, Aachen
ALDI SÜD,Am Alten Bahnhof 5,52457, Aldenhoven
ALDI SÜD,Freunder Weg 23,52068, Aachen
ALDI SÜD,Elsassstr. 139,52068, Aachen
ALDI SÜD,Eschweiler Str. 2 d,52477, Alsdorf
ALDI SÜD,Am Alten Kaninsberg 5,52146, Würselen
ALDI SÜD,Grüner Weg 32,52070, Aachen
ALDI SÜD,Schillerstr. 20,52064, Aachen
ALDI SÜD,Lütticher Str. 504,52074, Aachen
ALDI SÜD,Franzstr. 2,52064, Aachen
ALDI SÜD,Weststr. 28,52074, Aachen
ALDI SÜD,Allensteiner Str. 17,52477, Alsdorf
ALDI SÜD,Süsterfeldstr. 63,52072, Aachen
ALDI SÜD,Bardenberger Str. 79,52146, Würselen-Bardenberg
ALDI SÜD,Im Gansbruch 2,52441, Linnich
ALDI SÜD,Hauptstr. 150,52499, Baesweiler-Setterich
ALDI SÜD,Rurstr. 46,52441, Linnich
ALDI SÜD,Im Kirchwinkel 5 g,52499, Baesweiler
ALDI SÜD,Roder Weg 4,52072, Aachen-Richterich
ALDI SÜD,Honigmannstr. 14,52134, Herzogenrath
ALDI SÜD,Am Boscheler Berg 8,52134, Herzogenrath
ALDI SÜD,Im Straßer Feld 1,52134, Herzogenrath
ALDI SÜD,Am Wasserturm 2,52531, Übach-Palenberg
ALDI SÜD,Von-Humboldt-Str. 126,52511, Geilenkirchen
ALDI SÜD,Boos-Fremery-Str. 90,52525, Heinsberg-Oberbruch
ALDI SÜD,Humboldtstr. 22,52525, Heinsberg
ALDI SÜD,Westpromenade 88,52525, Heinsberg
ALDI SÜD,Heinrich-Josef-Otten Str. 2,52538, Gangelt
ALDI SÜD,Hoengener Weg 1b,52538, Selfkant
ALDI SÜD,Raiffeisenstr. 4,52525, Waldfeucht
ALDI SÜD,In der Fummer 3,52538, Selfkant
ALDI SÜD,Neuer Weg - Nord 42,69412, Eberbach
ALDI SÜD,Bischoffstr. 60,63897, Miltenberg
ALDI SÜD,Wiesenbacher Landstr. 22,69245, Bammental
ALDI SÜD,Im Mittelgewann 7,63924, Kleinheubach
ALDI SÜD,Frankenäcker 6,69231, Rauenberg
ALDI SÜD,Neckarsteinacher Str. 25,69151, Neckargemünd
ALDI SÜD,Neues Sträßel 6,69168, Wiesloch
ALDI SÜD,Kleingemünder Str. 76-82,69118, Heidelberg-Ziegelhausen
ALDI SÜD,Bahnhofstr. 32,69190, Walldorf
ALDI SÜD,Im Schiff 9,68789, St. Leon-Rot
ALDI SÜD,Gottlieb-Daimler-Str. 9,69207, Sandhausen
ALDI SÜD,Stralsunder Ring 10,69181, Leimen
ALDI SÜD,Felix-Wankel-Str. 18,69126, Heidelberg
ALDI SÜD,Pleikartsförster Str. 13,69124, Heidelberg-Kirchheim
ALDI SÜD,Presentstr. 12,63939, Wörth am Main
ALDI SÜD,Carl-Benz-Str. 25,64711, Erbach
ALDI SÜD,Poststr. 11,69115, Heidelberg-Bergheim
ALDI SÜD,Marktstr. 5,64720, Michelstadt
ALDI SÜD,Seeweg 27 c,63906, Erlenbach
ALDI SÜD,Galileistr. 14,69115, Heidelberg
ALDI SÜD,Berliner Str. 49,69120, Heidelberg
ALDI SÜD,Am Bahndamm 8,69483, Wald-Michelbach
ALDI SÜD,Fritz-Frey-Str. 17,69121, Heidelberg-Handschuhsheim
ALDI SÜD,Mannheimer Str. 187,68753, Waghäusel-Wiesental
ALDI SÜD,Seestr. 71,69214, Eppelheim
ALDI SÜD,Lußheimer Str. 10,68766, Hockenheim
ALDI SÜD,Im Schuhmachergewann 8,69123, Heidelberg
ALDI SÜD,Bahnhofstr. 11 a,63820, Elsenfeld
ALDI SÜD,Frankfurter Str. 72,64732, Bad König
ALDI SÜD,Robert-Bosch-Str. 1a,69198, Schriesheim
ALDI SÜD,Im Weidig 12,63785, Obernburg
ALDI SÜD,Schubertstr. 17,68723, Schwetzingen
ALDI SÜD,Hockenheimer Landstr. 4/4,68723, Schwetzingen
ALDI SÜD,Hockenheimer Str. 112,68775, Ketsch
ALDI SÜD,Treidlerstr. 1,68535, Edingen-Neckarhausen-Edingen
ALDI SÜD,Hauptstr. 160,69488, Birkenau
ALDI SÜD,Groß-Breitenbach 4,69509, Mörlenbach
ALDI SÜD,Otto-Hahn-Str. 14,64739, Höchst im Odenwald
ALDI SÜD,Wallstadter Str. 51c,68526, Ladenburg
ALDI SÜD,Mannheimer Landstr. 5c,68782, Brühl
ALDI SÜD,Bergstr. 21,69469, Weinheim
ALDI SÜD,Industriestr. 1,64658, Fürth
ALDI SÜD,Bahnhofstr. 28,64385, Reichelsheim
ALDI SÜD,Bergstr. 97-99,69469, Weinheim
ALDI SÜD,Berliner Platz 1,69469, Weinheim
ALDI SÜD,Bahnhofstr. 84,63834, Sulzbach
ALDI SÜD,Tullastr. 53,67346, Speyer
ALDI SÜD,Iggelheimer Str. 18,67346, Speyer
ALDI SÜD,Am Beetacker 13,63856, Bessenbach-Keilberg
ALDI SÜD,Würzburger Str. 188A,63743, Aschaffenburg
ALDI SÜD,Seckenheimer Landstr. 238,68163, Mannheim-Neuostheim
ALDI SÜD,Gotenstr. 12-16,68259, Mannheim
ALDI SÜD,Heidelberger Str. 61,68519, Viernheim
ALDI SÜD,Berliner Str. 5,69502, Hemsbach
ALDI SÜD,Floßwörthstr. 49-55,68199, Mannheim-Neckarau
ALDI SÜD,Robert-Schuman-Str. 8,68519, Viernheim
ALDI SÜD,Spreewaldallee 44 - 50,68309, Mannheim
ALDI SÜD,Südbahnhofstr. 9,63739, Aschaffenburg
ALDI SÜD,Aschaffenburger Str. 37,63762, Großostheim
ALDI SÜD,Erlengrund 3,63773, Goldbach
ALDI SÜD,Neckarauer Str. 126 - 134,68163, Mannheim
ALDI SÜD,An den Gewerbewiesen 27,67374, Hanhofen
ALDI SÜD,Steubenstr. 44-46,68163, Mannheim
ALDI SÜD,Lange Str. 15,63741, Aschaffenburg-Damm
ALDI SÜD,Waldspitzweg 4,67105, Schifferstadt
ALDI SÜD,Friedrich-Ebert-Str. /Käfer 100,68167, Mannheim
ALDI SÜD,Taunusstr. 7,63811, Stockstadt
ALDI SÜD,"S 6, 29-33",68161, Mannheim
ALDI SÜD,Industriestr. 10,67141, Neuhofen
ALDI SÜD,Boveristr. 50,68309, Mannheim
ALDI SÜD,Hauptstr. 206,63814, Mainaschaff
ALDI SÜD,Habitzheimer Str. 5,64823, Groß-Umstadt
ALDI SÜD,"K 1, 2",68159, Mannheim
ALDI SÜD,"E 2, 16",68159, Mannheim
ALDI SÜD,In der Lahrbach 23,64646, Heppenheim
ALDI SÜD,Nibelungenstr. 349-351,64686, Lautertal
ALDI SÜD,Dieselstr. 1,64646, Heppenheim
ALDI SÜD,Otto-Stabel-Str. 3,67059, Ludwigshafen-Mitte
ALDI SÜD,Am Schaubacher Berg 20,64401, Groß-Bieberau
ALDI SÜD,In der Mörschgewanne 32,67065, Ludwigshafen
ALDI SÜD,Alte Frankfurter Str. 31,68305, Mannheim
ALDI SÜD,Untermühlaustr. 111,68169, Mannheim
ALDI Süd,Johann-Dahlem-Straße11,63814, Mainaschaff
ALDI SÜD,Maudacher Str. 135,67065, Ludwigshafen
ALDI SÜD,Darmstädter Str. 65,64354, Reinheim
ALDI SÜD,Industriestr. 17,63825, Schöllkrippen
ALDI SÜD,An der Fohlenweide 10,67112, Mutterstadt
ALDI SÜD,Industriestr. 13,67063, Ludwigshafen
ALDI SÜD,Wormser Str. 16,64625, Bensheim
ALDI SÜD,Eschenbachstr. 71,67063, Ludwigshafen
ALDI SÜD,Amselstr. 10,68307, Mannheim-Sandhofen
ALDI SÜD,In der Dieterswiese 2,64653, Lorsch
ALDI SÜD,Berliner Ring 159,64625, Bensheim-Auerbach
ALDI SÜD,Hinter der Altdörfer Kirche 36,64832, Babenhausen
ALDI SÜD,Otto-Hahn-Str. 19,68623, Lampertheim
ALDI SÜD,Riedstr. 1 A,67125, Dannstadt-Schauernheim
ALDI SÜD,Waldstr. 71,64846, Groß-Zimmern
ALDI SÜD,Hans-Böckler-Str. 20,67454, Haßloch
ALDI SÜD,Kurt-Schumacher-Str. 72,67069, Ludwigshafen-Oppau
ALDI SÜD,Moltkestr. 55-63,67454, Haßloch
ALDI SÜD,Frankfurter Str. 64,64807, Dieburg
ALDI SÜD,Gräfenbergweg 2,64372, Ober-Ramstadt
ALDI SÜD,Theodor-Claussen-Str. 10,64380, Roßdorf
ALDI SÜD,Neue Bergstr. 9,64665, Alsbach-Hähnlein-Sandwiese
ALDI SÜD,Industriegebiet Süd C 1,63755, Alzenau
ALDI SÜD,Friedrich-Ebert-Str. 55,64342, Seeheim-Jugenheim
ALDI SÜD,Daniel-Bechtel-Str. 1,67227, Frankenthal
ALDI SÜD,Rheinstr. 39,64367, Mühltal-Trautheim
ALDI SÜD,Am Weisenheimer Weg 3-5,67136, Fußgönheim
ALDI SÜD,Staatsstr. 1,67489, Kirrweiler
ALDI SÜD,Aschaffenburger Str. 86,63500, Seligenstadt
ALDI SÜD,Wormser Str. 99,67227, Frankenthal
ALDI SÜD,Stresemannstr. 2,64297, Darmstadt-Eberstadt
ALDI SÜD,Mainstr. 133,68642, Bürstadt
ALDI SÜD,Emmy-Noether-Str. 2,63755, Alzenau
ALDI SÜD,Eugenie-Abresch-Str. 2,67433, Neustadt an der Weinstraße
ALDI SÜD,Steinheimer Str. 66,63500, Seligenstadt
ALDI SÜD,Eberstädter Str. 111,64319, Pfungstadt
ALDI SÜD,Martin-Luther-Str. 58,67433, Neustadt an der Weinstraße
ALDI SÜD,Buochser Str. 2,67146, Deidesheim
ALDI SÜD,Südring 4,67240, Bobenheim-Roxheim
ALDI SÜD,Senefelder Str. 32,63322, Rödermark
ALDI SÜD,Borsigstr. 52,63110, Nieder-Roden
ALDI SÜD,Marie-Curie-Str. 2,63538, Großkrotzenburg
ALDI SÜD,Am Palmusacker 4,63628, Bad Soden-Salmünster
ALDI SÜD,Auf der Wehrweide 8,63579, Freigericht-Somborn
ALDI SÜD,Rüdesheimer Str. 123 D,64285, Darmstadt
ALDI SÜD,Kleinbahnweg 1,63589, Linsengericht-Altenhasslau
ALDI SÜD,Lützelhäuser Weg 2,63571, Gelnhausen
ALDI SÜD,Ludwigsplatz 6,64283, Darmstadt
ALDI SÜD,Eschollbrücker Str. 30,64295, Darmstadt
ALDI SÜD,Ober-Rodener Str. 24,63322, Rödermark
ALDI SÜD,Schönauer Str. 8,67547, Worms
ALDI SÜD,Main-Kinzig-Str. 35,63607, Wächtersbach
ALDI SÜD,Bensheimer Str. 2,64579, Gernsheim
ALDI SÜD,Hans-Sachs-Str. 7,63110, Rodgau-Hainhausen
ALDI SÜD,Am Wolfsgraben 60,67547, Worms
ALDI SÜD,Bad Nauheimer Str. 19-21,64289, Darmstadt
ALDI SÜD,Bruchstr. 1 c,67098, Mundhardterhof
ALDI SÜD,Petrus-Dorn-Str. 30,67547, Worms
ALDI SÜD,Philipp-Heck-Str. 2,63457, Hanau
ALDI SÜD,Otto-Röhm-Str. 79 a,64293, Darmstadt
ALDI SÜD,Grasweg 5,63584, Gründau
ALDI SÜD,Flughafenstr. 13,64347, Griesheim
ALDI SÜD,Schorlemmerstr. 45,64291, Darmstadt-Arheilgen
ALDI SÜD,Grashüpferweg 5,63457, Hanau
ALDI SÜD,Otto-Hahn-Str. 4,63128, Dietzenbach
ALDI SÜD,Hauptstr. 31,67466, Lambrecht
ALDI SÜD,Kinzigstr. 13 a,63505, Langenselbold
ALDI SÜD,Rudolf-Diesel-Str. 26,64331, Weiterstadt
ALDI SÜD,Feldstr. 33-35,63179, Obertshausen
ALDI SÜD,Röderseestr. 1,63457, Hanau
ALDI SÜD,Nordring 21,64347, Griesheim
ALDI SÜD,Kurt-Schumacher-Ring 13,63329, Egelsbach
ALDI SÜD,Werner-von-Siemens-Str. 15-19,63150, Heusenstamm
ALDI SÜD,Otto-Hahn-Str. 18,63456, Hanau
ALDI SÜD,In der Hochgewann 3,67575, Eich
ALDI SÜD,Südliche Ringstr. 18-26,64390, Erzhausen
ALDI SÜD,Wonnegaustr. 5,67574, Osthofen
ALDI SÜD,Auf dem Hessel 16,63526, Erlensee-Langendiebach
ALDI SÜD,Am Steinheimer Tor 7,63450, Hanau
ALDI SÜD,Daimler Str. 20,67269, Grünstadt
ALDI SÜD,Industriestr. 7,63303, Dreieich
ALDI SÜD,An der Winkelwiese 1,63225, Langen
ALDI SÜD,Carl-Zeiss-Str. 5,67269, Grünstadt
ALDI SÜD,Lise-Meitner-Str. 4,64560, Riedstadt-Wolfskehlen
ALDI SÜD,Heldenbergener Str. 1,63452, Hanau
ALDI SÜD,Liebigstr. 9,63225, Langen
ALDI SÜD,Weinstr. 2,67269, Grünstadt
ALDI SÜD,Ernst-Abbe-Str. 3-5,63165, Mühlheim
ALDI SÜD,Ampèrestr. 19,63225, Langen
ALDI SÜD,Marie-Curie-Ring 6,63477, Maintal
ALDI SÜD,Benzstr. 56,63303, Dreieich
ALDI SÜD,Industriestr. 29 A,63654, Büdingen
ALDI SÜD,Robert-Bosch-Str. 9,67590, Monsheim
ALDI SÜD,Hartmannstr. 18,63071, Offenbach
ALDI SÜD,Rathenaustr. 11+13,63263, Neu-Isenburg
ALDI SÜD,Römerstr. 3 - 9,63486, Bruchköbel
ALDI SÜD,Kettelerstr. 98,63075, Offenbach
ALDI SÜD,Helvetiastr. 5,64521, Groß-Gerau
ALDI SÜD,Sprendlinger Landstr. 179,63069, Offenbach-Lauterborn
ALDI SÜD,Opelstr. 8,64546, Mörfelden-Walldorf
ALDI SÜD,Industriestr. 10,66994, Dahn
ALDI SÜD,Geleitsstr. 6,63065, Offenbach am Main
ALDI SÜD,An der Reichenbach 2E,66994, Dahn
ALDI SÜD,Kurzer Flurweg 1,67583, Guntersblum
ALDI SÜD,Wechmarer Ring 21-27,63546, Hammersbach
ALDI SÜD,Ferdinand-Porsche-Str. 53,60386, Frankfurt-Fechenheim
ALDI SÜD,Am Gielbrunnen 2,67304, Eisenberg
ALDI SÜD,Schillerstr. 7 a,63477, Maintal
ALDI SÜD,Okrifteler Str. 16,64546, Mörfelden-Walldorf
ALDI SÜD,Hanauer Landstr. 285,60314, Frankfurt-Ostend
ALDI SÜD,Hainer Weg 76,60599, Frankfurt am Main
ALDI SÜD,Ziegelhüttenweg 37,60598, Frankfurt
ALDI SÜD,Darmstädter Landstr. 10,60594, Frankfurt-Sachsenhausen
ALDI SÜD,Oskar-von-Miller-Str. 5,60314, Frankfurt-Ostend
ALDI SÜD,Victor-Slotosch-Str. 16,60388, Bergen-Enkheim
ALDI SÜD,Mainzer Landstr. 18,64569, Nauheim
ALDI SÜD,Uferstr. 14-16,61137, Schöneck
ALDI SÜD,Berger Str. 159,60385, Frankfurt-Bornheim
ALDI SÜD,Töngesgasse 40,60311, Frankfurt-Altstadt
ALDI SÜD,Große Friedberger Str. 23-27,60313, Frankfurt-Innenstadt
ALDI SÜD,Hahnstr. 37 - 41,60528, Frankfurt am Main
ALDI SÜD,Seckbacher Landstr. 76,60385, Frankfurt am Main-Bornheim
ALDI SÜD,Altenstädter Str. 58,63674, Altenstadt
ALDI SÜD,Glauburgstr. 49,60318, Frankfurt-Nordend
ALDI SÜD,Jimbolia Str. 1,65468, Trebur
ALDI SÜD,Friedberger Landstr. 295,60389, Frankfurt
ALDI SÜD,Siemensstr. 3 - 7,61130, Nidderau
ALDI SÜD,Mainzer Landstr. 336,60326, Frankfurt am Main-Gallus
ALDI SÜD,Schmidtstr. 12,60326, Frankfurt-Gallus
ALDI SÜD,Am Alten Bahnhof 10,63688, Gedern
ALDI SÜD,Juliusstr. 5,60487, Frankfurt-Bockenheim
ALDI SÜD,Stahlstr. 9,65428, Rüsselsheim
ALDI SÜD,Raimundstr. 101,60320, Frankfurt-Ginnheim-Dornbusch
ALDI SÜD,Homburger Str. 74,61118, Bad Vilbel
ALDI SÜD,Homburger Landstr. 268,60433, Frankfurt-Preungesheim
ALDI SÜD,Nürburgstr. 5,60529, Frankfurt-Schwanheim
ALDI SÜD,Lärchenstr. 141 a,65933, Frankfurt
ALDI SÜD,Am-Graf-de-Chardonnet-Pl. 3,65451, Kelsterbach
ALDI SÜD,Rosenhofstr. 1A,67677, Enkenbach-Alsenborn
ALDI SÜD,Große Nelkenstr. 39,60488, Frankfurt-Hausen
ALDI SÜD,Westerbachstr. 49,60489, Frankfurt-Rödelheim
ALDI SÜD,Rugbyring 87,65428, Rüsselsheim
ALDI SÜD,Flörsheimer Str. 2,65479, Raunheim
ALDI SÜD,Kurmainzer Str. 4,65929, Frankfurt
ALDI SÜD,NordWestZentrum Limescorso 8,60439, Frankfurt-Heddernheim
ALDI SÜD,Bahnhofstr. 194,61184, Karben
ALDI SÜD,Olof-Palme-Str. 7,60439, Frankfurt-Heddernheim
ALDI SÜD,Woogmorgen 14,67292, Kirchheimbolanden
ALDI SÜD,Wickerer Str. 50,65439, Flörsheim am Main
ALDI SÜD,Im Boden 17,65795, Hattersheim
ALDI SÜD,Alt-Erlenbach 107,60437, Frankfurt am Main
ALDI SÜD,Mannheimer Str. 234,67657, Kaiserslautern
ALDI SÜD,Ginnheimer Str. 7 + 9,65760, Eschborn
ALDI SÜD,Schmalkaldener Str. 4,65929, Frankfurt-Unterliederbach
ALDI SÜD,Dresdener Str. 20,65474, Bischofsheim
ALDI SÜD,Berner Str. 40,60437, Frankfurt
ALDI SÜD,West-Höchster Str. 50,65931, Frankfurt am Main
ALDI SÜD,Riedbergplatz 2,60438, Frankfurt am Main-Kalbach
ALDI SÜD,Hattersheimer Str. 1,65830, Kriftel
ALDI SÜD,Elly-Beinhorn-Str. 21,65760, Eschborn
ALDI SÜD,Freiherr-vom-Stein-Str. 2,61197, Florstadt-Nieder
ALDI SÜD,Oberweidstraße,65830, Kriftel
ALDI SÜD,Frankfurter Str. 71,65239, Hochheim
ALDI SÜD,Unter der Stadt 6,63667, Nidda
ALDI SÜD,Industriestr. 1 B,61449, Steinbach
ALDI SÜD,Mainzer Str. 69,67657, Kaiserslautern
ALDI SÜD,Simter Str. 24,66955, Pirmasens-Ruhbank
ALDI SÜD,Niederhofheimer Str. 63,65719, Hofheim
ALDI SÜD,Zollamtstr. 30,67663, Kaiserslautern
ALDI SÜD,Friedrich-Uhde-Str. 8,65812, Bad Soden am Taunus
ALDI SÜD,Industriestraße,67722, Winnweiler
ALDI SÜD,Fackelrondell 1,67655, Kaiserslautern
ALDI SÜD,Königstr. 115,67655, Kaiserslautern
ALDI SÜD,Höchster Str. 1,65835, Liederbach am Taunus
ALDI SÜD,Pfeiffstr. 7,61440, Oberursel
ALDI SÜD,Am Kronberger Hang 9,65824, Schwalbach
ALDI SÜD,An den drei Hasen 7,61440, Oberursel-Bommersheim
ALDI SÜD,Waisenhausstr. 49,66954, Pirmasens
ALDI SÜD,Justus-von-Liebig-Str. 4,61352, Bad Homburg
ALDI SÜD,Zweibrücker Str. 143,66953, Pirmasens
ALDI SÜD,Hessenstr. 14a,65719, Hofheim
ALDI SÜD,In der Schorbach 11,67714, Waldfischbach-Burgalben
ALDI SÜD,Kostheimer Landstr. 61,55246, Mainz-Kostheim
ALDI SÜD,Pfingstweide 47,61169, Friedberg
ALDI SÜD,Vogelsbergstr. 24,63679, Schotten
ALDI SÜD,Industriestr. 12,61381, Friedrichsdorf-Seulberg
ALDI SÜD,Merkurstr. 25,67663, Kaiserslautern
ALDI SÜD,Wilhelm-Dichmann-Str. 2-4,65779, Kelkheim
ALDI SÜD,Siemensstr. 8,65205, Wiesbaden
ALDI SÜD,Fauerbacher Str. 16-20,61169, Friedberg
ALDI SÜD,Raiffeisenstr. 18,61191, Rosbach-Ober
ALDI SÜD,Anna-Birle-Str. 7a,55252, Mainz-Kastel
ALDI SÜD,Im Brühl 7,67731, Otterbach-Sambach
ALDI SÜD,Lorsbacher Str. 18-20,65817, Eppstein
ALDI SÜD,Klosterstr. 15,61462, Königstein
ALDI SÜD,An der Linde 14,67806, Rockenhausen
ALDI SÜD,Hubert-Vergölst-Str. 1-5,61231, Bad Nauheim
ALDI SÜD,Benzstr. 2,61200, Wölfersheim
ALDI SÜD,Glarusstr. 14,65203, Wiesbaden-Biebrich
ALDI SÜD,Am Taubenbaum 15,61231, Bad Nauheim
ALDI SÜD,Mainzer Str. 158,65187, Wiesbaden
ALDI SÜD,Rostocker Str. 6-8,65191, Wiesbaden-Bierstadt
ALDI SÜD,Hagenauer Str. 40,65203, Wiesbaden-Biebrich
ALDI SÜD,Bahnhofsplatz 3,65189, Wiesbaden
ALDI SÜD,Danziger Str. 22,67685, Weilerbach
ALDI SÜD,Danziger Str. 22,67683, Weilerbach
ALDI SÜD,Luisenstr. 28,65185, Wiesbaden-Innenstadt
ALDI SÜD,Schiersteiner Str. 80,65187, Wiesbaden
ALDI SÜD,Schützenhofstr. 4,65183, Wiesbaden
ALDI SÜD,Frankfurter Str. 11-13,65527, Niedernhausen
ALDI SÜD,Bahnstr. 44-48,66849, Landstuhl-Melkerei
ALDI SÜD,Untere Martinsthaler Str. 1b,65396, Walluf
ALDI SÜD,Dornsweg 2,61479, Glashütten
ALDI SÜD,Am Hang 17,65199, Wiesbaden
ALDI SÜD,Flachstr. 5b,65199, Wiesbaden-Dotzheim
ALDI SÜD,Pirmasenser Str. 123,66497, Contwig-Stambach
ALDI SÜD,Torfstr. 12,66849, Landstuhl
ALDI SÜD,Rudolf-Diesel-Str. 2,61267, Neu-Anspach
ALDI SÜD,H.J.-Müller-Str. 2,65343, Eltville
ALDI SÜD,August-Süßdorf-Str. 5,66877, Ramstein-Miesenbach
ALDI SÜD,Am Riedborn 43,61250, Usingen
ALDI SÜD,Europaallee 4,65375, Oestrich-Winkel
ALDI SÜD,Auf dem Kleinen Feld 36-38,65232, Taunusstein-Neuhof
ALDI SÜD,Etzelweg 245,66482, Zweibrücken-Ixheim
ALDI SÜD,Saarlandstr. 23,66482, Zweibrücken
ALDI SÜD,Richard-Klinger-Str. 2,65510, Idstein
ALDI SÜD,Gottfried-Keller-Str. 15,65232, Taunusstein-Hahn
ALDI SÜD,Europastr. 5,65385, Rüdesheim am Rhein
ALDI SÜD,Homburger Str. 196-198,66482, Zweibrücken
ALDI SÜD,Hauptstr. 60-62,65510, Idstein-Wörsdorf
ALDI SÜD,Saarbrücker Str. 1e,67742, Lauterecken
ALDI SÜD,Am Stadtbad 15,66424, Homburg
ALDI SÜD,Festwiesenstr. 1,66901, Schönenberg-Kübelberg-Sand
ALDI SÜD,Berliner Str. 120,66424, Homburg-Erbach
ALDI SÜD,Bahnhofstr. 41,65307, Bad Schwalbach
ALDI SÜD,Bliestalstr. 114,66440, Blieskastel
ALDI SÜD,Beuerbacher Landstr. 2,65520, Bad Camberg
ALDI SÜD,Industriestr. 29-31,66869, Kusel
ALDI SÜD,Konrad-Zuse-Str. 4,66459, Kirkel-Limbach
ALDI SÜD,Kleinottweilerstr. 75,66450, Bexbach
ALDI SÜD,Saar-Pfalz-Str. 63,66440, Blieskastel
ALDI SÜD,Untere Bliesstr. 63a,66538, Neunkirchen-Wellesweiler
ALDI SÜD,Kapellenstr. 88,65611, Brechen
ALDI SÜD,Obere Kaiserstr. 3,66386, Sankt Ingbert-Rohrbach
ALDI SÜD,Irrgartenstr. 15-17,66538, Neunkirchen
ALDI SÜD,Oststr. 82,66386, St. Ingbert
ALDI SÜD,Schillerstr. 47,66540, Neunkirchen-Wiebelskirchen
ALDI SÜD,Hauptstr. 80A,66583, Spiesen-Spiesen
ALDI SÜD,Jahnstr. 35,65623, Hahnstätten
ALDI SÜD,Elsässer Str. 72,66271, Kleinblittersdorf
ALDI SÜD,Dudweilerstr. 103,66386, St. Ingbert
ALDI SÜD,Brunnenweg 8,66564, Ottweiler
ALDI SÜD,Bahnhofstr. 41,66629, Freisen
ALDI SÜD,Am Bergwerk Reden 9,66578, Landsweiler
ALDI SÜD,Bühlerstr. 18,66130, Saarbrücken
ALDI SÜD,Breslauer Str. 1a,66121, Saarbrücken-Eschberg
ALDI SÜD,Jahnstr. 12,66606, St. Wendel
ALDI SÜD,Eisenbahnstr. 6,66606, St. Wendel
ALDI SÜD,Mellinweg 12,66280, Sulzbach
ALDI SÜD,Sulzbachtalstr. 157,66125, Saarbrücken-Dudweiler
ALDI SÜD,Am Eckert 4,65553, Limburg
ALDI SÜD,Joseph-Schneider-Str. 1,65549, Limburg a. d. Lahn
ALDI SÜD,Halbergstr. 5-7,66121, Saarbrücken
ALDI SÜD,Industriestr. 10,65582, Diez
ALDI SÜD,Dudweiler Landstr. 141,66123, Saarbrücken
ALDI SÜD,Bahnhofstr. 15,66111, Saarbrücken
ALDI SÜD,Allerburg 17,66640, Namborn-Eisweiler
ALDI SÜD,Quierschieder Str. 17,66589, Merchweiler
ALDI SÜD,Müschener Str. 1,65555, Limburg-Offheim
ALDI SÜD,Hohenzollernstr. 93,66117, Saarbrücken
ALDI SÜD,Hauptstr. 75,65614, Beselich
ALDI SÜD,Hirtenwies 4,66117, Saarbrücken
ALDI SÜD,Am Torhaus 43,66113, Saarbrücken-Malstatt
ALDI SÜD,Illinger Str. 110,66557, Illingen-Wustweiler
ALDI SÜD,Rastpfuhl 2a,66113, Saarbrücken-Malstatt
ALDI SÜD,Hauptstr. 10,66128, Saarbrücken-Gersweiler
ALDI SÜD,Jakobstr. 40,66115, Saarbrücken-Burbach
ALDI SÜD,Mainzer Landstr. 15,65589, Hadamar
ALDI SÜD,Parkstr. 4,66333, Völklingen-Luisenthal
ALDI SÜD,St. Wendeler Str. 2,66636, Tholey
ALDI SÜD,Europaplatz 4,66571, Eppelborn
ALDI SÜD,Trierer Str. 155,66265, Heusweiler
ALDI SÜD,Fresagrandinaria Str. 7,66346, Püttlingen-Köllerbach
ALDI SÜD,Am Mühlenbach 3,66352, Großrosseln
ALDI SÜD,Im Betzen 1,66333, Völklingen
ALDI SÜD,Am Hammergraben 5,66333, Völklingen-Geislautern
ALDI SÜD,Auf dem Graben 1,66822, Lebach
ALDI SÜD,Provinzialstr. 9,66787, Wadgassen-Schaffhausen
ALDI SÜD,Zur Langelänge 1,66773, Schwalbach
ALDI SÜD,Kantstr. 8,66359, Bous
ALDI SÜD,Zur Breitwies 1,66793, Saarwellingen
ALDI SÜD,Hoher Staden 2a,66839, Schmelz
ALDI SÜD,Poststr. 40,66687, Wadern
ALDI SÜD,Bahnhofsallee 4,66740, Saarlouis-Roden
ALDI SÜD,Langwies 1,66802, Überherrn
ALDI SÜD,Hauptstr. 1,66798, Wallerfangen
ALDI SÜD,Schubertstr. 7,66763, Dillingen
ALDI SÜD,Siemensstr. 1,66763, Dillingen
ALDI SÜD,In Dürrfeldslach 1,66780, Rehlingen-Siersburg
ALDI SÜD,Haagstr. 50,66679, Losheim
ALDI SÜD,Rieffstr. 9,66663, Merzig
ALDI SÜD,Im Kieselgarten 2,66663, Merzig
ALDI SÜD,Britter Str. 20h,66693, Mettlach
ALDI SÜD,Trierer Str. 41,66706, Perl
ALDI SÜD,Erlenweg 8,66706, Perl
ALDI SÜD,Aalener Str. 50,73441, Bopfingen
ALDI SÜD,Kochertalstr. 49,73431, Aalen-Unterkochen
ALDI SÜD,In der Waage 2/1,73463, Westhausen
ALDI SÜD,Weidenfelderstr. 2,73430, Aalen
ALDI SÜD,Carl-Zeiss-Str. 21,73431, Aalen
ALDI SÜD,Auguste-Kessler-Str. 3,73433, Aalen-Wasseralfingen
ALDI SÜD,Siemensstr. 3,73479, Ellwangen (Jagst)
ALDI SÜD,Neuwiesenstr. 27,73312, Geislingen
ALDI SÜD,Heubacher Str. 39,73563, Mögglingen
ALDI SÜD,Osteren 14,73453, Abtsgmünd
ALDI SÜD,Bühlstr. 25,73079, Süßen
ALDI SÜD,Karl-Laible-Str. 8,73084, Salach
ALDI SÜD,Aalener Str. 5,73529, Schwäbisch Gmünd
ALDI SÜD,Kalter Markt 18,73525, Schwäbisch Gmünd
ALDI SÜD,Lorcher Str. 169,73529, Schwäbisch Gmünd
ALDI SÜD,In der Breite 16,73557, Mutlangen
ALDI SÜD,Kreuzäcker 1,73108, Gammelshausen
ALDI SÜD,Esslinger Str. 1,73037, Göppingen
ALDI SÜD,Sulzbrunnenstr. 20,74564, Crailsheim
ALDI SÜD,Schaufflerstr. 12,73033, Göppingen
ALDI SÜD,Gewerbestr. 18,72525, Münsingen
ALDI SÜD,Bahnhofstr. 36,73098, Rechberghausen
ALDI SÜD,Maierhofstr. 22,73547, Lorch
ALDI SÜD,Hofwiesenstr. 13/1,74564, Crailsheim-Roßfeld
ALDI SÜD,Industriestr. 23,74589, Satteldorf
ALDI SÜD,Kirchheimer Str. 84/1,73235, Weilheim an der Teck
ALDI SÜD,Schillerstr. 1,74405, Gaildorf
ALDI SÜD,Hauptstr. 119-121,73061, Ebersbach an der Fils-Sulpach
ALDI SÜD,Im Gänsacker 12,73252, Lenningen
ALDI SÜD,Hundsberger Str. 11,73642, Welzheim
ALDI SÜD,Dettinger Str. 132,73230, Kirchheim unter Teck
ALDI SÜD,Schlierbacher Str. 49,73230, Kirchheim unter Teck
ALDI SÜD,Im Unterwässer 3,72574, Bad Urach
ALDI SÜD,Karlstr. 13,73614, Schorndorf
ALDI SÜD,Waiblinger Str. 16,73614, Schorndorf
ALDI SÜD,Raiffeisenstr. 32,74523, Schwäbisch Hall
ALDI SÜD,Kranzhaldenstr. 13,73249, Wernau
ALDI SÜD,Ulmer Str. 4,73207, Plochingen
ALDI SÜD,Erlenaustr. 1,73240, Wendlingen
ALDI SÜD,Keltenstr. 2,72829, Engstingen
ALDI SÜD,Im Schwöllbogen 11,72581, Dettingen an der Erms
ALDI SÜD,Nürtinger Str. 84,72644, Oberboihingen
ALDI SÜD,Auwiesenstr. 17,74523, Schwäbisch Hall
ALDI SÜD,Christian-Eisele-Str. 20,73257, Köngen
ALDI SÜD,Robert-Bosch-Str. 1,72622, Nürtingen
ALDI SÜD,Fritz-Schweizer-Str. 6,71540, Murrhardt
ALDI SÜD,Alfred-Klingele-Str. 3,73630, Remshalden
ALDI SÜD,Kieswiesen 18,73776, Altbach
ALDI SÜD,Schrozberger Str. 2,74572, Blaufelden
ALDI SÜD,Daimlerstr. 65,74545, Michelfeld
ALDI SÜD,In den Burgwiesen 14,72488, Sigmaringen
ALDI SÜD,Reutlinger Str. 29,72800, Eningen unter Achalm
ALDI SÜD,Gutenbergstr. 46,72555, Metzingen
ALDI SÜD,Welzheimer Str. 35,71554, Weissach im Tal
ALDI SÜD,Nürtinger Str. 66,72649, Wolfschlugen
ALDI SÜD,Bismarckstr. 50,72793, Pfullingen
ALDI SÜD,Großheppacher Str. 60/1,71384, Weinstadt-Endersbach
ALDI SÜD,Schorndorfer Str. 78,71364, Winnenden
ALDI SÜD,Heubergstr. 7,72766, Reutlingen-Sondelfingen
ALDI SÜD,Dammstr. 5,73728, Esslingen
ALDI SÜD,Föhrstr. 8,72760, Reutlingen
ALDI SÜD,Ringelbachstr. 183,72762, Reutlingen
ALDI SÜD,Robert-Bosch-Str. 2,72654, Neckartenzlingen
ALDI SÜD,Eugen-Adolff-Str. 129,71522, Backnang
ALDI SÜD,Winnender Str. 36,71397, Leutenbach
ALDI SÜD,Riedstr. 6,72631, Aichtal
ALDI SÜD,Karlstr. 59,71394, Kernen
ALDI SÜD,Bonhoeffer Str. 2/6,73760, Ostfildern
ALDI SÜD,Schlachthofstr. 15,71522, Backnang
ALDI SÜD,Jusistr. 1,72124, Pliezhausen
ALDI SÜD,Weilstr. 227,73733, Esslingen-Weil
ALDI SÜD,Fehlabrücke 4,72393, Burladingen
ALDI SÜD,Karl-Henschel-Str. 2,72770, Reutlingen-Betzingen
ALDI SÜD,Augsburger Str. 740,70329, Stuttgart
ALDI SÜD,Karlstr. 42-48,70794, Filderstadt
ALDI SÜD,Düsseldorfer Str. 3,71332, Waiblingen
ALDI SÜD,Senefelderstr. 12/1,73760, Ostfildern
ALDI SÜD,Schulstr. 29,70794, Filderstadt
ALDI SÜD,Wannweiler Str. 50,72138, Kirchentellinsfurt
ALDI SÜD,Stuttgarter Str. 70,70736, Fellbach
ALDI SÜD,Robert-Bosch-Str. 10,74653, Künzelsau
ALDI SÜD,Kur 1,74653, Künzelsau
ALDI SÜD,Ulmer Str. 269,70327, Stuttgart-Wangen
ALDI SÜD,Bodanstr. 1,78462, Konstanz
ALDI SÜD,Deckerstr. 75,70372, Stuttgart-Bad Cannstatt
ALDI SÜD,Oberlohnstr. 7,78467, Konstanz
ALDI SÜD,Hellas-Str. 8,74653, Künzelsau
ALDI SÜD,Sigmaringer Str. 136,72458, Albstadt-Ebingen
ALDI SÜD,Sophie-Tschorn-Str. 1,70374, Stuttgart-Bad Cannstatt
ALDI SÜD,Karlsruher Str. 7,70771, Leinfelden-Echterdingen
ALDI SÜD,Sophie-Tschorn-Str. 1,70372, Stuttgart-Bad-Cannstatt
ALDI SÜD,Gablenberger Hauptstr. 32,70186, Stuttgart
ALDI SÜD,Neckarstr. 72,71686, Remseck
ALDI SÜD,Neckaraue 8,71686, Remseck-Hochberg
ALDI SÜD,Rudolf-Diesel-Str. 11,72461, Albstadt-Truchtelfingen
ALDI SÜD,Bottroper Str. 18,70376, Stuttgart-Bad Cannstatt
ALDI SÜD,Zeppelinstr. 3,71144, Steinenbronn
ALDI SÜD,Maybachstr. 1,70771, Leinfelden-Echterdingen
ALDI SÜD,Siemensstr. 2,72116, Mössingen
ALDI SÜD,Josef-Wochenmark-Weg 6,72072, Tübingen
ALDI SÜD,Sophienstr. 21,70178, Stuttgart
ALDI SÜD,Wohlboldstr. 3,72072, Tübingen
ALDI SÜD,Haller Str. 117,74613, Öhringen
ALDI SÜD,Adalbert-Stifter-Str. 103,70437, Stuttgart-Freiberg
ALDI SÜD,Am Kochenhof 10,70192, Stuttgart
ALDI SÜD,Steinsfeldle 20,74613, Öhringen
ALDI SÜD,Aldinger Str. 170,71638, Ludwigsburg
ALDI SÜD,Böblinger Str. 253,70199, Stuttgart
ALDI SÜD,Galileistr. 7,70565, Stuttgart
ALDI SÜD,Silberdistelstr. 170,72458, Albstadt Ebingen
ALDI SÜD,Stuttgarter Str. 9,70469, Stuttgart-Feuerbach
ALDI SÜD,Am Stellwerk 1,70197, Stuttgart-West
ALDI SÜD,Kimry-Platz 4-12,70806, Kornwestheim
ALDI SÜD,Prof.-Maier-Leibnitz-Str. 14,78476, Allensbach
ALDI SÜD,Rosentalstr. 2- 8/1,72070, Tübingen-Weststadt
ALDI SÜD,Marbacher Str. 193,71642, Ludwigsburg-Hoheneck
ALDI SÜD,Schwabenplatz 1,70563, Stuttgart
ALDI SÜD,Forstbergweg 6,71717, Beilstein
ALDI SÜD,Schwieberdinger Str. 62,70435, Stuttgart-Zuffenhausen
ALDI SÜD,Weißmühlenstr. 15,78333, Stockach
ALDI SÜD,Im Langen Feld 7,71711, Murr
ALDI SÜD,Meßkircher Str. 2,78333, Stockach
ALDI SÜD,Solitudeallee 127,70806, Kornwestheim
ALDI SÜD,Marstall,71634, Ludwigsburg
ALDI SÜD,Am Hartheimer Weg 3,72469, Meßstetten
ALDI SÜD,Eitel-Fritz-Str. 7,72379, Hechingen
ALDI SÜD,Martin-Luther-Str. 82,71636, Ludwigsburg
ALDI SÜD,Karl-Benz-Str. 23,71093, Weil im Schönbuch
ALDI SÜD,Teslastr. 10,74670, Forchtenberg
ALDI SÜD,Willsbacher Str. 15,74182, Obersulm
ALDI SÜD,Weidengasse 5,71691, Freiberg-Geisingen
ALDI SÜD,Mittenfeldstr. 64,70499, Stuttgart-Giebel
ALDI SÜD,Robert-Bosch-Str. 1,71696, Möglingen
ALDI SÜD,Heimsheimer Str. 34,70499, Stuttgart-Weilimdorf
ALDI SÜD,Rauheckstr. 9,74232, Abstatt
ALDI SÜD,Nagolder Str. 15,72119, Ammerbuch
ALDI SÜD,Gartenstr. 85,72108, Rottenburg am Neckar
ALDI SÜD,Rudolf-Diesel-Str. 6,71032, Böblingen
ALDI SÜD,Zeiss Str. 2,71254, Ditzingen
ALDI SÜD,Stuttgarter Str. 262,71732, Tamm
ALDI SÜD,Balinger Str. 40,72406, Bisingen
ALDI SÜD,Otto-Lilienthal-Str. 3,71034, Böblingen
ALDI SÜD,Mercedesstr. 15-19,71063, Sindelfingen
ALDI SÜD,Eisenbahn Str. 1/2,78315, Radolfzell
ALDI SÜD,Ulmer Str. 34,71229, Leonberg-Ramtel
ALDI SÜD,Wobachstr. 11,74321, Bietigheim-Bissingen
ALDI SÜD,Im Sträßle 14,71706, Markgröningen
ALDI SÜD,Robert-Bosch-Str. 10,74354, Besigheim
ALDI SÜD,Lange Str. 54,72336, Balingen-Endingen
ALDI SÜD,Albrechtstr. 45,72336, Balingen
ALDI SÜD,Heilbronner Str. 69,74189, Weinsberg
ALDI SÜD,August-Blessing-Str. 1,71282, Hemmingen
ALDI SÜD,Schweizer Mühle 9,71229, Leonberg
ALDI SÜD,Mühläckerweg 1,74376, Gemmrigheim
ALDI SÜD,Max-Planck-Str. 36,71116, Gärtringen
ALDI SÜD,Stuttgarter Str. 2,74074, Heilbronn
ALDI SÜD,Nendinger Allee 97/1,78532, Tuttlingen
ALDI SÜD,Bahnweg 2,74196, Neuenstadt am Kocher
ALDI SÜD,Südring 1,74343, Sachsenheim
ALDI SÜD,Friedrich-Ackermann-Str. 22,74081, Heilbronn-Sontheim
ALDI SÜD,Zwischen den Wegen 2,74343, Sachsenheim-Kleinsachsenheim
ALDI SÜD,Gaswerkstr. 41,74076, Heilbronn
ALDI SÜD,Im Brühl 6,74348, Lauffen am Neckar
ALDI SÜD,Reichenbacher Str. 6,78564, Wehingen
ALDI SÜD,Kalkofenstr. 50,71083, Herrenberg
ALDI SÜD,Dieselstr. 5,71277, Rutesheim
ALDI SÜD,Weimarstr. 68,78532, Tuttlingen
ALDI SÜD,Mercedesstr. 36,72108, Rottenburg
ALDI SÜD,Benzstr. 11,71272, Renningen
ALDI SÜD,Am Wildacker 12,74172, Neckarsulm
ALDI SÜD,Industriestr. 5,78224, Singen
ALDI SÜD,Dornierstr. 11,78532, Tuttlingen
ALDI SÜD,Daimlerstr. 12,74219, Möckmühl
ALDI SÜD,Werner-von-Siemens-Str. 3,78239, Rielasingen-Worblingen-Rielasingen
ALDI SÜD,Bergrat-Bilfinger-Str. 9,74177, Bad Friedrichshall-Kochendorf
ALDI SÜD,Einsteinstr. 23,71665, Vaihingen an der Enz
ALDI SÜD,Siemensstr. 10,71263, Weil der Stadt
ALDI SÜD,Europastr. 6,78549, Spaichingen
ALDI SÜD,Hegaustr. 4,78234, Engen
ALDI SÜD,Maulbronner Str. 24,74336, Brackenheim
ALDI SÜD,Untere Austr. 44,74740, Adelsheim
ALDI SÜD,Dieselstr. 3,74211, Leingarten
ALDI SÜD,Gutmeisterweg 2,71131, Jettingen-Unterjettingen
ALDI SÜD,Brühlstr. 1,74206, Bad Wimpfen
ALDI SÜD,Kornblumenweg 39,78244, Gottmadingen
ALDI SÜD,Haiterbacher Str. 70,72202, Nagold-Iselshausen
ALDI SÜD,Steinäckerstr. 4,71292, Friolzheim
ALDI SÜD,Calwer Str. 75,72202, Nagold
ALDI SÜD,Bahnhofplatz 23,72160, Horb
ALDI SÜD,Auf der Höhe 2,78262, Gailingen am Hochrhein
ALDI SÜD,Schützenstr. 7,75365, Calw-Heumaden
ALDI SÜD,Rittwiese 6,74842, Billigheim
ALDI SÜD,Massenbachhausener Str. 78,74193, Schwaigern
ALDI SÜD,Saline 21,78628, Rottweil
ALDI SÜD,Wiernsheimer Str. 42,75449, Wurmberg
ALDI SÜD,Bahnhofstr. 68,72172, Sulz am Neckar
ALDI SÜD,Riemenstr. 2/1,74906, Bad Rappenau
ALDI SÜD,In Grubäcker 3,78647, Trossingen
ALDI SÜD,Liebenzeller Str. 44,75365, Calw-Hirsau
ALDI SÜD,Vetterstr. 36,75417, Mühlacker
ALDI SÜD,Austr. 42,78727, Oberndorf-Altoberndorf
ALDI SÜD,Raiffeisenstr. 5,78658, Zimmern ob Rottweil
ALDI SÜD,Eisenbahnstr. 24,74821, Mosbach
ALDI SÜD,Pfalzgraf-Otto-Str. 42,74821, Mosbach
ALDI SÜD,Ignaz-Schwinn-Str. 2,74736, Hardheim
ALDI SÜD,Wilhelmstr. 64,72213, Altensteig
ALDI SÜD,Rottweiler Str. 110,78056, Schwenningen
ALDI SÜD,F.-X.-Schmerbeck-Str. 2,74722, Buchen
ALDI SÜD,Friedrich-List-Str. 2,78727, Oberndorf-Lindenhof
ALDI SÜD,Strietweg 70,75181, Pforzheim
ALDI SÜD,August-Kienzle-Str. 7,75433, Maulbronn
ALDI SÜD,Frauenbrunner Str. 11,75031, Eppingen
ALDI SÜD,Eutinger Str. 164,75175, Pforzheim
ALDI SÜD,Bärenstr. 10,78054, Villingen-Schwenningen
ALDI SÜD,Porschestr. 11,72285, Pfalzgrafenweiler
ALDI SÜD,Otto-Hahn-Str. 6,74731, Walldürn
ALDI SÜD,Carl-Friedrich-Benz Str. 22,78073, Bad Dürrheim
ALDI SÜD,Bauschlotter Str. 37,75177, Pforzheim-Nordstadt
ALDI SÜD,Leo-Wohleb-Str. 6a,78176, Blumberg
ALDI SÜD,Neuer Markt 1,78052, Villingen-Schwenningen
ALDI SÜD,Dürrheimer Str. 38,78166, Donaueschingen
ALDI SÜD,Kurze Steig 4,75179, Pforzheim
ALDI SÜD,Adolf-Richter-Str. 4-6,75179, Pforzheim
ALDI SÜD,Bregstr. 2,78183, Hüfingen
ALDI SÜD,Schaffhauser Str. 29,79798, Jestetten
ALDI SÜD,Hagelrainstr. 6,78166, Donaueschingen
ALDI SÜD,Mannheimer Str. 3,75179, Pforzheim
ALDI SÜD,Attenbergstr. 20,75038, Oberderdingen/Flehingen
ALDI SÜD,Milanstr. 6,78048, Villingen-Schwenningen
ALDI SÜD,Niederwiesenstr. 33,78050, Villingen-Schwenningen
ALDI SÜD,Im oberen Tal 20,74858, Aglasterhausen
ALDI SÜD,Wildbader Str. 49,75323, Bad Wildbad-Calmbach
ALDI SÜD,Am Krebsgraben 14,78048, Villingen-Schwenningen
ALDI SÜD,Breite Seite 4,74889, Sinsheim
ALDI SÜD,Neidensteiner Str. 14,74915, Waibstadt
ALDI SÜD,Wilhelmstr. 43,75015, Bretten
ALDI SÜD,Benzstr. 2,75236, Kämpfelbach-Bilfingen
ALDI SÜD,Erwin-Herbstreith-Str. 3,75305, Neuenbürg-Arnbach
ALDI SÜD,Planckstr. 10,72250, Freudenstadt-Wittlensweiler
ALDI SÜD,Hindenburgstr. 8,72250, Freudenstadt
ALDI SÜD,Bahnhofstr. 31,78713, Schramberg
ALDI SÜD,Raiffeisenstr. 22,75196, Remchingen-Wilferdingen
ALDI SÜD,Max-Planck-Str. 8,75334, Straubenhardt-Conweiler
ALDI SÜD,Wusseldornstr. 1,74918, Angelbachtal
ALDI SÜD,Industriestr. 35,78112, St. Georgen
ALDI SÜD,Mergelgrube 16-20,76646, Bruchsal-Helmsheim
ALDI SÜD,Max-Himmelheber-Str. 4,72270, Baiersbronn
ALDI SÜD,Brühlweg 13,74909, Meckesheim
ALDI SÜD,Hauptstr. 66,79801, Hohentengen
ALDI SÜD,Benzstr. 15,76307, Karlsbad-Langensteinbach
ALDI SÜD,Donaueschinger Str. 17,79848, Bonndorf im Schwarzwald
ALDI SÜD,Wöschbacher Str. 29,76327, Pfinztal/Berghausen
ALDI SÜD,Unteröwisheimer Str. 19,76698, Ubstadt-Weiher-Ubstadt
ALDI SÜD,Talstr. 6,76337, Waldbronn-Reichenbach
ALDI SÜD,Prinz-Wilhelm-Str. 8,76646, Bruchsal
ALDI SÜD,Stegwiesenstr. 4,76646, Bruchsal
ALDI SÜD,Am Landgraben 8,76669, Bad Schönborn
ALDI SÜD,Karl-Benz-Weg 3,76646, Bruchsal
ALDI SÜD,Tiengener Str. 2,76227, Karlsruhe-Durlach
ALDI SÜD,Erich-Keßler-Str. 1,76689, Karlsdorf-Neuthard-Karlsdorf
ALDI SÜD,Pforzheimer Str. 72-74,76275, Ettlingen
ALDI SÜD,Schwarzwaldstr. 20,76593, Gernsbach
ALDI SÜD,Killisfeldstr. 46,76227, Karlsruhe-Durlach
ALDI SÜD,Riedstr. 18,79787, Lauchringen
ALDI SÜD,Theodor-Rehbock-Str. 17,76131, Karlsruhe-Oststadt
ALDI SÜD,Joseph-Koepfer-Str. 6,78120, Furtwangen
ALDI SÜD,Am Hasenbiel 2,76297, Stutensee/Blankenloch
ALDI SÜD,Zwischen den Rainen 8,79790, Küssaberg/Rheinheim
ALDI SÜD,In den Brachfeldern 5,77756, Hausach
ALDI SÜD,Rindeschwenderstr. 40,76571, Gaggenau-Bad Rotenfels
ALDI SÜD,Rudolf-Plank-Str. 4,76275, Ettlingen
ALDI SÜD,Kaiserstr. 147-159,76133, Karlsruhe-Innenstadt-West
ALDI SÜD,Waldstr. 14-18,76133, Karlsruhe-Innenstadt-West
ALDI SÜD,Hohenzollernstr. 69,76135, Karlsruhe-Beiertheim-Bulach
ALDI SÜD,Freiburger Str. 9,79822, Titisee-Neustadt
ALDI SÜD,Sezanner Str. 3,76316, Malsch
ALDI SÜD,Heidelberger Str. 11,76676, Graben-Neudorf-Neudorf
ALDI SÜD,Porschestr. 24,79761, Waldshut-Tiengen
ALDI SÜD,Ortenbergstr. 6,76135, Karlsruhe-Beiertheim-Bulach
ALDI SÜD,Lorbeerweg 3,76149, Karlsruhe-Neureut
ALDI SÜD,Herrmann-Leichtlin-Str 11,76185, Karlsruhe
ALDI SÜD,Hagsfelder Weg 23,76344, Eggenstein-Leopoldshafen
ALDI SÜD,Kohlenstr. 1,76185, Karlsruhe-Grünwinkel
ALDI SÜD,Teichäckerstr. 1,76456, Kuppenheim
ALDI SÜD,Durmersheimer Str. 143,76189, Karlsruhe
ALDI SÜD,Borsigstr. 11,76185, Karlsruhe-Mühlburg
ALDI SÜD,Durlacher Weg 2,76351, Linkenheim-Hochstetten-Linkenheim
ALDI SÜD,Höchenschwander Str. 1a,79837, Häusern
ALDI SÜD,Schwarzwaldstr. 42,76532, Baden-Baden
ALDI SÜD,Im Baisert 3,76437, Rastatt-Rauental
ALDI SÜD,Auf den Heilberg 13,76448, Durmersheim
ALDI SÜD,Gerstenfeldstr. 2 b,76661, Philippsburg
ALDI SÜD,Schwarzwaldstr. 28,77716, Haslach
ALDI SÜD,Hertzstr. 2,76287, Rheinstetten-Mörsch
ALDI SÜD,Industriestr. 42,76470, Ötigheim
ALDI SÜD,Wilhelm-Drapp-Str. 21,76532, Baden-Oos
ALDI SÜD,Biblisweg 2,76437, Rastatt
ALDI SÜD,Lützowerstr. 11,76437, Rastatt
ALDI SÜD,Industriestr. 16,76547, Sinzheim-Kartung
ALDI SÜD,Freiburger Str. 49,79215, Elzach
ALDI SÜD,Johannes-Passage 8,77815, Bühl
ALDI SÜD,Schnötstr. 1,79804, Dogern
ALDI SÜD,Am Froschbächle 4,77815, Bühl
ALDI SÜD,Im Steinhof 2,77704, Oberkirch
ALDI SÜD,Im Bödel 1,76744, Wörth am Rhein
ALDI SÜD,Speyerer Str. 2,76726, Germersheim
ALDI SÜD,Mittelwegring 45,76751, Jockgrim
ALDI SÜD,Wagnerstr. 4,76549, Hügelsheim
ALDI SÜD,Güterhallenstr. 17,77855, Achern
ALDI SÜD,Neun Morgen 15,76764, Rheinzabern
ALDI SÜD,Kinzigstr. 11,77791, Berghaupten
ALDI SÜD,Waldstückerring 30,76756, Bellheim
ALDI SÜD,Vogesenstr. 1,77871, Renchen
ALDI SÜD,Lauterburger Str. 13,76870, Kandel
ALDI SÜD,Laufenpark 9,79725, Laufenburg
ALDI SÜD,Rudolf-Blessing-Str. 6,79183, Waldkirch
ALDI SÜD,Gerwigstr. 3,79199, Kirchzarten
ALDI SÜD,Im Riegel 5,76863, Herxheim
ALDI SÜD,Carl-Blos-Str. 2,77654, Offenburg-Rammersweier
ALDI SÜD,Freiburgerstr. 15,77652, Offenburg
ALDI SÜD,Heinrich Hertz Str. 2,77656, Offenburg
ALDI SÜD,Im Gewerbegebiet 20,77839, Lichtenau
ALDI SÜD,Geroldsecker Vorstadt 30,77933, Lahr
ALDI SÜD,Adlerstr. 26/B 3,77948, Friesenheim
ALDI SÜD,Hauptstr. 93,76865, Rohrbach
ALDI SÜD,Am Glockenloch 1,77866, Rheinau-Freistett
ALDI SÜD,Industriestr. 22,79194, Gundelfingen
ALDI SÜD,Schwarzwaldstr. 78,79117, Freiburg-Wiehre
ALDI SÜD,Habsburgerstr. 5,79104, Freiburg-Herdern
ALDI SÜD,Im Götzmann 2/1,77933, Lahr/Schwarzwald-Mietersheim
ALDI SÜD,Tullastr. 51,79108, Freiburg
ALDI SÜD,Schiffstr. 7,79098, Freiburg
ALDI SÜD,Günterstalstr. 43,79102, Freiburg-Wiehre
ALDI SÜD,Karl-Friedrich-Str. 95,79312, Emmendingen
ALDI SÜD,Dr. Georg-Schaeffler-Str. 9,77933, Lahr
ALDI SÜD,Freiburger Tor 2,79249, Merzhausen
ALDI SÜD,Maximilianstr. 34,76829, Landau i. d. Pfalz
ALDI SÜD,Tullastr. 8,79713, Bad Säckingen
ALDI SÜD,Basler Str. 113,79115, Freiburg-Haslach
ALDI SÜD,Tullastr. 4,77955, Ettenheim
ALDI SÜD,Öflinger Str. 39,79664, Wehr
ALDI SÜD,Daimlerstr. 2,77694, Kehl-Sundheim
ALDI SÜD,Krozinger Str. 11,79114, Freiburg-Weingarten
ALDI SÜD,Annweiler Str. 17,76829, Landau in der Pfalz
ALDI SÜD,Hauptstr. 104,76889, Schweighofen
ALDI SÜD,Heckerstr. 4,79114, Freiburg-Haslach
ALDI SÜD,Teichstr. 2a,79669, Zell
ALDI SÜD,Allensteiner Str. 21,77694, Kehl
ALDI SÜD,Feuerwehrweg 6,79341, Kenzingen
ALDI SÜD,Seeweg 5,79336, Herbolzheim
ALDI SÜD,Im Weidfeld 2,76889, Pleisweiler-Oberhofen
ALDI SÜD,Am Gansacker 38,79224, Umkirch
ALDI SÜD,Im Steinfacht 1,79739, Schwörstadt
ALDI SÜD,Bismarckstr. 6,79650, Schopfheim
ALDI SÜD,Maria-Theresia-Str. 1,79346, Endingen
ALDI SÜD,Innere Neumatten 5,79219, Staufen
ALDI SÜD,Breisgauer Str. 3,79189, Bad Krozingen
ALDI SÜD,Landauer Str. 69,76855, Annweiler am Trifels
ALDI SÜD,In der Teichmatt 10,79689, Maulburg
ALDI SÜD,Güterstr. 14,79618, Rheinfelden-Warmbach
ALDI SÜD,Gewerbestr. 5,79585, Steinen-Höllstein
ALDI SÜD,Uhlandstr. 10,79423, Heitersheim
ALDI SÜD,Zum Kaiserstuhl 12,79206, Breisach
ALDI SÜD,Robert-Bosch-Str. 4,79539, Lörrach
ALDI SÜD,Bärenfelser Str. 2,79539, Lörrach-Brombach
ALDI SÜD,Unterer Brühl 6,79379, Müllheim
ALDI SÜD,Turmstr. 37,79539, Lörrach
ALDI SÜD,Küpferstr. 1,79540, Lörrach
ALDI SÜD,Hörnle 30,79639, Grenzach-Wyhlen
ALDI SÜD,Freiburger Str. 23,79418, Schliengen
ALDI SÜD,Colmarer Str. 5,79395, Neuenburg
ALDI SÜD,Im Rebacker 10,79591, Eimeldingen
ALDI SÜD,Hauptstr. 339,79576, Weil am Rhein
ALDI SÜD,Alte Str. 46,79576, Weil am Rhein-Friedlingen
ALDI SÜD,Hauptstr. 399,79576, Weil am Rhein
ALDI SÜD,Schwanthalerstr. 14,80336, München-Ludwigsvorstadt-Isarvorstadt
ALDI SÜD,Rosenheimer Str. 30,81669, München
ALDI SÜD,Rundfunkplatz 4,80335, München-Maxvorstadt
ALDI SÜD,Orleansplatz 2,81667, München
ALDI SÜD,Richard-Strauss-Str. 80+82,81679, München
ALDI SÜD,Theresienhöhe 12,80339, München
ALDI SÜD,St.-Martin-Str. 57,81669, München
ALDI SÜD,Pilgersheimer Str. 38,81543, München-Untergiesing-Harlaching
ALDI SÜD,Implerstr. 9a,81371, München-Sendling
ALDI SÜD,Berg-am-Laim-Str. 107,81673, München-Berg am Laim
ALDI SÜD,Ungererstr. 175,80805, München
ALDI SÜD,Hermann-Weinhauser-Str. 90,81673, München-Berg am Laim
ALDI SÜD,Hochstiftsweg 4,81927, München
ALDI SÜD,Friedenheimer Brücke 23,80639, München
ALDI SÜD,Schwanseestr. 61,81549, München-Obergiesing
ALDI SÜD,Max-Bill-Str. 8,80807, München
ALDI SÜD,Ottobrunner Str. 26,81737, München
ALDI SÜD,Frankfurter Ring 19,80807, München-Milbertshofen-Am Hart
ALDI SÜD,Feringastr. 15,85774, Unterföhring
ALDI SÜD,Pelkovenstr. 143-147,80992, München-Moosach
ALDI SÜD,Wotanstr. 9c,80639, München
ALDI SÜD,Heidemannstr. 9,80939, München
ALDI SÜD,Albert-Schweitzer-Str. 78,81735, München
ALDI SÜD,Zielstattstr. 73,81379, München
ALDI SÜD,Freisinger Landstr. 64,80939, München
ALDI SÜD,Breslauer Str. 3,80992, München-Moosach
ALDI SÜD,Bognerhofweg 5,81825, München-Trudering-Riem
ALDI SÜD,Baierbrunner Str. 75,81379, München
ALDI SÜD,Lerchenauerstr. 240,80935, München
ALDI SÜD,Landsberger Str. 388,80687, München
ALDI SÜD,Dachauer Str. 507,80993, München-Moosach
ALDI SÜD,Schleißheimer Str. 506,80933, München
ALDI SÜD,Maximilian-Kolbe-Allee 1,81739, München-Neuperlach
ALDI SÜD,Oskar-Maria-Graf-Ring 14,81737, München
ALDI SÜD,Hermine-von-Parish-Str. 11,81245, München
ALDI SÜD,Großhaderner Str. 44,81375, München-Hadern
ALDI SÜD,Dülferstr. 69,80995, München
ALDI SÜD,Willy-Brandt-Platz 5,81829, München-Trudering-Riem
ALDI SÜD,Meglingerstr. 33,81477, München
ALDI SÜD,Pasinger Bahnhofsplatz 5,81241, München
ALDI SÜD,Biberger Str. 66,82008, Unterhaching
ALDI SÜD,Grünwalder Weg 30,82008, Unterhaching
ALDI SÜD,Georg-Reismüller-Str. 16,80999, München
ALDI SÜD,Stockacher Str. 6,81243, München
ALDI SÜD,Kirchlandweg 1-3,82008, Unterhaching
ALDI SÜD,Lochhamer Str. 31,82152, Planegg
ALDI SÜD,Hans-Stießberger-Str. 5,85540, Haar
ALDI SÜD,Innstr. 3,85640, Putzbrunn-Oedenstockach-Waldkolonie
ALDI SÜD,Ludwig-Thoma-Str. 2,85609, Aschheim
ALDI SÜD,Hainbuchenring 6,82061, Neuried
ALDI SÜD,Sonnenstr. 11,85764, Oberschleißheim
ALDI SÜD,Schleißheimer Str. 108a,85748, Garching bei München
ALDI SÜD,An der Wögerwiese 1,85757, Karlsfeld
ALDI SÜD,Osterfeldstr. 41,85737, Ismaning
ALDI SÜD,Carl-Zeiss-Str. 49,85521, Hohenbrunn
ALDI SÜD,Eugen-Sänger-Ring 4,85694, Brunnthal
ALDI SÜD,Eugen-Sänger-Ring 4,85649, Brunnthal
ALDI SÜD,Wettersteinring 8,85221, Dachau
ALDI SÜD,Industriestr. 24,82110, Germering-Neugermering
ALDI SÜD,Carl von Linde Str. 36,85716, Unterschleißheim-Lohhof
ALDI SÜD,Olchinger Str. 70,82194, Gröbenzell
ALDI SÜD,Baldhamer Str. 97,85591, Vaterstetten
ALDI SÜD,Fraunhoferstr. 3,85221, Dachau
ALDI SÜD,Am Lerchenfeld,85599, München
ALDI SÜD,Münchener Str. 1,82110, Germering-Neugermering
ALDI SÜD,Schorner Str. 5,82065, Baierbrunn
ALDI SÜD,Bürgerstr. 2,85586, Poing
ALDI SÜD,Gewerbestr. 2,82064, Straßlach-Dingharting
ALDI SÜD,Hauptstr. 110,82223, Eichenau
ALDI SÜD,Philipp-Reis-Str. 4,85375, Neufahrn
ALDI SÜD,Johann-G.-Gutenberg-Str. 31,82140, Olching
ALDI SÜD,Gadastr. 3,85232, Bergkirchen
ALDI SÜD,Burgerfeld 10,85570, Markt Schwaben
ALDI SÜD,Dornierstr. 2b,82205, Gilching
ALDI SÜD,Gilchinger Str. 35,82239, Alling
ALDI SÜD,Westring 11,85614, Kirchseeon
ALDI SÜD,Am Straßerwinkel 5,82216, Maisach
ALDI SÜD,Argelsrieder Str. 40,82234, Weßling
ALDI SÜD,Maisacher Str. 123,82256, Fürstenfeldbruck
ALDI SÜD,Schöngeisinger Str. 40-48,82256, Fürstenfeldbruck
ALDI SÜD,Emslander Str. 3,82319, Starnberg
ALDI SÜD,Otl-Aicher-Str. 2,82256, Fürstenfeldbruck
ALDI SÜD,Gewerbestr. 7,85229, Markt Indersdorf
ALDI SÜD,Berghamer Str. 7,85435, Erding-Altenerding
ALDI SÜD,Am Kletthamer Feld 1,85435, Erding-Altenerding
ALDI SÜD,Münchener Str. 34,85560, Ebersberg
ALDI SÜD,Hans-Urmiller-Ring 4,82515, Wolfratshausen-Farchet
ALDI SÜD,Münchnerstr. 32a,85354, Freising
ALDI SÜD,Erdinger Str. 100,85356, München-Flughafen
ALDI SÜD,Glonner Str. 37,85567, Grafing
ALDI SÜD,Rudolf-Diesel-Ring 4,83607, Holzkirchen
ALDI SÜD,Banater Str. 2,82538, Geretsried-Gartenberg
ALDI SÜD,Aicher Str. 1,82291, Mammendorf
ALDI SÜD,Alte Römer Str. 11,85435, Erding
ALDI SÜD,Gewerbering 1,85238, Petershausen
ALDI SÜD,Mühlenstr. 2,85391, Allershausen
ALDI SÜD,Weinmiller Str. 5,85356, Freising
ALDI SÜD,Aiblinger Str. 43,83620, Feldkirchen-Westerham
ALDI SÜD,Sudetenstr. 68,82538, Geretsried-Stein
ALDI SÜD,Lindemannstr. 9,82327, Tutzing
ALDI SÜD,Weinmoos 1,85406, Zolling
ALDI SÜD,Aumühle 4,86938, Schondorf
ALDI SÜD,Kirchdorfer Str. 15,83052, Bruckmühl
ALDI SÜD,Martin-Binder-Ring 20,85276, Pfaffenhofen-Niederscheyern
ALDI SÜD,Max-Weinberger-Str. 3,85276, Pfaffenhofen-Eberstetten
ALDI SÜD,Gewerbering 15,83646, Bad Tölz
ALDI SÜD,Gerberstr. 5,83527, Haag
ALDI SÜD,Mühlweg 3,82269, Geltendorf
ALDI SÜD,Am Windfeld 17,83714, Miesbach-Harzberg
ALDI SÜD,Ebersberger Str. 3,83043, Bad Aibling
ALDI SÜD,Moser-Säge 7,83674, Gaißach
ALDI SÜD,Haager Str. 61,84405, Dorfen
ALDI SÜD,Staudhamer Feld 1,83512, Wasserburg-Staudham
ALDI SÜD,Wallbergstr. 20,86415, Mering
ALDI SÜD,Degernpoint A 1,85368, Moosburg an der Isar
ALDI SÜD,Münchener Str. 62,82362, Weilheim
ALDI SÜD,Landshuter Str. 43,84416, Taufkirchen an der Vils
ALDI SÜD,Sindelsdorfer Str. 6 a,82377, Penzberg
ALDI SÜD,Messerschmittstr. 8,86453, Dasing
ALDI SÜD,Holzgartenstr. 17,86415, Mering-Sankt Afra
ALDI SÜD,Marquardtstr. 2,86316, Friedberg
ALDI SÜD,Donauwörther Str. 31,86551, Aichach
ALDI SÜD,Am Rothbachl 2a,83059, Kolbermoor-Grubholz
ALDI SÜD,Am Rothbachl 2 a,83059, Kolbermoor
ALDI SÜD,Grünzweigstr. 3,86438, Kissing
ALDI SÜD,Möslstr. 28,83024, Rosenheim
ALDI SÜD,Eiselfinger Str. 10,83512, Wasserburg
ALDI SÜD,Grubholzer Str. 2,83026, Rosenheim
ALDI SÜD,Hopfenstr. 60,85283, Wolnzach
ALDI SÜD,Lechhauser Str. 42,86316, Friedberg
ALDI SÜD,Am Penzinger Feld 7,86899, Landsberg am Lech
ALDI SÜD,Wiesseer Str. 41,83700, Kreuth-Weißach
ALDI SÜD,Pöttmeser Str. 6,86529, Schrobenhausen-Steingriff
ALDI SÜD,Chiemseestr. 25,83022, Rosenheim
ALDI SÜD,Am Schwaigbach 4,82431, Kochel am See
ALDI SÜD,Hunnenstr. 4,86343, Königsbrunn
ALDI SÜD,Augsburger Str. 62,86899, Landsberg
ALDI SÜD,Messerschmittring 20 1/3,86343, Königsbrunn
ALDI SÜD,Viktor-Frankl-Str. 2,86916, Kaufering
ALDI SÜD,Unterer Talweg 111,86179, Augsburg
ALDI SÜD,Albert-Schenavsky-Str. 3,86165, Augsburg-Lechhausen
ALDI SÜD,Hofrat-Röhrer-Str. 9,86161, Augsburg
ALDI SÜD,Winterbruckenweg 62,86316, Friedberg
ALDI SÜD,Prinzstr. 51 a,86153, Augsburg
ALDI SÜD,An der Grube 1,82380, Peißenberg
ALDI SÜD,Lagerlechfelder Str. 32,86836, Untermeitingen
ALDI SÜD,Friedrich-Fuckel-Str. 20,83064, Raubling-Redenfelden
ALDI SÜD,Lechhauser Str. 15a,86153, Augsburg-Innenstadt
ALDI SÜD,Steinerne Furt 57a,86167, Augsburg-Lechhausen
ALDI SÜD,Edisonstr. 4,86199, Augsburg
ALDI SÜD,Bgm.-Fischer-Str. 6-10,86150, Augsburg-Innenstadt
ALDI SÜD,Wackerstr. 7,85084, Reichertshofen
ALDI SÜD,Lindauer Str. 41,86399, Bobingen
ALDI SÜD,Köglmühle 1,84048, Mainburg
ALDI SÜD,Ziegelfeldstr. 2,84036, Kumhausen
ALDI SÜD,Ludwig-Erhard-Str. 9,84034, Landshut
ALDI SÜD,Weiherstr. 10 A,86154, Augsburg
ALDI SÜD,Kemmelallee 1,82418, Seehausen-Weindorf
ALDI SÜD,Im Gewerbegebiet 18,83093, Bad Endorf
ALDI SÜD,Luther-King-Str. 2,86156, Augsburg-Kriegshaber
ALDI SÜD,Wittstr. 16,84036, Landshut-Achdorf
ALDI SÜD,Benzstr. 9,86391, Stadtbergen
ALDI SÜD,Am Aicher Feld 2,84032, Altdorf
ALDI SÜD,Nöttinger Str. 23,85290, Geisenfeld-Geisenfeldwinden
ALDI SÜD,Am Alten Viehmarkt 5,84028, Landshut-Altstadt
ALDI SÜD,Am Alten Viehmarkt 5,84034, Landshut
ALDI SÜD,Robert-Bosch-Str. 5,86830, Schwabmünchen-Mittelstetten
ALDI SÜD,Alte Regensburger Str. 59,84030, Landshut-Nikola
ALDI SÜD,Senefelder Str. 22,86368, Gersthofen
ALDI SÜD,Bahnhofstr. 10,84478, Waldkraiburg
ALDI SÜD,Lohwaldstr. 62,86356, Neusäß
ALDI SÜD,Grasweg 3,86971, Peiting
ALDI SÜD,Am Lehenauweg 2 b,86462, Langweid
ALDI SÜD,Am Straßfeld 1,86420, Diedorf
ALDI SÜD,Geisenfelder Str. 70,85077, Manching
ALDI SÜD,Am Lerchenfeld 3,86956, Schongau
ALDI SÜD,Ohmstr. 4,84137, Vilsbiburg
ALDI SÜD,Rudolf-Diesel-Str. 1,86807, Buchloe
ALDI SÜD,Münchener Str. 180,85051, Ingolstadt
ALDI SÜD,Daimlerstr. 1,84051, Essenbach
ALDI SÜD,Fauststr. 74,85051, Ingolstadt
ALDI SÜD,Eriagstr. 10,85053, Ingolstadt
ALDI SÜD,Landshuter Str. 55,84056, Rottenburg
ALDI SÜD,Chiemseestr. 87,83233, Bernau
ALDI SÜD,Frühlingstr. 35,85055, Ingolstadt
ALDI SÜD,Neuburger Str. 59,85057, Ingolstadt
ALDI SÜD,Despag-Str. 2,85055, Ingolstadt
ALDI SÜD,Am Oberfeld 3,86707, Westendorf
ALDI SÜD,Am Südpark 5,86633, Neuburg-Feldkirchen
ALDI SÜD,Bürgermeister-Hess-Str. 2,84453, Mühldorf
ALDI SÜD,Nördliche Grünauer Str. 2,86633, Neuburg an der Donau
ALDI SÜD,Sonnenleite 14,83308, Trostberg
ALDI SÜD,Lilienthalstr. 54,85080, Gaimersheim
ALDI SÜD,Ettaler Str. 1,82496, Oberau
ALDI SÜD,Am Binderfeld 6,84518, Garching an der Alz
ALDI SÜD,Ingolstädter Str. 141,85092, Kösching
ALDI SÜD,Zeppelinstr. 8,86825, Bad Wörishofen
ALDI SÜD,Bürgerstr. 7,87600, Kaufbeuren
ALDI SÜD,Innovapark 35,87600, Kaufbeuren
ALDI SÜD,Landshuter Str. 24,84061, Ergoldsbach
ALDI SÜD,Ziegelberg 3,85139, Wettstetten
ALDI SÜD,Am Stausee 6,82494, Krün
ALDI SÜD,Neugablonzer Str. 65,87600, Kaufbeuren
ALDI SÜD,Erlenweg 5,86641, Rain am Lech
ALDI SÜD,Melanderstr. 2,86441, Zusmarshausen
ALDI SÜD,Traunring 3,83301, Traunreut
ALDI SÜD,Eichelreuth 26,83224, Staudach-Egerndach
ALDI SÜD,Robert-Bosch-Str. 6,85117, Eitensheim
ALDI SÜD,Mühldorfer Str. 112,84503, Altötting
ALDI SÜD,Donauwörther Str. 1b,86637, Wertingen-Gottmannshofen
ALDI SÜD,Heimenegger Weg 10,87719, Mindelheim-Heimenegg
ALDI SÜD,Von-Brug-Str. 7,82467, Garmisch-Partenkirchen-Garmisch
ALDI SÜD,Bahnhofstr. 14,87616, Marktoberdorf
ALDI SÜD,Gewerbepark Kaserne 6,83278, Traunstein
ALDI SÜD,An der Zugspitze 5,82491, Grainau
ALDI SÜD,Hochstr. 16,83278, Traunstein-Haslach
ALDI SÜD,Simbacher Str. 55,84524, Neuötting
ALDI SÜD,Rudolf-Diesel-Str. 10,86470, Thannhausen
ALDI SÜD,Altöttinger Str. 2,84508, Burgkirchen-Gendorf
ALDI SÜD,Sollnau 34,85072, Eichstätt
ALDI SÜD,Gewerbehof 1,84130, Dingolfing
ALDI SÜD,Kaiser-Karl-Str. 4,86609, Donauwörth-Riedlingen
ALDI SÜD,Mühlweg 10,85095, Denkendorf
ALDI SÜD,Messerschmittstr. 1,89343, Jettingen-Scheppach
ALDI SÜD,Erwin-Bosch-Ring 2,86381, Krumbach
ALDI SÜD,Lauterbachstr. 49,84307, Eggenfelden
ALDI SÜD,Abt-Hafner-Str. 15,87629, Füssen
ALDI SÜD,Seehauser Str. 39 a,83324, Ruhpolding
ALDI SÜD,Klausenstr. 37,84489, Burghausen
ALDI SÜD,Robert-Bosch-Str. 5,89331, Burgau
ALDI SÜD,Rudolf-Diesel-Str. 9a,89407, Dillingen-Schretzheim
ALDI SÜD,Wemdinger Str. 5/7,86653, Monheim
ALDI SÜD,Werner-von-Siemens-Str. 10,89415, Lauingen
ALDI SÜD,Hauptstr. 1,87484, Nesselwang
ALDI SÜD,Tittmoninger Str. 55,83410, Laufen
ALDI SÜD,Welserstr. 10,87463, Dietmannsried
ALDI SÜD,Violastr. 8,89312, Günzburg-Denzingen
ALDI SÜD,Bleicherstr. 26,87437, Kempten
ALDI SÜD,Hans-Grässel-Str. 6,87700, Memmingen-Amendingen
ALDI SÜD,Äußere Simbacher Str. 2,84347, Pfarrkirchen-Reichenberg
ALDI SÜD,Magnusstr. 35,87437, Kempten (Allgäu)
ALDI SÜD,Oberbrühlstr. 2,87700, Memmingen
ALDI SÜD,Rudolf-Diesel-Str. 10,87700, Memmingen-Amendingen
ALDI SÜD,Im Moos 1,87435, Kempten-Eich
ALDI SÜD,Reichenbacher Str. 21,89264, Weißenhorn-Hegelhofen
ALDI SÜD,Reichenhaller Str. 25,83451, Piding
ALDI SÜD,Bahnhofplatz 10,83435, Bad Reichenhall
ALDI SÜD,Simon-Breu-Str. 61,84359, Simbach am Inn
ALDI SÜD,Schillerstr. 2,83395, Freilassing
ALDI SÜD,Marktplatz 1,89281, Altenstadt
ALDI SÜD,Saumweg 36,89257, Illertissen
ALDI SÜD,Gerschweiler Str. 8,89537, Giengen
ALDI SÜD,Zeppelinstr. 5,88453, Erolzheim
ALDI SÜD,Hofer Str. 8,86720, Nördlingen
ALDI SÜD,Adalbert-Stifter-Str. 36,89269, Vöhringen
ALDI SÜD,Benzstr. 2,89129, Langenau
ALDI SÜD,Reichenhaller Str. 10,83484, Bischofswiesen
ALDI SÜD,Reichenhaller Str. 10,83483, Bischofswiesen
ALDI SÜD,Adenauerstr. 7,89233, Neu-Ulm-Burlafingen
ALDI SÜD,Danziger Str. 9,89250, Senden
ALDI SÜD,Zeppelinweg 6,89542, Herbrechtingen
ALDI SÜD,Pfaffenweg 28,89231, Neu-Ulm
ALDI SÜD,Östliche Alpenstr. 26,87527, Sonthofen
ALDI SÜD,Wegenerstr. 3,89231, Neu-Ulm
ALDI SÜD,Sonthofener Str. 51 1/2,87509, Immenstadt
ALDI SÜD,Oberstdorfer Str. 12,87527, Sonthofen
ALDI SÜD,Wiblinger Ring 100,89079, Ulm-Wiblingen
ALDI SÜD,Nördlinger Str. 64,89520, Heidenheim
ALDI SÜD,Künkelinstr. 9,88299, Leutkirch
ALDI SÜD,Bahnhofstr. 5-7,89073, Ulm-Weststadt
ALDI SÜD,Gartenau 2,83471, Berchtesgaden
ALDI SÜD,Am Güterbahnhof 9,88416, Ochsenhausen
ALDI SÜD,Blaubeurer Str. 47,89077, Ulm-Weststadt
ALDI SÜD,Steinheimer Str. 19,89518, Heidenheim
ALDI SÜD,Am Bühlberg 5,88316, Isny
ALDI SÜD,Lerchenbergstr. 8,89160, Dornstadt
ALDI SÜD,Max-Hilsenbeck-Str. 1,89134, Blaustein
ALDI SÜD,Ehinger Str. 5,89155, Erbach
ALDI SÜD,Ulmer Str. 61,88471, Laupheim
ALDI SÜD,Berblingerstr. 13,88471, Laupheim
ALDI SÜD,Oberriedstr. 1,88410, Bad Wurzach
ALDI SÜD,Bahnhofstr. 2,88447, Warthausen
ALDI SÜD,Siemensstr. 5,88353, Kißlegg
ALDI SÜD,Waldseer Str. 119,88400, Biberach an der Riß
ALDI SÜD,Gaisentalstr. 72,88400, Biberach an der Riß
ALDI SÜD,Unter dem Kühnenbuch 6,89143, Blaubeuren
ALDI SÜD,Adolffstr. 44,89584, Ehingen-Berkach
ALDI SÜD,Im Ballenmoos 12,88339, Bad Waldsee
ALDI SÜD,Siemensstr. 4,88239, Wangen
ALDI SÜD,Sedanstr. 15,88161, Lindenberg
ALDI SÜD,Spinnereistr. 10,88239, Wangen
ALDI SÜD,Sägmühleweg 2,88427, Bad Schussenried
ALDI SÜD,Carl-Benz-Str. 7,89597, Munderkingen
ALDI SÜD,Geislinger Str. 3,89150, Laichingen
ALDI SÜD,Eichelstr. 18,88285, Bodnegg
ALDI SÜD,Ravensburger Str. 11,88255, Baienfurt
ALDI SÜD,Ettishofer Str. 9,88250, Weingarten
ALDI SÜD,Ziegelstr. 20,88214, Ravensburg
ALDI SÜD,Von-Behring-Str. 4,88131, Lindau-Reutin
ALDI SÜD,Robert-Bosch-Str. 8,88499, Riedlingen
ALDI SÜD,Schwarzenbacher Str. 1,88348, Bad Saulgau
ALDI SÜD,Schäferhofstr. 1,88069, Tettnang
ALDI SÜD,Sömmeringstr. 3,88074, Meckenbeuren-Buch
ALDI SÜD,Adelheidstr. 38,88048, Friedrichshafen
ALDI SÜD,Adelheidstr. 38,88046, Friedrichshafen
ALDI SÜD,Gutenbergstr. 4,88046, Friedrichshafen
ALDI SÜD,Siemensstr. 6/2,88048, Friedrichshafen
ALDI SÜD,Saarstr. 11-13,88512, Mengen
ALDI SÜD,Rudolf-Diesel-Str. 1,88677, Markdorf
ALDI SÜD,Alte Neufracher Str. 52,88682, Salem-Mimmenhausen
ALDI SÜD,Otterswanger Str. 5/4,88630, Pfullendorf
ALDI SÜD,Heiligenbreite 3,88662, Überlingen
ALDI SÜD,Heiligenbreite 3,88682, Überlingen
ALDI SÜD,Trettenfurt 14,88605, Meßkirch
ALDI SÜD,Donaustr. 6,93333, Neustadt an der Donau
ALDI SÜD,Straubinger Str. 47,93326, Abensberg
ALDI SÜD,Kelheimwinzerstr. 125,93309, Kelheim-Affecking
ALDI SÜD,Gutenbergring 5,93077, Bad Abbach
ALDI SÜD,Landshuter Str. 90,94333, Geiselhöring
ALDI SÜD,Eichstätter Str. 14,92339, Beilngries
ALDI SÜD,Hohengebrachinger Str. 30,93080, Pentling
ALDI SÜD,Alte Umgehungsstr. 25,94405, Landau an der Isar
ALDI SÜD,Bürgermeister-Haberl-Str. 1,94424, Arnstorf
ALDI SÜD,Kindinger Str. 40,91171, Greding
ALDI SÜD,Am Gewerbebogen 4,93155, Hemau-Klingen
ALDI SÜD,Johann-Hösl-Str. 1,93053, Regensburg-Kasernenviertel
ALDI SÜD,An der Steinbuchse 2,93152, Nittendorf
ALDI SÜD,Rennweg 18,93049, Regensburg
ALDI SÜD,Balwinusstr. 2,93051, Regensburg
ALDI SÜD,Pommernstr. 17,93073, Neutraubling
ALDI SÜD,Ansbacher Str. 48,91757, Treuchtlingen
ALDI SÜD,Bischof-Sailer-Str. 1,93092, Barbing
ALDI SÜD,Weichser Weg 32,93059, Regensburg
ALDI SÜD,Adolph-Kolping-Str. 1a,91781, Weißenburg
ALDI SÜD,Regendorfer Str. 3,93138, Lappersdorf
ALDI SÜD,Landshuter Str. 149,94315, Straubing
ALDI SÜD,Chamer Str. 42,94315, Straubing
ALDI SÜD,Ittlinger Str. 198,94315, Straubing
ALDI SÜD,Steinmühler Str. 1,92331, Parsberg-Hackenhofen
ALDI SÜD,Schwandorfer Str. 25,93128, Regenstauf-Diesenbach
ALDI SÜD,Appianistr. 6,92342, Freystadt-Thannhausen
ALDI SÜD,Siemensstr. 4,91161, Hilpoltstein
ALDI SÜD,Leitenweg 72,94447, Plattling
ALDI SÜD,Bärndorf 29 f,94327, Bogen
ALDI SÜD,Regensburger Str. 62,93133, Burglengenfeld-Augustenhof
ALDI SÜD,Pleinfelder Str. 66e,91166, Georgensgmünd
ALDI SÜD,Nordgaustr. 2,93142, Maxhütte-Haidhof-Deglhof
ALDI SÜD,Industriestr. 2,94486, Osterhofen-Siegstatt
ALDI SÜD,Weghofstr. 2,94086, Bad Griesbach
ALDI SÜD,Ulmenweg 17,91717, Wassertrüdingen
ALDI SÜD,Nürnberger Str. 58,91710, Gunzenhausen
ALDI SÜD,Gutenbergstr. 3,92318, Neumarkt
ALDI SÜD,Werftstr. 32,94469, Deggendorf-Fischerdorf
ALDI SÜD,Bortenmacherstr. 4,91154, Roth
ALDI SÜD,Nürnberger Str. 39,92318, Neumarkt-Holzheim
ALDI SÜD,Von-Vollmar-Str. 1,91154, Roth
ALDI SÜD,Graflinger Str. 157,94469, Deggendorf
ALDI SÜD,Aidenbacher Str. 74 a,94474, Vilshofen
ALDI SÜD,Hofgartenweg 6,94072, Bad Füssing
ALDI SÜD,Karl-Schiller-Str. 2,92348, Berg b. Neumarkt i. d. OPf.
ALDI SÜD,Bürgm.-Schönbauer-Str. 10,94060, Pocking
ALDI SÜD,Espenpark 11,90559, Burgthann
ALDI SÜD,Am Wiesengrund 99,91732, Merkendorf
ALDI SÜD,Fohlenhof 27,91575, Windsbach
ALDI SÜD,Regensburger Str. 68,92421, Schwandorf
ALDI SÜD,Am Markt 2,91126, Kammerstein
ALDI SÜD,Penzendorfer Str. 1-3,91126, Rednitzhembach
ALDI SÜD,Kagerstr. 2,93426, Roding
ALDI SÜD,Am Brunnfeld 1,92421, Schwandorf-Kronstetten
ALDI SÜD,Wassertrüdinger Str. 53,91550, Dinkelsbühl
ALDI SÜD,Heinrich-Wich-Str. 1,90530, Wendelstein
ALDI SÜD,Gugelhammerweg 1,90537, Feucht
ALDI SÜD,Prackenfelser Str. 12,90518, Altdorf
ALDI SÜD,Katzwanger Str. 24,91126, Schwabach-Limbach
ALDI SÜD,Schmidstr. 24 c,94234, Viechtach
ALDI SÜD,An der Radrunde 148,90455, Nürnberg-Pillenreuth
ALDI SÜD,Am Taschinger Berg 3,93413, Cham-Janahof
ALDI SÜD,Wolkersdorfer Hauptstr. 61,91126, Schwabach
ALDI SÜD,Granecker Str. 2,94036, Passau
ALDI SÜD,Neuburger Str. 137,94036, Passau
ALDI SÜD,Zollhausstr. 22,90469, Nürnberg-Kettelersiedlung
ALDI SÜD,Lübener Str. 18,90471, Nürnberg-Langwasser
ALDI SÜD,Ansbacher Str. 44,91560, Heilsbronn
ALDI SÜD,Eibacher Hauptstr. 127,90451, Nürnberg-Eibach
ALDI SÜD,Am Bergsteig 2,92224, Amberg
ALDI SÜD,Schopflocher Str. 4,91555, Feuchtwangen
ALDI SÜD,Heinz-Flessner-Str. 5,92431, Neunburg vorm Wald
ALDI SÜD,Rammertshofer Weg 2,92224, Amberg
ALDI SÜD,Chamer Str. 1,93497, Willmering-Brennet
ALDI SÜD,Windsbacher Str. 24,91522, Ansbach-Eyb
ALDI SÜD,Rinchnacher Str. 9,94209, Regen
ALDI SÜD,Spitzleitenweg 19,90547, Stein
ALDI SÜD,Katzwanger Str. 140,90461, Nürnberg-Hasenbuck
ALDI SÜD,Regensburger Str. 266,90480, Nürnberg-Zerzabelshof
ALDI SÜD,Dianastr. 27,90441, Nürnberg-Gibitzenhof
ALDI SÜD,Dreiburgenstr. 18,94104, Tittling
ALDI SÜD,Feuerbachstr. 24,91522, Ansbach
ALDI SÜD,Rothenburger Str. 9,91522, Ansbach-Neuses
ALDI SÜD,Arnbrucker Str. 23,93444, Bad Kötzting
ALDI SÜD,Konstanzenstr. 111,90439, Nürnberg
ALDI SÜD,Peter-Henlein-Str. 27-31,90443, Nürnberg
ALDI SÜD,Zeltnerstr. 19,90443, Nürnberg-Tafelhof
ALDI SÜD,Königstr. 83 - 87,90402, Nürnberg
ALDI SÜD,Lange Mähder 6,91589, Aurach
ALDI SÜD,Ostendstr. 144,90482, Nürnberg
ALDI SÜD,Jägeröd 5,94121, Salzweg
ALDI SÜD,Laufamholzstr. 112,90482, Nürnberg
ALDI SÜD,Kurt-Schumacher-Str. 2,90522, Oberasbach-Altenberg
ALDI SÜD,Äußere Sulzbacher Str. 164,90491, Nürnberg
ALDI SÜD,Am Gewerbepark 1,90552, Röthenbach
ALDI SÜD,Reutersbrunnenstr. 55,90429, Nürnberg
ALDI SÜD,Dieselstr. 30,92237, Sulzbach-Rosenberg
ALDI SÜD,Adam-Klein-Str. 125,90431, Nürnberg-Eberhardshof
ALDI SÜD,Kötztinger Str. 37,94249, Bodenmais
ALDI SÜD,Grolandstr. 43,90408, Nürnberg
ALDI SÜD,Happurger Str. 23,91217, Hersbruck
ALDI SÜD,Happurger Str. 12,91224, Pommelsbrunn
ALDI SÜD,Magazinstr. 61,90763, Fürth
ALDI SÜD,Fürther Str. 301-303,90429, Nürnberg-Muggenhof
ALDI SÜD,Bessemer Str. 6,90411, Nürnberg
ALDI SÜD,Karl-Büttner-Ring 11,91207, Lauf an der Pegnitz
ALDI SÜD,Karolinenstr. 90,90763, Fürth
ALDI SÜD,Bärnzeller Str. 2,94227, Zwiesel
ALDI SÜD,Frauenberg 27,94481, Grafenau
ALDI SÜD,Staffelsteiner Str. 3,90425, Nürnberg-Thon
ALDI SÜD,Seeäckerstr. 2,91233, Neunkirchen am Sand
ALDI SÜD,Hans-Vogel-Str. 50,90765, Fürth-Poppenreuth
ALDI SÜD,Erlanger Str. 200,90765, Fürth
ALDI SÜD,Würzburger Str. 171,90766, Fürth
ALDI SÜD,Hauptstr. 110,90562, Heroldsberg
ALDI SÜD,Am Seukenbach 4,90556, Seukendorf
ALDI SÜD,Waldmünchener Str. 24,93437, Furth im Wald
ALDI SÜD,Am Kreisel 3,91637, Wörnitz
ALDI SÜD,Hammerstatt 7,91637, Wörnitz
ALDI SÜD,Wiesbadener Str. 41,90427, Nürnberg-Schmalau
ALDI SÜD,Klaus-Conrad-Str. 1,92533, Wernberg-Köblitz
ALDI SÜD,Am Galgenberg 8,90579, Langenzenn
ALDI SÜD,Steinbergstr. 4,94051, Hauzenberg
ALDI SÜD,Am Bahnhof 22,94078, Freyung
ALDI SÜD,Orchideenstr. 35,90542, Eckental
ALDI SÜD,Bannholzstr. 7,94065, Waldkirchen
ALDI SÜD,Cumianastr. 5,91058, Erlangen-Bruck
ALDI SÜD,Allee am Röthelheimpark 15,91052, Erlangen
ALDI SÜD,Zum Neuntagwerk 14,91077, Neunkirchen am Brand
ALDI SÜD,Gundstr. 2,91056, Erlangen
ALDI SÜD,Henkestr. 92,91052, Erlangen
ALDI SÜD,Ohmstr. 5,91074, Herzogenaurach
ALDI SÜD,Gewerbepark Schönthal 2,91287, Plech
ALDI SÜD,Bruckwiesen 8,91088, Bubenreuth
ALDI SÜD,Bodelschwinghstr. 1b,91541, Rothenburg ob der Tauber
ALDI SÜD,Im Gewerbepark 1,91093, Heßdorf
ALDI SÜD,Novettaweg 7,91275, Auerbach
ALDI SÜD,Waidhauser Str. 26,92648, Vohenstrauß
ALDI SÜD,Untere Bauscherstr. 5,92637, Weiden
ALDI SÜD,Im Häspelein 9,91438, Bad Windsheim
ALDI SÜD,Am Kreuzbach 14,91083, Baiersdorf
ALDI SÜD,Am alten Gleis 2,91413, Neustadt/Aisch
ALDI SÜD,Pressather Str. 9,92655, Grafenwöhr
ALDI SÜD,Neustädter Str. 47,92637, Weiden
ALDI SÜD,Hafenstr. 2a,91301, Forchheim
ALDI SÜD,Bayreuther Str. 10,91301, Forchheim
ALDI SÜD,Nürnberger Str. 20c,91257, Pegnitz
ALDI SÜD,Holzäckerstr. 1 a,91325, Adelsdorf
ALDI SÜD,Balthasar-Neumann-Str. 36,91327, Gößweinstein
ALDI SÜD,Tirschenreuther Str. 40,92660, Neustadt
ALDI SÜD,Rothenburger Str. 13-15,91315, Höchstadt
ALDI SÜD,Nürnberger Str. 4,97215, Uffenheim
ALDI SÜD,Oberes Tor 2,91320, Ebermannstadt
ALDI SÜD,Südring 11,91443, Scheinfeld-Klosterdorf
ALDI SÜD,Tirschenreuther Str. 18,92681, Erbendorf
ALDI SÜD,Löserstr. 2,96114, Hirschaid
ALDI SÜD,Industriestr. 18,97990, Weikersheim
ALDI SÜD,Röntgenstr. 30,95478, Kemnath
ALDI SÜD,Bamberger Str. 32,96138, Burgebrach
ALDI SÜD,Bahnhofstr. 69,97346, Iphofen
ALDI SÜD,Nürnberger Str. 96,95448, Bayreuth-Oberkonnersreuth
ALDI SÜD,Karl-von-Linde-Str. 15,95447, Bayreuth
ALDI SÜD,Münchner Ring 11,96050, Bamberg
ALDI SÜD,Südstr. 4,96142, Hollfeld
ALDI SÜD,Winter-Ring 6,95466, Weidenberg
ALDI SÜD,Äußere Regensburger Str. 81,95643, Tirschenreuth
ALDI SÜD,Johann-Hammer-Str. 23,97980, Bad Mergentheim
ALDI SÜD,Tunnelstr. 11,95448, Bayreuth
ALDI SÜD,Himmelkronstr. 1,95445, Bayreuth
ALDI SÜD,Pödeldorfer Str. 1,96052, Bamberg
ALDI SÜD,Pestalozzistr. 2,97199, Ochsenfurt
ALDI SÜD,Theodor-Schmidt-Str. 12,95448, Bayreuth
ALDI SÜD,Memmelsdorfer Str. 145,96052, Bamberg
ALDI SÜD,Biegenhofstr. 6,96103, Hallstadt
ALDI SÜD,Michelinstr. 142,96103, Hallstadt
ALDI SÜD,Marktbreiter Str. 7,97318, Kitzingen
ALDI SÜD,Hauptstr. 132,96120, Bischberg
ALDI SÜD,Carl-Zeiss-Str. 1,95666, Mitterteich
ALDI SÜD,Dagmar-Voßkühler-Str. 10,97318, Kitzingen
ALDI SÜD,Bürgermeister-Wachter-Str. 2,96120, Bischberg
ALDI SÜD,Hauptstr. 88,97922, Lauda-Königshofen
ALDI SÜD,Siegfried-Wilke-Str. 10,97318, Kitzingen
ALDI SÜD,Langenwiesengraben 3,97232, Giebelstadt
ALDI SÜD,Bamberger Str. 20 A,96110, Scheßlitz
ALDI SÜD,Ludwig-Hüttner-Str. 2,95679, Waldershof
ALDI SÜD,Gewerbepark 1,96149, Breitengüßbach
ALDI SÜD,Wölsauer Str. 35,95615, Marktredwitz
ALDI SÜD,Maintalstr. 161,95460, Bad Berneck
ALDI SÜD,An der Autobahn 6,95512, Neudrossenfeld
ALDI SÜD,Kulmbacher Str. 3,95502, Himmelkron
ALDI SÜD,An der Tongrube 2,95652, Waldsassen
ALDI SÜD,Egerstr. 131,95632, Wunsiedel
ALDI SÜD,Im Seelein 24,97332, Volkach
ALDI SÜD,An der Lohwiese 4,97500, Ebelsbach
ALDI SÜD,Stuttgarter Str. 28,97084, Würzburg-Heidingsfeld
ALDI SÜD,Oberer Kirschberg 8,97218, Gerbrunn
ALDI SÜD,Pestalozziallee 31a,97941, Tauberbischofsheim
ALDI SÜD,Rottendorfer Str. 65,97074, Würzburg
ALDI SÜD,Tiefe Äcker 2,95336, Mainleus
ALDI SÜD,Lichtenfelser Str. 47,95326, Kulmbach
ALDI SÜD,Innere Aumühlstr. 1,97076, Würzburg
ALDI SÜD,Albert-Ruckdeschel-Str. 29,95326, Kulmbach
ALDI SÜD,Eichhornstr. 22,97070, Würzburg
ALDI SÜD,Landwehrstr. 19,97249, Eisingen
ALDI SÜD,Wachtelberg 1,97273, Kürnach
ALDI SÜD,Frankfurter Str. 94,97082, Würzburg-Zellerau
ALDI SÜD,Bischof-von-Dinkel-Str. 1,96231, Bad Staffelstein
ALDI SÜD,Alfred-Nobel-Str. 14,97080, Würzburg
ALDI SÜD,Am Sterzelbach 3,97437, Haßfurt
ALDI SÜD,Seewiese 3,96224, Burgkunstadt
ALDI SÜD,Carl-Benz-Str. 3,96106, Ebern-Sandhof
ALDI SÜD,Alte Ziegelei 2,96106, Ebern
ALDI SÜD,Mainau 4,96215, Lichtenfels
ALDI SÜD,Weißenbacher Str. 90,95100, Selb
ALDI SÜD,August-Horch-Str. 24,95213, Münchberg
ALDI SÜD,Tiefer Graben 3,97453, Schonungen
ALDI SÜD,August-Borsig-Str. 2,97526, Sennfeld
ALDI SÜD,Am Eschenbach 5,97440, Werneck
ALDI SÜD,Industriestr. 29,96317, Kronach
ALDI SÜD,Würzburger Str. 74,97225, Zellingen
ALDI SÜD,Oskar-von-Miller-Str. 6,97424, Schweinfurt-Bergl
ALDI SÜD,Hans-Elbe-Str. 1,97461, Hofheim
ALDI SÜD,Frankenring 2,96237, Ebersdorf
ALDI SÜD,Heckenweg 5,97422, Schweinfurt
ALDI SÜD,Lengfurter Str. 47,97892, Kreuzwertheim
ALDI SÜD,Pilgramsreuther Str. 74,95111, Rehau
ALDI SÜD,Im Gries 1,96364, Marktrodach
ALDI SÜD,Willy-Brandt-Str. 23,97877, Wertheim-Reinhardshof
ALDI SÜD,Hofriedplatz 2b,97450, Arnstein
ALDI SÜD,In der Röthe 4,97837, Erlenbach
ALDI SÜD,Schweinfurter Str. 122,97464, Niederwerrn
ALDI SÜD,Fabrikweg 11,96450, Coburg-Creidlitz
ALDI SÜD,Georg-Mayr-Str. 26,97828, Marktheidenfeld
ALDI SÜD,Schaumbergstr. 15,95032, Hof
ALDI SÜD,Industriestr. 16,96342, Stockheim
ALDI SÜD,Callenberger Str. 16,96450, Coburg
ALDI SÜD,Würzburger Str. 1 h,97753, Karlstadt
ALDI SÜD,Oeslauer Str. 77,96472, Rödental
ALDI SÜD,Niorter Str. 3d,96450, Coburg
ALDI SÜD,Selbitzer Berg 24,95119, Naila
ALDI SÜD,Christoph-Klauß-Str. 15,95028, Hof
ALDI SÜD,Kornhausacker 7,95030, Hof
ALDI SÜD,Am Lerchenfeld 6,96465, Neustadt bei Coburg
ALDI SÜD,Robert-Hartwig-Str. 6,96515, Sonneberg
ALDI SÜD,Am Sportzentrum 2,97762, Hammelburg
ALDI SÜD,Kantstr. 35,96476, Bad Rodach
ALDI SÜD,Wernfelder Str. 28,97737, Gemünden am Main
ALDI SÜD,Im Lindes 2,97688, Bad Kissingen
ALDI SÜD,Kapelleinsweg 5,97631, Bad Königshofen im Grabfeld
ALDI SÜD,Rechtenbacher Str. 35,97816, Lohr am Main
ALDI SÜD,Spitzwiese 5,97688, Bad Kissingen-Winkels
ALDI SÜD,Gewerbestr. 18,97833, Frammersbach
ALDI SÜD,Saalestr. 13,97616, Bad Neustadt an der Saale
ALDI SÜD,Lauensteiner Str. 80,96337, Ludwigsstadt
ALDI SÜD,Borsigstr. 13,97616, Bad Neustadt an der Saale
ALDI SÜD,Thüringer Str. 29,97638, Mellrichstadt
ALDI SÜD,Kissinger Str. 40-42,97769, Bad Brückenau
ALDI SÜD,Bahnhofstr. 20,97653, Bischofsheim
